{"type": "Feature", "geometry": {"type": "Polygon", "coordinates": [[[-85.996780338, 34.676999158], [-85.997168814, 34.678039728], [-85.999814822, 34.678907444], [-86.001967098, 34.681639677], [-86.002255326, 34.681476875], [-86.005576293, 34.678027978], [-86.00672247, 34.67706852], [-86.007385313, 34.676137133], [-86.008277807, 34.675313937], [-86.009536738, 34.673904773], [-86.010331229, 34.673456656], [-86.011502554, 34.674279831], [-86.010908186, 34.675263466], [-86.011336982, 34.675635262], [-86.013134493, 34.676248711], [-86.013727966, 34.676590364], [-86.015691027, 34.677007249], [-86.017202645, 34.67748656], [-86.018655504, 34.678319021], [-86.020608662, 34.678652792], [-86.021774193, 34.678862186], [-86.022656276, 34.679258004], [-86.02408849, 34.679690382], [-86.028362379, 34.68376467], [-86.028564233, 34.684888149], [-86.028710525, 34.685279938], [-86.032507695, 34.685832379], [-86.037904476, 34.687288419], [-86.03983241, 34.687358412], [-86.042144945, 34.686580507], [-86.043154312, 34.686515055], [-86.043241668, 34.686701616], [-86.044692135, 34.687455543], [-86.0450931, 34.687923842], [-86.045895545, 34.688616067], [-86.046376991, 34.689183943], [-86.04605758, 34.690570458], [-86.048553635, 34.692724181], [-86.049458832, 34.693785439], [-86.050384566, 34.696633052], [-86.049965255, 34.698451391], [-86.054307195, 34.699188616], [-86.05812442, 34.700213812], [-86.059522569, 34.700773422], [-86.05998204, 34.701311955], [-86.060143149, 34.701450005], [-86.060365267, 34.703082865], [-86.059495616, 34.706862285], [-86.060069871, 34.70735582], [-86.060266481, 34.708202716], [-86.058459411, 34.709441285], [-86.057129508, 34.709997855], [-86.051822406, 34.710581652], [-86.049011465, 34.710916915], [-86.046208227, 34.710631218], [-86.045155901, 34.71082579], [-86.044131651, 34.711003789], [-86.042747031, 34.711260558], [-86.039843863, 34.713829538], [-86.034021812, 34.717923018], [-86.033092501, 34.721931077], [-86.032386354, 34.723476208], [-86.029127048, 34.726444327], [-86.026725441, 34.728398548], [-86.022508777, 34.73074312], [-86.021172008, 34.73060765], [-86.020184488, 34.730539983], [-86.018761022, 34.73039285], [-86.017569784, 34.73061534], [-86.015066651, 34.732328888], [-86.012076854, 34.736229887], [-86.011608828, 34.737755278], [-86.010187848, 34.737488167], [-86.008586905, 34.736569309], [-86.007280866, 34.735597739], [-86.005677587, 34.734617529], [-86.004465251, 34.732825901], [-86.003364214, 34.73219422], [-86.00041398, 34.733152767], [-85.997854997, 34.734593602], [-85.995831731, 34.735186978], [-85.990348418, 34.737562975], [-85.988408197, 34.738892392], [-85.984589893, 34.741012864], [-85.983044387, 34.742856507], [-85.981338289, 34.744159577], [-85.979411833, 34.745241416], [-85.978438707, 34.746375657], [-85.975199094, 34.748749971], [-85.972619779, 34.752805504], [-85.97204276, 34.754542653], [-85.970865716, 34.755964825], [-85.969486304, 34.757803632], [-85.968511563, 34.758729067], [-85.967820393, 34.759649387], [-85.967139918, 34.76036835], [-85.966107575, 34.75956737], [-85.965616715, 34.758197711], [-85.964759762, 34.756809189], [-85.963734795, 34.754799369], [-85.963565231, 34.754666783], [-85.964574761, 34.751546724], [-85.963693231, 34.749949571], [-85.962769912, 34.748593227], [-85.962403869, 34.746189164], [-85.959880763, 34.743928093], [-85.959839912, 34.740862982], [-85.958957136, 34.740369765], [-85.957430915, 34.740670283], [-85.955092762, 34.737889793], [-85.954761474, 34.736790842], [-85.954561382, 34.734727597], [-85.954247917, 34.734445629], [-85.955044192, 34.73343539], [-85.956403712, 34.732085958], [-85.958547284, 34.72952081], [-85.960581922, 34.727609989], [-85.961824786, 34.727331407], [-85.963160587, 34.727612877], [-85.964386466, 34.726529998], [-85.966055055, 34.723982843], [-85.966489764, 34.723514551], [-85.967283865, 34.722200628], [-85.967724503, 34.721726521], [-85.967710163, 34.72143872], [-85.968220927, 34.720427011], [-85.968453756, 34.719755913], [-85.968651402, 34.719652815], [-85.969697296, 34.718794612], [-85.970378989, 34.716432189], [-85.971350584, 34.715367404], [-85.972761816, 34.714631214], [-85.974129192, 34.711883153], [-85.973793961, 34.711489785], [-85.972668162, 34.710773445], [-85.972134916, 34.710148109], [-85.970231672, 34.708650532], [-85.966625165, 34.706350978], [-85.968080813, 34.704676775], [-85.967881602, 34.702525081], [-85.965822508, 34.702482673], [-85.964341561, 34.701786222], [-85.964352295, 34.701405749], [-85.965214845, 34.698492057], [-85.966574605, 34.697353262], [-85.967903479, 34.695973684], [-85.968619446, 34.695873066], [-85.967890092, 34.69456494], [-85.968200004, 34.693481139], [-85.971447305, 34.69337925], [-85.971427188, 34.692538865], [-85.969691666, 34.689698623], [-85.97147434, 34.688098889], [-85.972497742, 34.686593937], [-85.973009621, 34.684815274], [-85.973044383, 34.684548546], [-85.9718667, 34.684571516], [-85.969226351, 34.684675067], [-85.967596898, 34.684225017], [-85.966670207, 34.683854427], [-85.966321305, 34.683845453], [-85.965710851, 34.683495765], [-85.962260513, 34.681877339], [-85.958356654, 34.681271215], [-85.95776339, 34.680929283], [-85.956946071, 34.680734506], [-85.957935701, 34.67986734], [-85.959208865, 34.677880377], [-85.960079725, 34.676094742], [-85.960911074, 34.675386707], [-85.963511494, 34.674772088], [-85.963354861, 34.672474352], [-85.961933239, 34.671605899], [-85.961809233, 34.671443492], [-85.961381439, 34.67114533], [-85.961766455, 34.6704199], [-85.962940867, 34.669307324], [-85.964550569, 34.66897188], [-85.96492139, 34.668076639], [-85.964398356, 34.667296152], [-85.96294589, 34.666307036], [-85.962833232, 34.666137177], [-85.963111639, 34.665075931], [-85.964051961, 34.663968461], [-85.965403871, 34.66372038], [-85.966091676, 34.663077917], [-85.966585079, 34.662216408], [-85.967517964, 34.661344286], [-85.968082015, 34.660358207], [-85.968590071, 34.660159631], [-85.970197709, 34.66142967], [-85.972317414, 34.66073978], [-85.973369998, 34.660440555], [-85.974051851, 34.660221094], [-85.975346784, 34.660071254], [-85.978660253, 34.663053635], [-85.981489798, 34.66362155], [-85.982633873, 34.663117283], [-85.98953444, 34.663438698], [-85.993527309, 34.663912422], [-85.996287148, 34.666911979], [-85.996586297, 34.668100826], [-85.998169985, 34.6699984], [-86.000526809, 34.67083498], [-85.998692825, 34.672319017], [-85.997733568, 34.67467253], [-85.997179655, 34.67534351], [-85.996613722, 34.676864745], [-85.996780338, 34.676999158]]]}, "properties": {"arm": "10", "name": "Dry Creek", "comid": 19645536, "kind": "aboveHead"}}