{"type": "Feature", "geometry": {"type": "Polygon", "coordinates": [[[-86.027143195, 34.623111921], [-86.026110083, 34.624787144], [-86.024591451, 34.62702974], [-86.023381718, 34.630487246], [-86.022882041, 34.631063943], [-86.024038594, 34.632737113], [-86.024575853, 34.635050471], [-86.025105246, 34.635504616], [-86.024927918, 34.636273294], [-86.024897188, 34.637290534], [-86.025369089, 34.638188578], [-86.025595346, 34.639162506], [-86.026802067, 34.639929621], [-86.027039175, 34.640459861], [-86.025454116, 34.641792793], [-86.024069447, 34.642158828], [-86.022948571, 34.641989049], [-86.022188768, 34.642252667], [-86.020911463, 34.642589937], [-86.020981002, 34.646452009], [-86.02089757, 34.64681572], [-86.019319131, 34.648275577], [-86.017607001, 34.648727267], [-86.017532309, 34.651141993], [-86.019133166, 34.653028133], [-86.020353257, 34.654632971], [-86.022724888, 34.656033012], [-86.024612099, 34.657231366], [-86.025344328, 34.657481609], [-86.025174439, 34.657612452], [-86.023900535, 34.659081587], [-86.021679499, 34.661337713], [-86.021305107, 34.661866136], [-86.020522089, 34.662587119], [-86.020147683, 34.663115537], [-86.01859029, 34.664910116], [-86.015268901, 34.66755227], [-86.014270971, 34.668669899], [-86.014066426, 34.669067469], [-86.010535804, 34.673059094], [-86.010331229, 34.673456656], [-86.011502554, 34.674279831], [-86.010908186, 34.675263466], [-86.011336982, 34.675635262], [-86.013134493, 34.676248711], [-86.013727966, 34.676590364], [-86.015691027, 34.677007249], [-86.017202645, 34.67748656], [-86.018655504, 34.678319021], [-86.020608662, 34.678652792], [-86.021774193, 34.678862186], [-86.022656276, 34.679258004], [-86.02408849, 34.679690382], [-86.028362379, 34.68376467], [-86.028564233, 34.684888149], [-86.028710525, 34.685279938], [-86.032507695, 34.685832379], [-86.037904476, 34.687288419], [-86.03983241, 34.687358412], [-86.042144945, 34.686580507], [-86.043154312, 34.686515055], [-86.043241668, 34.686701616], [-86.044692135, 34.687455543], [-86.0450931, 34.687923842], [-86.045895545, 34.688616067], [-86.046376991, 34.689183943], [-86.04605758, 34.690570458], [-86.048553635, 34.692724181], [-86.049458832, 34.693785439], [-86.050384566, 34.696633052], [-86.049965255, 34.698451391], [-86.054307195, 34.699188616], [-86.05812442, 34.700213812], [-86.059522569, 34.700773422], [-86.05998204, 34.701311955], [-86.060143149, 34.701450005], [-86.060365267, 34.703082865], [-86.059495616, 34.706862285], [-86.060069871, 34.70735582], [-86.060266481, 34.708202716], [-86.058459411, 34.709441285], [-86.057129508, 34.709997855], [-86.051822406, 34.710581652], [-86.049011465, 34.710916915], [-86.046208227, 34.710631218], [-86.045155901, 34.71082579], [-86.044131651, 34.711003789], [-86.042747031, 34.711260558], [-86.039843863, 34.713829538], [-86.034021812, 34.717923018], [-86.033092501, 34.721931077], [-86.032386354, 34.723476208], [-86.029127048, 34.726444327], [-86.026725441, 34.728398548], [-86.022508777, 34.73074312], [-86.021172008, 34.73060765], [-86.020184488, 34.730539983], [-86.018761022, 34.73039285], [-86.017569784, 34.73061534], [-86.015066651, 34.732328888], [-86.012076854, 34.736229887], [-86.011608828, 34.737755278], [-86.010187848, 34.737488167], [-86.008586905, 34.736569309], [-86.007280866, 34.735597739], [-86.005677587, 34.734617529], [-86.004465251, 34.732825901], [-86.003364214, 34.73219422], [-86.00041398, 34.733152767], [-85.997854997, 34.734593602], [-85.995831731, 34.735186978], [-85.990348418, 34.737562975], [-85.988408197, 34.738892392], [-85.984589893, 34.741012864], [-85.983044387, 34.742856507], [-85.981338289, 34.744159577], [-85.979411833, 34.745241416], [-85.978438707, 34.746375657], [-85.975199094, 34.748749971], [-85.972619779, 34.752805504], [-85.97204276, 34.754542653], [-85.970865716, 34.755964825], [-85.969486304, 34.757803632], [-85.968511563, 34.758729067], [-85.967820393, 34.759649387], [-85.967139918, 34.76036835], [-85.966107575, 34.75956737], [-85.965616715, 34.758197711], [-85.964759762, 34.756809189], [-85.963734795, 34.754799369], [-85.963565231, 34.754666783], [-85.964574761, 34.751546724], [-85.963693231, 34.749949571], [-85.962769912, 34.748593227], [-85.962403869, 34.746189164], [-85.959880763, 34.743928093], [-85.959839912, 34.740862982], [-85.958957136, 34.740369765], [-85.957430915, 34.740670283], [-85.955092762, 34.737889793], [-85.954761474, 34.736790842], [-85.954561382, 34.734727597], [-85.954247917, 34.734445629], [-85.955044192, 34.73343539], [-85.956403712, 34.732085958], [-85.958547284, 34.72952081], [-85.960581922, 34.727609989], [-85.961824786, 34.727331407], [-85.963160587, 34.727612877], [-85.964386466, 34.726529998], [-85.966055055, 34.723982843], [-85.966489764, 34.723514551], [-85.967283865, 34.722200628], [-85.967724503, 34.721726521], [-85.967710163, 34.72143872], [-85.968220927, 34.720427011], [-85.968453756, 34.719755913], [-85.968651402, 34.719652815], [-85.969697296, 34.718794612], [-85.970378989, 34.716432189], [-85.971350584, 34.715367404], [-85.972761816, 34.714631214], [-85.974129192, 34.711883153], [-85.973793961, 34.711489785], [-85.972668162, 34.710773445], [-85.972134916, 34.710148109], [-85.970231672, 34.708650532], [-85.966625165, 34.706350978], [-85.968080813, 34.704676775], [-85.967881602, 34.702525081], [-85.965822508, 34.702482673], [-85.964341561, 34.701786222], [-85.964352295, 34.701405749], [-85.965214845, 34.698492057], [-85.966574605, 34.697353262], [-85.967903479, 34.695973684], [-85.968619446, 34.695873066], [-85.967890092, 34.69456494], [-85.968200004, 34.693481139], [-85.971447305, 34.69337925], [-85.971427188, 34.692538865], [-85.969691666, 34.689698623], [-85.97147434, 34.688098889], [-85.972497742, 34.686593937], [-85.973009621, 34.684815274], [-85.973044383, 34.684548546], [-85.9718667, 34.684571516], [-85.969226351, 34.684675067], [-85.967596898, 34.684225017], [-85.966670207, 34.683854427], [-85.966321305, 34.683845453], [-85.965710851, 34.683495765], [-85.962260513, 34.681877339], [-85.958356654, 34.681271215], [-85.95776339, 34.680929283], [-85.956946071, 34.680734506], [-85.957935701, 34.67986734], [-85.959208865, 34.677880377], [-85.960079725, 34.676094742], [-85.960911074, 34.675386707], [-85.963511494, 34.674772088], [-85.963354861, 34.672474352], [-85.961933239, 34.671605899], [-85.961809233, 34.671443492], [-85.961381439, 34.67114533], [-85.961766455, 34.6704199], [-85.962940867, 34.669307324], [-85.964550569, 34.66897188], [-85.96492139, 34.668076639], [-85.964398356, 34.667296152], [-85.96294589, 34.666307036], [-85.962833232, 34.666137177], [-85.963111639, 34.665075931], [-85.964051961, 34.663968461], [-85.965403871, 34.66372038], [-85.966091676, 34.663077917], [-85.966585079, 34.662216408], [-85.967517964, 34.661344286], [-85.968082015, 34.660358207], [-85.968590071, 34.660159631], [-85.969032695, 34.65897133], [-85.97122234, 34.656471035], [-85.972749192, 34.655236998], [-85.973648946, 34.653563332], [-85.974775224, 34.652199959], [-85.975417521, 34.651009859], [-85.977470024, 34.648942289], [-85.978908263, 34.648665679], [-85.979862852, 34.649137659], [-85.981188624, 34.650581395], [-85.982099913, 34.650689289], [-85.983088278, 34.650742695], [-85.984813735, 34.650947986], [-85.98544714, 34.650562043], [-85.986326634, 34.649938067], [-85.988032301, 34.648900451], [-85.988558698, 34.648260854], [-85.988981691, 34.64747961], [-85.990206903, 34.645631523], [-85.989690257, 34.644581961], [-85.989445457, 34.643056347], [-85.986687085, 34.642165941], [-85.985783627, 34.641540362], [-85.985004683, 34.641153068], [-85.986167965, 34.639980329], [-85.987665695, 34.639822534], [-85.988896021, 34.639249782], [-85.989826085, 34.638375155], [-85.990971869, 34.63741581], [-85.991405468, 34.636572249], [-85.992962713, 34.635696721], [-85.99303395, 34.63333429], [-85.994371851, 34.632869775], [-85.995567027, 34.63268589], [-85.995976112, 34.631890782], [-85.996841632, 34.631092744], [-85.996874479, 34.630081977], [-85.998020595, 34.629118386], [-85.998044004, 34.628359678], [-85.99951733, 34.627609622], [-86.000274072, 34.627409108], [-86.001809214, 34.626122772], [-86.003172184, 34.624206316], [-86.004300866, 34.623974498], [-86.006179399, 34.6237944], [-86.006758218, 34.623127622], [-86.007132522, 34.622599224], [-86.009007514, 34.621108072], [-86.010896865, 34.619146102], [-86.012235571, 34.618392781], [-86.01349236, 34.617232043], [-86.013696771, 34.616834451], [-86.015469749, 34.616807421], [-86.015872074, 34.615402681], [-86.016184673, 34.614769925], [-86.019014894, 34.615280252], [-86.021196843, 34.617035099], [-86.020018004, 34.618095124], [-86.020309233, 34.61930646], [-86.021090415, 34.619775906], [-86.022079451, 34.620100905], [-86.023242961, 34.620799074], [-86.025074334, 34.621621886], [-86.026648646, 34.622949445], [-86.027143195, 34.623111921]]]}, "properties": {"arm": "10", "name": "Dry Creek", "comid": 19647486, "kind": "atMouth"}}