{"type": "Feature", "geometry": {"type": "Polygon", "coordinates": [[[-86.01975821, 34.403705841], [-86.021311878, 34.404958643], [-86.024658028, 34.405596169], [-86.027520588, 34.406417569], [-86.028908715, 34.405691637], [-86.031395034, 34.405785071], [-86.031667909, 34.406093048], [-86.032248769, 34.406617168], [-86.03492384, 34.407911261], [-86.03623089, 34.408834932], [-86.037753424, 34.409570527], [-86.0424646, 34.409702895], [-86.043445902, 34.409787074], [-86.04609462, 34.410966913], [-86.047148484, 34.411310202], [-86.049125766, 34.410642987], [-86.051491031, 34.409370377], [-86.053947839, 34.409212084], [-86.054761062, 34.408936111], [-86.055514885, 34.408378941], [-86.055892347, 34.408156255], [-86.056902097, 34.408480923], [-86.058314301, 34.410576747], [-86.061763943, 34.411356908], [-86.062624907, 34.412497076], [-86.063982452, 34.413553284], [-86.06410626, 34.41371563], [-86.065562563, 34.41571183], [-86.065915655, 34.417647322], [-86.066076185, 34.417785407], [-86.066861594, 34.418710407], [-86.068505894, 34.418743603], [-86.071012746, 34.419162474], [-86.071561895, 34.419835393], [-86.072733254, 34.420371835], [-86.074329688, 34.420375561], [-86.074938966, 34.420480341], [-86.077057698, 34.419717267], [-86.079669567, 34.42016389], [-86.081752344, 34.419640032], [-86.08484212, 34.418397064], [-86.088493307, 34.418375859], [-86.090204334, 34.417687343], [-86.091165698, 34.41752493], [-86.094001768, 34.418439273], [-86.095438788, 34.418134057], [-86.096614673, 34.418112138], [-86.098260414, 34.419221982], [-86.099681002, 34.419992253], [-86.099833541, 34.420616441], [-86.100594727, 34.422116566], [-86.101502623, 34.42214972], [-86.104210819, 34.424568173], [-86.106594702, 34.425989465], [-86.108054087, 34.428132778], [-86.108369694, 34.428412564], [-86.108640132, 34.42872222], [-86.109125143, 34.428889986], [-86.109061985, 34.431299767], [-86.108696802, 34.432899838], [-86.108655775, 34.434289377], [-86.10837316, 34.434760556], [-86.105530898, 34.434231784], [-86.102100738, 34.43476136], [-86.099895327, 34.434425826], [-86.099133475, 34.433534734], [-86.096651064, 34.433485315], [-86.094887895, 34.432926068], [-86.094212506, 34.432912709], [-86.091326988, 34.433507401], [-86.090149306, 34.435796806], [-86.086690618, 34.437351972], [-86.084940282, 34.43830265], [-86.082477457, 34.439447465], [-86.082080401, 34.441150141], [-86.079981294, 34.441655786], [-86.07838939, 34.442558792], [-86.077294055, 34.444102743], [-86.075945056, 34.443738784], [-86.075182019, 34.443300544], [-86.070861801, 34.442102983], [-86.068142808, 34.440152825], [-86.065716004, 34.440653374], [-86.062537133, 34.440731235], [-86.060942482, 34.440489382], [-86.05956525, 34.440967935], [-86.058152475, 34.440598298], [-86.056751765, 34.43959319], [-86.055206621, 34.44013108], [-86.051405528, 34.439320745], [-86.050137431, 34.438811653], [-86.049322435, 34.438617468], [-86.048580561, 34.438718284], [-86.047376041, 34.439179886], [-86.045245376, 34.441191253], [-86.044541423, 34.442260574], [-86.043433098, 34.443238316], [-86.042808063, 34.44411628], [-86.042232946, 34.446250429], [-86.041385853, 34.447206294], [-86.040648554, 34.448272734], [-86.039889013, 34.449130718], [-86.037412445, 34.45119449], [-86.036039642, 34.453177985], [-86.035803617, 34.453644588], [-86.034622472, 34.453962658], [-86.031610436, 34.453944444], [-86.030185694, 34.454146721], [-86.029458729, 34.45401055], [-86.027517445, 34.454729072], [-86.025337875, 34.455930818], [-86.02245996, 34.458674318], [-86.021766907, 34.461095429], [-86.020816168, 34.462069659], [-86.018936235, 34.462831263], [-86.017171896, 34.46285879], [-86.01435947, 34.46193418], [-86.010547518, 34.462000534], [-86.00820033, 34.462336093], [-86.005910159, 34.462370906], [-86.005421071, 34.46197474], [-86.004994894, 34.461432236], [-86.002962988, 34.460171935], [-86.001387656, 34.458900312], [-86.000541533, 34.457628215], [-85.999655455, 34.457941843], [-85.998485026, 34.458494436], [-85.996518708, 34.459222963], [-85.99553436, 34.459237241], [-85.994933907, 34.459122289], [-85.994208773, 34.459390727], [-85.991318908, 34.459803549], [-85.98926729, 34.459833293], [-85.987724078, 34.459491614], [-85.985952868, 34.458755088], [-85.983636953, 34.458789343], [-85.981828886, 34.459731513], [-85.980012417, 34.461674089], [-85.979056927, 34.462521152], [-85.978500641, 34.462563789], [-85.978040382, 34.462703231], [-85.977927986, 34.462533348], [-85.977012976, 34.461893746], [-85.975780482, 34.459995833], [-85.9748213, 34.45945778], [-85.97364704, 34.459480774], [-85.970386482, 34.459979118], [-85.969347102, 34.459958915], [-85.967572806, 34.459247122], [-85.96663554, 34.459435949], [-85.964651105, 34.460957017], [-85.963226303, 34.460739056], [-85.961920941, 34.461193229], [-85.956737848, 34.461084514], [-85.955018906, 34.460822046], [-85.953096743, 34.461087883], [-85.952783924, 34.461385419], [-85.951321377, 34.462013473], [-85.95046019, 34.462352086], [-85.949752585, 34.462543792], [-85.945272818, 34.464061504], [-85.943495223, 34.464447203], [-85.943014585, 34.46480185], [-85.942648268, 34.464993556], [-85.941659032, 34.466452897], [-85.940631098, 34.467375612], [-85.938699185, 34.467516025], [-85.937045825, 34.466293616], [-85.934795148, 34.464892952], [-85.932178339, 34.464931745], [-85.92922962, 34.465571936], [-85.926612091, 34.4648433], [-85.926441098, 34.464984449], [-85.922525347, 34.464910364], [-85.921547677, 34.464060395], [-85.920752393, 34.463120851], [-85.920431663, 34.462844293], [-85.920061804, 34.462112394], [-85.918969506, 34.461368378], [-85.919004353, 34.461101599], [-85.918516724, 34.460934911], [-85.917922766, 34.460592471], [-85.917345143, 34.460580269], [-85.915154204, 34.459003082], [-85.913357553, 34.458722696], [-85.912473083, 34.457596162], [-85.911114714, 34.457029193], [-85.908251714, 34.456084849], [-85.908004612, 34.454929337], [-85.90675713, 34.452763627], [-85.905455234, 34.452220457], [-85.904307573, 34.452000541], [-85.905445592, 34.450396289], [-85.906099654, 34.447569536], [-85.906138362, 34.446284971], [-85.907153456, 34.444651045], [-85.909168531, 34.44351506], [-85.909706611, 34.442760816], [-85.911202574, 34.441916953], [-85.911271556, 34.439806608], [-85.911856692, 34.439819506], [-85.912862748, 34.439974366], [-85.915898641, 34.438878475], [-85.918656892, 34.436681269], [-85.919596539, 34.435127124], [-85.919870617, 34.43419604], [-85.92014454, 34.433642257], [-85.920896061, 34.432815858], [-85.921547788, 34.431209299], [-85.924927283, 34.428427198], [-85.92650241, 34.427606897], [-85.927778975, 34.427291864], [-85.9296554, 34.42626158], [-85.930738346, 34.425845406], [-85.930903319, 34.425710055], [-85.932506278, 34.424913173], [-85.935962901, 34.423060736], [-85.939764573, 34.422287839], [-85.940117629, 34.422335298], [-85.941609772, 34.421832234], [-85.943590347, 34.419801096], [-85.946364625, 34.41867972], [-85.94750596, 34.416860397], [-85.949889969, 34.415896964], [-85.950061739, 34.415768501], [-85.950715925, 34.41582514], [-85.951065592, 34.416255908], [-85.952118022, 34.416608392], [-85.953727692, 34.417266254], [-85.954889168, 34.417952758], [-85.955869698, 34.418282118], [-85.956990942, 34.418741684], [-85.959101579, 34.418747215], [-85.961118681, 34.41909452], [-85.963119932, 34.420776786], [-85.966106189, 34.420786224], [-85.969603033, 34.419530748], [-85.972775442, 34.419499194], [-85.973990129, 34.419996166], [-85.974644368, 34.42005267], [-85.974809251, 34.419917256], [-85.975530115, 34.419739219], [-85.97840465, 34.418657395], [-85.979139298, 34.418552192], [-85.979626791, 34.418718635], [-85.98078035, 34.419547505], [-85.983962298, 34.421434555], [-85.98598779, 34.42199713], [-85.987232159, 34.423461872], [-85.98801938, 34.424147344], [-85.992153743, 34.424231927], [-85.993475969, 34.423960185], [-85.996207889, 34.423858392], [-85.997901643, 34.422992616], [-85.999503788, 34.422354993], [-86.000160419, 34.422253476], [-86.000702689, 34.422196907], [-86.001633058, 34.421777506], [-86.002769147, 34.421565511], [-86.003776215, 34.421032559], [-86.004216334, 34.420008156], [-86.004465989, 34.419656583], [-86.004762861, 34.418560827], [-86.006200227, 34.41711853], [-86.006835873, 34.415680972], [-86.006799381, 34.415403823], [-86.007084755, 34.41475602], [-86.010290883, 34.413242516], [-86.012616213, 34.411585699], [-86.012801585, 34.411470969], [-86.011777653, 34.40945849], [-86.012552478, 34.407982293], [-86.014989813, 34.406136946], [-86.016470753, 34.404613977], [-86.017038229, 34.404281287], [-86.017518643, 34.40416242], [-86.018916257, 34.404063417], [-86.01975821, 34.403705841]]]}, "properties": {"arm": "105", "name": "Black Oak Creek", "comid": 19648940, "kind": "aboveHead"}}