{"type": "Feature", "geometry": {"type": "Polygon", "coordinates": [[[-86.212117346, 34.395147113], [-86.213147043, 34.396846041], [-86.216198486, 34.39738779], [-86.219302861, 34.398450203], [-86.220120679, 34.398641338], [-86.22063682, 34.399481382], [-86.219847543, 34.402268147], [-86.218921325, 34.404055049], [-86.218182436, 34.408727838], [-86.218047257, 34.40979537], [-86.217315588, 34.411493284], [-86.218112382, 34.412626701], [-86.218666782, 34.415429707], [-86.218057232, 34.416122211], [-86.217689949, 34.416656008], [-86.216824018, 34.417638777], [-86.214471836, 34.41856582], [-86.212417849, 34.421543032], [-86.21217102, 34.422247119], [-86.210339855, 34.422914567], [-86.208770945, 34.425528027], [-86.209217982, 34.4269544], [-86.207432499, 34.427117814], [-86.207240502, 34.427225949], [-86.207014663, 34.427600959], [-86.206473451, 34.429464481], [-86.203834975, 34.429568543], [-86.203638028, 34.430428545], [-86.203611578, 34.431431472], [-86.202157977, 34.432257095], [-86.204133322, 34.434672177], [-86.203397672, 34.436702608], [-86.202402542, 34.436683979], [-86.201375501, 34.436529894], [-86.200189217, 34.436775381], [-86.198548727, 34.436527356], [-86.197433316, 34.436825156], [-86.196824376, 34.437530257], [-86.196373385, 34.438619564], [-86.193792119, 34.43902327], [-86.193131189, 34.439791396], [-86.193805785, 34.441072672], [-86.191967524, 34.442116466], [-86.192196499, 34.443345364], [-86.193078852, 34.444618895], [-86.191835319, 34.445761373], [-86.191643253, 34.445869481], [-86.191297728, 34.447266903], [-86.190733243, 34.448129557], [-86.189486791, 34.447870452], [-86.187426786, 34.448155811], [-86.185800604, 34.449603063], [-86.187395681, 34.451796604], [-86.186711321, 34.453255998], [-86.185023834, 34.453903634], [-86.183548789, 34.453429184], [-86.182021598, 34.452490925], [-86.180149488, 34.452659292], [-86.178600749, 34.456055887], [-86.178073296, 34.456321055], [-86.177843075, 34.456992765], [-86.177031646, 34.458270681], [-86.175837133, 34.458435178], [-86.174394077, 34.459800844], [-86.172543071, 34.460735821], [-86.173107652, 34.463042549], [-86.172998857, 34.46338947], [-86.174298896, 34.465178903], [-86.172982633, 34.466258157], [-86.172589994, 34.467067839], [-86.171475203, 34.467335977], [-86.170584108, 34.46836478], [-86.170132596, 34.468174857], [-86.16836432, 34.467605887], [-86.167514144, 34.466486635], [-86.168476355, 34.465630344], [-86.168009458, 34.463470935], [-86.166773488, 34.463067093], [-86.165611055, 34.46237023], [-86.164290545, 34.461777976], [-86.163542905, 34.461295325], [-86.161813463, 34.460565155], [-86.159157029, 34.460658346], [-86.15749003, 34.460310601], [-86.156503359, 34.460547305], [-86.155348369, 34.460988894], [-86.153774224, 34.460541492], [-86.153359163, 34.458546524], [-86.152561007, 34.458055296], [-86.15140974, 34.457839682], [-86.151282855, 34.457679306], [-86.150561418, 34.457356829], [-86.150128598, 34.456190609], [-86.148520273, 34.453398992], [-86.146881258, 34.452448645], [-86.146519843, 34.449994553], [-86.146965516, 34.44842657], [-86.146939156, 34.447336947], [-86.147964082, 34.445948755], [-86.147388633, 34.445718707], [-86.142789018, 34.446034373], [-86.14119001, 34.446594075], [-86.140101516, 34.448134873], [-86.139185509, 34.449195077], [-86.136518681, 34.450707201], [-86.135160106, 34.451750866], [-86.132835046, 34.452832537], [-86.133478376, 34.454554106], [-86.13406089, 34.456367439], [-86.134308937, 34.456691966], [-86.135077765, 34.457290422], [-86.135575522, 34.45867507], [-86.135813509, 34.459826921], [-86.135513381, 34.460536895], [-86.134456983, 34.461642041], [-86.13309148, 34.463850456], [-86.131163305, 34.464898386], [-86.128031441, 34.465654345], [-86.124354817, 34.466989798], [-86.123810671, 34.468049896], [-86.120817152, 34.471460049], [-86.120552614, 34.472617666], [-86.120533186, 34.473294578], [-86.119823441, 34.474294215], [-86.118982983, 34.474941343], [-86.117853695, 34.474411183], [-86.116782367, 34.472318075], [-86.116423112, 34.471448787], [-86.115555051, 34.470312828], [-86.115421141, 34.468935865], [-86.115080212, 34.467802598], [-86.115222241, 34.465159399], [-86.115155293, 34.464470913], [-86.113845492, 34.463615549], [-86.111601308, 34.462667987], [-86.110203421, 34.462218124], [-86.108310516, 34.461051723], [-86.105869094, 34.460595125], [-86.105293816, 34.460242656], [-86.104628158, 34.459949923], [-86.104504191, 34.459787629], [-86.104014497, 34.458525719], [-86.103110362, 34.454185375], [-86.101730993, 34.452685358], [-86.097846488, 34.451772592], [-86.090664511, 34.450007271], [-86.090135411, 34.448933682], [-86.090481015, 34.446986364], [-86.089525843, 34.444137739], [-86.088913399, 34.443472194], [-86.088454123, 34.443043112], [-86.086485062, 34.442676933], [-86.084417203, 34.442637377], [-86.082080401, 34.441150141], [-86.079981294, 34.441655786], [-86.07838939, 34.442558792], [-86.077294055, 34.444102743], [-86.075945056, 34.443738784], [-86.075182019, 34.443300544], [-86.070861801, 34.442102983], [-86.068142808, 34.440152825], [-86.065716004, 34.440653374], [-86.062537133, 34.440731235], [-86.060942482, 34.440489382], [-86.05956525, 34.440967935], [-86.058152475, 34.440598298], [-86.056751765, 34.43959319], [-86.055206621, 34.44013108], [-86.051405528, 34.439320745], [-86.050137431, 34.438811653], [-86.049322435, 34.438617468], [-86.048580561, 34.438718284], [-86.047376041, 34.439179886], [-86.045245376, 34.441191253], [-86.044541423, 34.442260574], [-86.043433098, 34.443238316], [-86.042808063, 34.44411628], [-86.042232946, 34.446250429], [-86.041385853, 34.447206294], [-86.040648554, 34.448272734], [-86.039889013, 34.449130718], [-86.037412445, 34.45119449], [-86.036039642, 34.453177985], [-86.035803617, 34.453644588], [-86.034622472, 34.453962658], [-86.031610436, 34.453944444], [-86.030185694, 34.454146721], [-86.029458729, 34.45401055], [-86.027517445, 34.454729072], [-86.025337875, 34.455930818], [-86.02245996, 34.458674318], [-86.021766907, 34.461095429], [-86.020816168, 34.462069659], [-86.018936235, 34.462831263], [-86.017171896, 34.46285879], [-86.01435947, 34.46193418], [-86.010547518, 34.462000534], [-86.00820033, 34.462336093], [-86.005910159, 34.462370906], [-86.005421071, 34.46197474], [-86.004994894, 34.461432236], [-86.002962988, 34.460171935], [-86.001387656, 34.458900312], [-86.000541533, 34.457628215], [-85.999655455, 34.457941843], [-85.998485026, 34.458494436], [-85.996518708, 34.459222963], [-85.99553436, 34.459237241], [-85.994933907, 34.459122289], [-85.994208773, 34.459390727], [-85.991318908, 34.459803549], [-85.98926729, 34.459833293], [-85.987724078, 34.459491614], [-85.985952868, 34.458755088], [-85.983636953, 34.458789343], [-85.981828886, 34.459731513], [-85.980012417, 34.461674089], [-85.979056927, 34.462521152], [-85.978500641, 34.462563789], [-85.978040382, 34.462703231], [-85.977927986, 34.462533348], [-85.977012976, 34.461893746], [-85.975780482, 34.459995833], [-85.9748213, 34.45945778], [-85.97364704, 34.459480774], [-85.970386482, 34.459979118], [-85.969347102, 34.459958915], [-85.967572806, 34.459247122], [-85.96663554, 34.459435949], [-85.964651105, 34.460957017], [-85.963226303, 34.460739056], [-85.961920941, 34.461193229], [-85.956737848, 34.461084514], [-85.955018906, 34.460822046], [-85.953096743, 34.461087883], [-85.952783924, 34.461385419], [-85.951321377, 34.462013473], [-85.95046019, 34.462352086], [-85.949752585, 34.462543792], [-85.945272818, 34.464061504], [-85.943495223, 34.464447203], [-85.943014585, 34.46480185], [-85.942648268, 34.464993556], [-85.941659032, 34.466452897], [-85.940631098, 34.467375612], [-85.938699185, 34.467516025], [-85.937045825, 34.466293616], [-85.934795148, 34.464892952], [-85.932178339, 34.464931745], [-85.92922962, 34.465571936], [-85.926612091, 34.4648433], [-85.926441098, 34.464984449], [-85.922525347, 34.464910364], [-85.921547677, 34.464060395], [-85.920752393, 34.463120851], [-85.920431663, 34.462844293], [-85.920061804, 34.462112394], [-85.918969506, 34.461368378], [-85.919004353, 34.461101599], [-85.918516724, 34.460934911], [-85.917922766, 34.460592471], [-85.917345143, 34.460580269], [-85.915154204, 34.459003082], [-85.913357553, 34.458722696], [-85.912473083, 34.457596162], [-85.911114714, 34.457029193], [-85.908251714, 34.456084849], [-85.908004612, 34.454929337], [-85.90675713, 34.452763627], [-85.905455234, 34.452220457], [-85.904307573, 34.452000541], [-85.904272679, 34.452267318], [-85.903945449, 34.45223887], [-85.90341337, 34.452550953], [-85.902636293, 34.454024263], [-85.899615837, 34.453909155], [-85.898577805, 34.453325619], [-85.897293499, 34.453675531], [-85.89505338, 34.454433409], [-85.895094002, 34.45625607], [-85.893814637, 34.45771303], [-85.892298983, 34.458900681], [-85.891699959, 34.459782349], [-85.889827017, 34.461782038], [-85.886535159, 34.462551503], [-85.884969857, 34.463129774], [-85.883977692, 34.463182486], [-85.883255823, 34.463284028], [-85.881910426, 34.463782343], [-85.881945865, 34.465484413], [-85.881124145, 34.466386686], [-85.88072991, 34.467756213], [-85.879045993, 34.46854752], [-85.873881792, 34.468426261], [-85.872458016, 34.469067308], [-85.870640263, 34.469182834], [-85.869328822, 34.470149832], [-85.865946325, 34.472116594], [-85.863731983, 34.472336542], [-85.861367225, 34.472638179], [-85.860407155, 34.47260286], [-85.860216845, 34.472712725], [-85.857675187, 34.474143466], [-85.857315751, 34.475697263], [-85.857225453, 34.47841074], [-85.856411709, 34.480350667], [-85.855098908, 34.480695562], [-85.853454227, 34.482501775], [-85.85343978, 34.482926318], [-85.851799908, 34.483849703], [-85.851829442, 34.484805073], [-85.85212333, 34.485383024], [-85.851238451, 34.488117719], [-85.850844028, 34.48832357], [-85.850018169, 34.489979932], [-85.848620744, 34.49151679], [-85.84782243, 34.492825628], [-85.846283691, 34.492958877], [-85.845225045, 34.493827578], [-85.844830578, 34.494033407], [-85.844474143, 34.494598801], [-85.844514508, 34.496434123], [-85.844521299, 34.497404364], [-85.844631185, 34.49806321], [-85.844525823, 34.498863446], [-85.844052797, 34.501119741], [-85.844269772, 34.502812392], [-85.84506282, 34.504846271], [-85.845991885, 34.506672798], [-85.846091596, 34.507094659], [-85.846220848, 34.50933611], [-85.845592785, 34.512042577], [-85.845558012, 34.513053434], [-85.845037905, 34.515096908], [-85.844486491, 34.516159584], [-85.84376985, 34.516708252], [-85.84069181, 34.518110805], [-85.839078427, 34.518747587], [-85.837162043, 34.519621342], [-85.836282749, 34.51985221], [-85.835615445, 34.520084747], [-85.833536774, 34.520402526], [-85.832199853, 34.520865257], [-85.831679607, 34.520944113], [-85.831278022, 34.522262255], [-85.830542017, 34.523152745], [-85.831444762, 34.526296599], [-85.830240904, 34.527751124], [-85.830157667, 34.5287746], [-85.829646319, 34.529648904], [-85.829874727, 34.530899891], [-85.830131658, 34.532680341], [-85.830292005, 34.532818733], [-85.832065831, 34.534913132], [-85.832530397, 34.536081471], [-85.832397692, 34.536655851], [-85.832377585, 34.537240079], [-85.832828734, 34.538706554], [-85.83292558, 34.539130271], [-85.833147793, 34.540880252], [-85.8322949, 34.545010828], [-85.832230289, 34.546128659], [-85.831542488, 34.547103463], [-85.828898695, 34.550265862], [-85.827119237, 34.55170373], [-85.826907186, 34.552094101], [-85.825689535, 34.552531393], [-85.823753045, 34.55429484], [-85.820382034, 34.555175978], [-85.819171043, 34.555464134], [-85.818972649, 34.555868336], [-85.818420268, 34.556462869], [-85.817707826, 34.557916036], [-85.816830653, 34.559283107], [-85.816359388, 34.561693266], [-85.816159659, 34.561793816], [-85.815798052, 34.562335485], [-85.815239931, 34.562933718], [-85.813327834, 34.562530178], [-85.810013374, 34.563449729], [-85.808856848, 34.564695313], [-85.807040831, 34.565581668], [-85.806175049, 34.567428152], [-85.804962514, 34.567882564], [-85.802357541, 34.568408811], [-85.801566871, 34.568708361], [-85.80103476, 34.569793624], [-85.800418759, 34.569908237], [-85.797671972, 34.56921625], [-85.793125256, 34.566941323], [-85.792664043, 34.567080017], [-85.791549763, 34.567163499], [-85.790591988, 34.567707581], [-85.790034843, 34.567749313], [-85.78953916, 34.569457456], [-85.789560503, 34.570469008], [-85.788581126, 34.572328609], [-85.787990237, 34.573777546], [-85.785834577, 34.574897268], [-85.785299016, 34.575967417], [-85.785106061, 34.576074838], [-85.784105895, 34.577679634], [-85.783358293, 34.57944994], [-85.780861623, 34.581361707], [-85.780517485, 34.58202286], [-85.779437184, 34.584210787], [-85.779880892, 34.586450389], [-85.779486038, 34.588137831], [-85.779458299, 34.588991188], [-85.779908746, 34.590457783], [-85.780392967, 34.59293911], [-85.780692172, 34.596268392], [-85.782288919, 34.59932798], [-85.782443411, 34.599999191], [-85.782210441, 34.600368683], [-85.781718704, 34.601575446], [-85.78085367, 34.60284217], [-85.778194703, 34.603510782], [-85.775583482, 34.603877895], [-85.774979673, 34.603761605], [-85.774315175, 34.603770665], [-85.773483912, 34.603611192], [-85.772137349, 34.60380059], [-85.771150443, 34.604013157], [-85.768387916, 34.604016909], [-85.767765927, 34.604525016], [-85.767568308, 34.604627787], [-85.767835238, 34.60542695], [-85.76809942, 34.606714892], [-85.768366363, 34.607514052], [-85.768542493, 34.608372677], [-85.768993534, 34.609717087], [-85.769323412, 34.610296235], [-85.769411485, 34.610725545], [-85.768946483, 34.612002066], [-85.766328225, 34.6139598], [-85.764067646, 34.614551441], [-85.762932147, 34.614944803], [-85.762867344, 34.616855132], [-85.761755351, 34.618416189], [-85.760901927, 34.618461261], [-85.760133848, 34.618741481], [-85.757742572, 34.618073668], [-85.757125801, 34.618580078], [-85.755731951, 34.618596521], [-85.754568725, 34.617113482], [-85.752694411, 34.616495279], [-85.751639185, 34.615856426], [-85.749544593, 34.615452744], [-85.747753222, 34.615438289], [-85.746066329, 34.616196067], [-85.745491828, 34.617104536], [-85.744982826, 34.61870805], [-85.744551933, 34.61918019], [-85.744064955, 34.62015117], [-85.742115127, 34.62017748], [-85.740659656, 34.619897426], [-85.737897518, 34.61993216], [-85.73775763, 34.619270594], [-85.736901706, 34.618906339], [-85.735809891, 34.619320169], [-85.734443772, 34.61903105], [-85.732568424, 34.619470595], [-85.731837204, 34.619745459], [-85.730450878, 34.619452403], [-85.729090669, 34.619585325], [-85.728585503, 34.619816881], [-85.727421798, 34.621002114], [-85.726812711, 34.622575666], [-85.725433359, 34.623977934], [-85.723818908, 34.626752764], [-85.723468261, 34.626913626], [-85.722882701, 34.628038142], [-85.720478355, 34.629874728], [-85.720478742, 34.633812335], [-85.721328915, 34.635055183], [-85.721733908, 34.636079545], [-85.722055697, 34.636698166], [-85.721794198, 34.637821772], [-85.721901757, 34.638647021], [-85.721373755, 34.638718446], [-85.72071054, 34.638967641], [-85.72021387, 34.638862657], [-85.719714152, 34.638877551], [-85.718879448, 34.63870266], [-85.717239216, 34.638774909], [-85.716777438, 34.638913293], [-85.71621974, 34.638954669], [-85.713758053, 34.638617038], [-85.71157331, 34.637894894], [-85.708978733, 34.637349375], [-85.707483942, 34.636140075], [-85.706959456, 34.6361464], [-85.706523979, 34.637018521], [-85.706620256, 34.637442296], [-85.706659266, 34.640213451], [-85.706052451, 34.64168804], [-85.705104206, 34.646490344], [-85.706072527, 34.649659826], [-85.705384933, 34.65078789], [-85.703206655, 34.653038339], [-85.702964871, 34.653702025], [-85.702505262, 34.65384266], [-85.701576297, 34.655010488], [-85.701403043, 34.655452579], [-85.699645525, 34.656165581], [-85.697721503, 34.656591909], [-85.695539525, 34.656698164], [-85.693338034, 34.657588905], [-85.691754373, 34.658106394], [-85.69117303, 34.658516564], [-85.686506415, 34.6612568], [-85.684468543, 34.663962046], [-85.682463739, 34.664524327], [-85.681904409, 34.666007232], [-85.681682176, 34.666388047], [-85.681259955, 34.667834614], [-85.681276494, 34.668736161], [-85.682715543, 34.670769204], [-85.682186081, 34.672589907], [-85.683875209, 34.673957897], [-85.685042222, 34.67544825], [-85.686992358, 34.676301784], [-85.685617964, 34.677847424], [-85.685250949, 34.679385298], [-85.684864244, 34.679599784], [-85.684182188, 34.680121157], [-85.683030016, 34.680763198], [-85.681198023, 34.681039363], [-85.679073295, 34.682221253], [-85.67695086, 34.682979624], [-85.673085586, 34.685126449], [-85.672729153, 34.686100318], [-85.672895223, 34.686235191], [-85.673603977, 34.687139071], [-85.673171329, 34.688622617], [-85.672344799, 34.689523191], [-85.672377075, 34.691195501], [-85.670371995, 34.693859168], [-85.667557258, 34.696252862], [-85.667323023, 34.696683177], [-85.666432854, 34.696994187], [-85.664294247, 34.698737422], [-85.66363005, 34.700822222], [-85.663162363, 34.701560649], [-85.662960492, 34.701962208], [-85.662125061, 34.702328636], [-85.661349704, 34.70305873], [-85.659960625, 34.703220033], [-85.657469523, 34.704282648], [-85.65610392, 34.705021447], [-85.6545099, 34.705529162], [-85.654015611, 34.705365125], [-85.65343489, 34.705014238], [-85.65082411, 34.704150008], [-85.650022644, 34.704321229], [-85.648304382, 34.706021444], [-85.64771305, 34.708043093], [-85.647245166, 34.708781451], [-85.646697619, 34.710650998], [-85.646156469, 34.711239504], [-85.645425693, 34.712696478], [-85.643933191, 34.71391291], [-85.64230762, 34.714305955], [-85.641509206, 34.715474438], [-85.639835979, 34.716837069], [-85.638893136, 34.717902058], [-85.636267091, 34.717668556], [-85.636096411, 34.717798823], [-85.634153778, 34.718559855], [-85.633149627, 34.719058645], [-85.631099662, 34.720788158], [-85.628113108, 34.72114846], [-85.627085629, 34.722011906], [-85.626684848, 34.722212322], [-85.62489876, 34.721907888], [-85.624559987, 34.721898808], [-85.623634497, 34.721525518], [-85.622172527, 34.721146607], [-85.62012364, 34.721558583], [-85.619683226, 34.72239837], [-85.618626415, 34.722843872], [-85.618390536, 34.723514267], [-85.616727885, 34.726062214], [-85.615988231, 34.726234516], [-85.615332182, 34.726479608], [-85.614274777, 34.726621479], [-85.614110891, 34.726758648], [-85.612523502, 34.727576303], [-85.610814068, 34.727664249], [-85.609681005, 34.728077587], [-85.609114286, 34.728083979], [-85.608537406, 34.727973526], [-85.6065222, 34.728403041], [-85.606084411, 34.728319734], [-85.603701177, 34.728648928], [-85.602727986, 34.728186899], [-85.600957236, 34.726751489], [-85.597798311, 34.72679001], [-85.596423485, 34.727339747], [-85.59603743, 34.726375663], [-85.595992359, 34.723985389], [-85.59371506, 34.724011845], [-85.591351718, 34.723427682], [-85.590619419, 34.723583619], [-85.588616565, 34.724285864], [-85.585994922, 34.721182612], [-85.585327939, 34.720952259], [-85.585794846, 34.71940242], [-85.587662256, 34.714448868], [-85.588088538, 34.712834253], [-85.58860591, 34.712022507], [-85.589340202, 34.709857802], [-85.589997419, 34.707188706], [-85.590429747, 34.706717182], [-85.591491018, 34.704609078], [-85.592486731, 34.70352173], [-85.593376585, 34.702123469], [-85.594150077, 34.700242604], [-85.595454461, 34.698771733], [-85.596651227, 34.697558962], [-85.597055632, 34.696756067], [-85.597981717, 34.696278015], [-85.59944457, 34.694977251], [-85.598815435, 34.693835432], [-85.599201207, 34.693169999], [-85.599399277, 34.693067523], [-85.599704247, 34.692462332], [-85.600437985, 34.691391591], [-85.601618498, 34.690105652], [-85.602255139, 34.687776152], [-85.60245319, 34.687673671], [-85.603239332, 34.68813383], [-85.604248633, 34.688881622], [-85.607293806, 34.688847671], [-85.60894756, 34.688493485], [-85.609999888, 34.688347033], [-85.610206562, 34.687950182], [-85.610629531, 34.687469327], [-85.611319584, 34.685587252], [-85.612845471, 34.684431096], [-85.618065401, 34.683332293], [-85.619394736, 34.68270874], [-85.620271101, 34.681500936], [-85.619884529, 34.680444088], [-85.619417471, 34.679599301], [-85.619403819, 34.678797028], [-85.619701872, 34.677780109], [-85.619084489, 34.675146939], [-85.619653385, 34.673199208], [-85.619170165, 34.671878655], [-85.617863152, 34.670819842], [-85.615610679, 34.67029016], [-85.61624665, 34.668576084], [-85.617638947, 34.667292025], [-85.6196498, 34.665652016], [-85.61963178, 34.664632209], [-85.619980714, 34.66360295], [-85.620550486, 34.662532239], [-85.622117351, 34.661221533], [-85.624170433, 34.660401046], [-85.624924655, 34.659519615], [-85.62667308, 34.65593777], [-85.627665964, 34.656074706], [-85.629264688, 34.655641607], [-85.630375718, 34.654132098], [-85.630793813, 34.65364653], [-85.631211323, 34.652857346], [-85.632500894, 34.650830377], [-85.633059904, 34.649779736], [-85.634805583, 34.648158054], [-85.635158065, 34.646465026], [-85.634411842, 34.645190657], [-85.634245927, 34.645055723], [-85.633797094, 34.644480305], [-85.632450508, 34.643871317], [-85.63296439, 34.643059086], [-85.633657113, 34.642304939], [-85.63481969, 34.638331399], [-85.636086708, 34.636584865], [-85.637397485, 34.633973676], [-85.638592589, 34.63276039], [-85.638960329, 34.632223936], [-85.639556063, 34.631572856], [-85.639525006, 34.629858309], [-85.640024391, 34.62815092], [-85.641658816, 34.625867843], [-85.642137054, 34.623873966], [-85.643602923, 34.621474674], [-85.644221885, 34.620283853], [-85.645166792, 34.618904894], [-85.644657993, 34.617234259], [-85.645262835, 34.615300115], [-85.646301657, 34.614513454], [-85.64731617, 34.613945977], [-85.647988511, 34.612357233], [-85.650201574, 34.611780403], [-85.652912475, 34.609639304], [-85.652692309, 34.607960631], [-85.652266097, 34.607024667], [-85.651852266, 34.606806565], [-85.651824527, 34.604776072], [-85.652810289, 34.602454136], [-85.654673919, 34.598882121], [-85.655741009, 34.597901847], [-85.657647128, 34.595246394], [-85.659771921, 34.593624367], [-85.660049687, 34.592694065], [-85.66160771, 34.592031436], [-85.662302822, 34.590906322], [-85.664138675, 34.59012289], [-85.664980629, 34.589177351], [-85.66547221, 34.587888677], [-85.665681326, 34.587797631], [-85.665923222, 34.587133973], [-85.666620464, 34.58599216], [-85.666038034, 34.584076817], [-85.667102277, 34.583481993], [-85.66781483, 34.582940248], [-85.67003538, 34.583285034], [-85.670957264, 34.581935469], [-85.67203887, 34.580205856], [-85.673083417, 34.579621883], [-85.673680087, 34.578939113], [-85.674056451, 34.578411759], [-85.674824664, 34.57753129], [-85.675193311, 34.575959715], [-85.675254432, 34.574228025], [-85.676432389, 34.573246889], [-85.677175698, 34.57096649], [-85.678136033, 34.570429818], [-85.678306316, 34.570299468], [-85.679535044, 34.570543431], [-85.680660171, 34.571193494], [-85.681933918, 34.5717977], [-85.684216686, 34.570572985], [-85.688148756, 34.566178379], [-85.688215133, 34.564289045], [-85.690878388, 34.562250483], [-85.692255527, 34.56020328], [-85.6921951, 34.559512776], [-85.691382766, 34.558325555], [-85.691407312, 34.557619392], [-85.692105267, 34.557086766], [-85.694132396, 34.556897519], [-85.694348524, 34.555978548], [-85.694080315, 34.555098867], [-85.696970694, 34.552810474], [-85.697660378, 34.55168048], [-85.698425553, 34.550101809], [-85.699080484, 34.54855342], [-85.700661276, 34.546916288], [-85.700696915, 34.546649601], [-85.700896755, 34.546549247], [-85.701547873, 34.545997666], [-85.7030046, 34.545656572], [-85.703658838, 34.54541094], [-85.707318071, 34.544708278], [-85.708692772, 34.543546112], [-85.710124169, 34.54283166], [-85.712019376, 34.542676839], [-85.712461429, 34.541537507], [-85.712079165, 34.538950718], [-85.711237877, 34.538290199], [-85.711133738, 34.536898034], [-85.710136579, 34.534438095], [-85.711080431, 34.53297214], [-85.711499036, 34.532764644], [-85.711878307, 34.532037165], [-85.713501028, 34.531613678], [-85.714502681, 34.531265923], [-85.715296703, 34.531057902], [-85.716402912, 34.530042664], [-85.715866539, 34.528688151], [-85.714240271, 34.526558359], [-85.713883552, 34.525390487], [-85.714788406, 34.521867685], [-85.71495852, 34.521737274], [-85.716858929, 34.520180939], [-85.718982218, 34.518214225], [-85.720344874, 34.517506245], [-85.721255751, 34.516536937], [-85.722432686, 34.51625101], [-85.722563409, 34.515794555], [-85.722467547, 34.515115677], [-85.722683019, 34.514683582], [-85.723828623, 34.513467275], [-85.72558461, 34.512098323], [-85.72683887, 34.510765106], [-85.727036303, 34.510662393], [-85.727797711, 34.509920159], [-85.728197904, 34.50969412], [-85.731557836, 34.507064917], [-85.733952171, 34.506205519], [-85.735659741, 34.504905943], [-85.73802716, 34.502458747], [-85.7387517, 34.501447566], [-85.739587954, 34.500977505], [-85.74051917, 34.50010473], [-85.741506257, 34.499550999], [-85.743687588, 34.497118896], [-85.745452593, 34.495773669], [-85.746915584, 34.49568775], [-85.747124355, 34.495596549], [-85.747873042, 34.494888917], [-85.748335296, 34.493494044], [-85.748614957, 34.492869404], [-85.749990156, 34.49221704], [-85.751682267, 34.491788677], [-85.752564518, 34.490055584], [-85.754041045, 34.488834478], [-85.7549895, 34.488998232], [-85.755975265, 34.488218703], [-85.75741014, 34.487856125], [-85.758435577, 34.487381542], [-85.759431402, 34.487129913], [-85.759921913, 34.486163343], [-85.761127638, 34.484408113], [-85.76157717, 34.483905936], [-85.761780241, 34.483506418], [-85.76228221, 34.483213351], [-85.763592043, 34.481764525], [-85.765739214, 34.479950963], [-85.76617473, 34.479124987], [-85.767304691, 34.478465595], [-85.772293402, 34.474728701], [-85.7734257, 34.474421523], [-85.774289388, 34.474130743], [-85.77513847, 34.472525292], [-85.776035614, 34.472001333], [-85.776484272, 34.471387297], [-85.777381393, 34.470863327], [-85.778246837, 34.470226939], [-85.779096053, 34.469732472], [-85.781088113, 34.469416557], [-85.781873093, 34.468840526], [-85.782543147, 34.467921293], [-85.782959282, 34.46743508], [-85.783348025, 34.466843157], [-85.782154021, 34.465762043], [-85.782693182, 34.464854483], [-85.784004695, 34.464090756], [-85.785810588, 34.46457425], [-85.786137826, 34.46460303], [-85.786314356, 34.463269339], [-85.786558297, 34.462911326], [-85.786972004, 34.461817739], [-85.788184914, 34.460625776], [-85.788563289, 34.459798921], [-85.789322706, 34.459043514], [-85.789838456, 34.457920943], [-85.790571727, 34.457597511], [-85.790760895, 34.457184078], [-85.791220379, 34.456916682], [-85.791926018, 34.455003372], [-85.793545175, 34.45363204], [-85.795370485, 34.453341316], [-85.795927409, 34.451828115], [-85.796585532, 34.451055333], [-85.797512461, 34.451183159], [-85.798485018, 34.451220119], [-85.799778465, 34.450785629], [-85.800864041, 34.449301982], [-85.802113523, 34.445501105], [-85.804996581, 34.443816897], [-85.805080806, 34.442357017], [-85.806388478, 34.440814824], [-85.80906743, 34.439734515], [-85.809721891, 34.440103966], [-85.810874778, 34.440458128], [-85.811792635, 34.439204219], [-85.812535517, 34.439001673], [-85.814086523, 34.438454721], [-85.814681187, 34.437847043], [-85.81536486, 34.435486869], [-85.818141008, 34.436019195], [-85.819876033, 34.435644314], [-85.820590748, 34.435635307], [-85.821504729, 34.436016906], [-85.82249058, 34.436343661], [-85.823397187, 34.436722489], [-85.824217255, 34.436914533], [-85.826076826, 34.435947555], [-85.825496203, 34.433213026], [-85.824894775, 34.432127329], [-85.825665047, 34.430048758], [-85.826344978, 34.429695154], [-85.826899673, 34.42887943], [-85.826685895, 34.428226146], [-85.827024188, 34.427385131], [-85.826464685, 34.426275701], [-85.828683568, 34.422755599], [-85.828072823, 34.421544705], [-85.828496133, 34.420685836], [-85.828911726, 34.420199432], [-85.829649642, 34.419188935], [-85.830757859, 34.418742132], [-85.831501955, 34.417978819], [-85.833070433, 34.418472498], [-85.833786552, 34.417489583], [-85.834430323, 34.417016824], [-85.834808462, 34.416794857], [-85.835006418, 34.416390564], [-85.835839109, 34.415091085], [-85.835725492, 34.413755107], [-85.83530356, 34.413014031], [-85.836332896, 34.411908854], [-85.837123527, 34.410673142], [-85.83758959, 34.409331002], [-85.838058413, 34.408596252], [-85.838256331, 34.40819195], [-85.838456528, 34.407789956], [-85.839317982, 34.406545674], [-85.839925492, 34.404815357], [-85.841325918, 34.402753901], [-85.842930874, 34.401435542], [-85.843127876, 34.40133262], [-85.843362237, 34.40096523], [-85.843862333, 34.399716695], [-85.845979397, 34.39756823], [-85.846704438, 34.396082171], [-85.849795156, 34.393365308], [-85.849723853, 34.391902324], [-85.850159204, 34.390614367], [-85.850931915, 34.390180217], [-85.851811836, 34.389264234], [-85.852593661, 34.388544159], [-85.853309429, 34.385632122], [-85.853218786, 34.38494536], [-85.854165389, 34.384111088], [-85.855429311, 34.38361446], [-85.857301914, 34.384050147], [-85.857679003, 34.383716291], [-85.858996786, 34.382631939], [-85.86122987, 34.37996633], [-85.862663436, 34.379613056], [-85.864203697, 34.378229759], [-85.86476558, 34.377589479], [-85.865754691, 34.377827682], [-85.868578651, 34.378966103], [-85.869782279, 34.378415578], [-85.870990715, 34.379286359], [-85.872383942, 34.378649063], [-85.874308161, 34.378355352], [-85.876919934, 34.377447004], [-85.878670347, 34.377454277], [-85.87999144, 34.376873848], [-85.880747082, 34.375324933], [-85.882382519, 34.373665128], [-85.884276245, 34.372715081], [-85.886515679, 34.373188625], [-85.89011107, 34.3744528], [-85.892080006, 34.374388274], [-85.893156504, 34.373978232], [-85.894806591, 34.373586528], [-85.896040593, 34.373571749], [-85.896932618, 34.373466039], [-85.898260116, 34.372795327], [-85.899720285, 34.372275289], [-85.90057559, 34.371462248], [-85.900460848, 34.370640638], [-85.90114019, 34.369968272], [-85.901970809, 34.369897235], [-85.90355939, 34.370113519], [-85.90541982, 34.371293648], [-85.906181385, 34.371612891], [-85.910763161, 34.370704484], [-85.912272648, 34.36994405], [-85.913066366, 34.368434123], [-85.913559238, 34.367606345], [-85.915465117, 34.367864816], [-85.916413429, 34.367900882], [-85.918213245, 34.366992756], [-85.919880158, 34.366212187], [-85.920804473, 34.365263773], [-85.921674234, 34.364753307], [-85.922882991, 34.363861214], [-85.923828193, 34.363306695], [-85.924434617, 34.364023417], [-85.926089475, 34.364483368], [-85.929924202, 34.364565504], [-85.931721696, 34.364327343], [-85.932822948, 34.363942297], [-85.934066599, 34.363613868], [-85.93642344, 34.361162251], [-85.938956465, 34.360490306], [-85.941900019, 34.360433622], [-85.942695524, 34.360154781], [-85.944099967, 34.359939272], [-85.944939026, 34.35988132], [-85.946272027, 34.359718618], [-85.948603846, 34.35965933], [-85.951358206, 34.359130682], [-85.955154996, 34.35860794], [-85.957488155, 34.359889281], [-85.959475557, 34.360592559], [-85.960908513, 34.36031608], [-85.961235376, 34.360344371], [-85.961270033, 34.360077549], [-85.962070791, 34.360294413], [-85.963636872, 34.360086339], [-85.967424625, 34.360666995], [-85.969191558, 34.361378431], [-85.970972123, 34.361726337], [-85.971301924, 34.361453415], [-85.972662742, 34.361434051], [-85.973401237, 34.36157378], [-85.974372099, 34.360698583], [-85.974346903, 34.359539137], [-85.976067459, 34.358119529], [-85.97870086, 34.35742592], [-85.983216629, 34.358505311], [-85.986001724, 34.358254661], [-85.988230529, 34.358630465], [-85.989307926, 34.359383242], [-85.99063813, 34.360457147], [-85.990781466, 34.360606531], [-85.995783289, 34.365454108], [-85.996995383, 34.366264783], [-85.998221963, 34.367203165], [-85.99870943, 34.36830546], [-85.998972926, 34.368863579], [-85.999225131, 34.369429154], [-85.999632006, 34.370136643], [-86.003749421, 34.367654333], [-86.00426161, 34.367567781], [-86.004296122, 34.367300948], [-86.005276846, 34.367385453], [-86.005311355, 34.36711862], [-86.007781496, 34.36718809], [-86.008405731, 34.367273478], [-86.009739618, 34.366823459], [-86.01132694, 34.365191663], [-86.015360186, 34.363555415], [-86.018494966, 34.361236773], [-86.020744906, 34.360410171], [-86.022071177, 34.360197554], [-86.023250278, 34.361945203], [-86.025131584, 34.362834205], [-86.027392725, 34.362881081], [-86.032649461, 34.36372707], [-86.034115015, 34.363756034], [-86.03545651, 34.36404623], [-86.035982949, 34.365651225], [-86.036580435, 34.368427924], [-86.038617502, 34.3700741], [-86.041265934, 34.370623977], [-86.044203223, 34.372560196], [-86.046183304, 34.374289844], [-86.046968893, 34.374747178], [-86.04780104, 34.374662592], [-86.04973728, 34.375068956], [-86.052090044, 34.374988283], [-86.053473689, 34.375574834], [-86.05458912, 34.376058281], [-86.059216107, 34.380482667], [-86.060410356, 34.380755705], [-86.06059056, 34.380880743], [-86.06230764, 34.381386133], [-86.063689741, 34.382006133], [-86.065177922, 34.382243166], [-86.068270072, 34.382117964], [-86.069687259, 34.383168749], [-86.06961867, 34.383702444], [-86.070029928, 34.3839189], [-86.070204087, 34.384292109], [-86.071249764, 34.384636619], [-86.073141174, 34.385776404], [-86.073995229, 34.385763052], [-86.075518016, 34.386394927], [-86.077978501, 34.386965752], [-86.078432137, 34.387154183], [-86.078430545, 34.3885746], [-86.080604876, 34.389624618], [-86.086192611, 34.393583911], [-86.086835529, 34.393807441], [-86.087579217, 34.394292487], [-86.089827996, 34.394884989], [-86.092950048, 34.394569856], [-86.097093053, 34.392556639], [-86.099738285, 34.393482055], [-86.101779419, 34.394425432], [-86.102929607, 34.394641551], [-86.105075448, 34.392993053], [-86.105751135, 34.393263528], [-86.106270243, 34.393183438], [-86.110528509, 34.393232367], [-86.112150182, 34.393478034], [-86.114411981, 34.39491839], [-86.116714686, 34.39555499], [-86.118991783, 34.397563469], [-86.120256392, 34.398157966], [-86.120611076, 34.398575943], [-86.121524078, 34.399193181], [-86.121613861, 34.399622326], [-86.122180591, 34.401291239], [-86.122784202, 34.402267804], [-86.123197088, 34.4034431], [-86.124522187, 34.404474721], [-86.125316173, 34.404447435], [-86.126999715, 34.404797184], [-86.128400941, 34.406648717], [-86.129796083, 34.406910668], [-86.130976366, 34.406893007], [-86.13163627, 34.40664142], [-86.132074024, 34.406733431], [-86.132539141, 34.408026917], [-86.133427173, 34.408416416], [-86.135105125, 34.409842474], [-86.135262969, 34.411843221], [-86.136928519, 34.413771863], [-86.138465034, 34.414121574], [-86.138618169, 34.413974417], [-86.139330341, 34.413657681], [-86.139771728, 34.412932279], [-86.140930418, 34.411829451], [-86.14323922, 34.412463862], [-86.143920973, 34.411777824], [-86.144176244, 34.410830077], [-86.1441168, 34.407448909], [-86.143880534, 34.406628018], [-86.14373084, 34.405209638], [-86.142370848, 34.403943475], [-86.143433043, 34.403291856], [-86.14437038, 34.401674947], [-86.144127526, 34.400845061], [-86.145321357, 34.400497541], [-86.146555478, 34.400947942], [-86.149118131, 34.401371999], [-86.151176912, 34.401007208], [-86.154008648, 34.401144195], [-86.154986694, 34.401800381], [-86.156537456, 34.401651619], [-86.157640812, 34.401182503], [-86.158334483, 34.399772445], [-86.160306382, 34.398141997], [-86.160999977, 34.396731918], [-86.162578254, 34.395006951], [-86.162776734, 34.394604395], [-86.163760421, 34.393025005], [-86.164364126, 34.391082536], [-86.164791189, 34.390608729], [-86.165188102, 34.389803606], [-86.165615154, 34.389329796], [-86.165847569, 34.388660358], [-86.166637533, 34.387648289], [-86.166165759, 34.386261654], [-86.167403074, 34.384189509], [-86.170165735, 34.382164386], [-86.170524023, 34.381621511], [-86.170722828, 34.381520335], [-86.170824664, 34.380719701], [-86.170497639, 34.380691999], [-86.170868209, 34.379423092], [-86.173753677, 34.378095327], [-86.178251308, 34.376292817], [-86.179236679, 34.374898906], [-86.180468836, 34.373858851], [-86.180671748, 34.373460857], [-86.181227283, 34.373417252], [-86.182708387, 34.372531012], [-86.183549828, 34.372960472], [-86.186239425, 34.372134283], [-86.186794947, 34.37209065], [-86.187951011, 34.372401275], [-86.189579891, 34.372180755], [-86.191767618, 34.371971631], [-86.192153707, 34.372693396], [-86.193663396, 34.374450036], [-86.194111494, 34.375497356], [-86.192547928, 34.376912044], [-86.19266384, 34.38137057], [-86.191758618, 34.382826137], [-86.190992231, 34.384733878], [-86.190376068, 34.385417274], [-86.190882433, 34.386941572], [-86.192092247, 34.387644432], [-86.192080782, 34.388874174], [-86.193724654, 34.391122574], [-86.195835981, 34.393473648], [-86.195847034, 34.395666234], [-86.195982345, 34.396065417], [-86.198422713, 34.396414833], [-86.199424651, 34.396212844], [-86.20111233, 34.396102461], [-86.201937839, 34.396028855], [-86.202453607, 34.395872197], [-86.202764315, 34.396029081], [-86.204193616, 34.395593387], [-86.204329054, 34.39542148], [-86.204884733, 34.395377762], [-86.205344183, 34.395237414], [-86.205592847, 34.3948854], [-86.205998953, 34.393739563], [-86.206795214, 34.392327405], [-86.208686506, 34.391974899], [-86.209268551, 34.391355978], [-86.209483368, 34.39127084], [-86.211472405, 34.391573488], [-86.211801248, 34.392423081], [-86.212094555, 34.392962005], [-86.212117346, 34.395147113]]]}, "properties": {"arm": "11", "name": "Town Creek", "comid": 19650328, "kind": "atMouth"}}