{"type": "Feature", "geometry": {"type": "Polygon", "coordinates": [[[-86.227172389, 34.488600186], [-86.226990466, 34.489179077], [-86.227545461, 34.490799716], [-86.22933976, 34.491374093], [-86.229692029, 34.49234977], [-86.231276046, 34.493441623], [-86.2315079, 34.49512356], [-86.229244984, 34.497227908], [-86.22920767, 34.498604876], [-86.227112233, 34.499794066], [-86.22643313, 34.500316399], [-86.226493641, 34.502656074], [-86.225422548, 34.503842868], [-86.225439229, 34.504486913], [-86.226680181, 34.505042158], [-86.228143299, 34.506273452], [-86.229479254, 34.507100024], [-86.230456892, 34.508775085], [-86.23170826, 34.50977993], [-86.232389214, 34.510795829], [-86.232855083, 34.511488137], [-86.235112993, 34.513022069], [-86.235722376, 34.514297406], [-86.23516163, 34.515661983], [-86.235497988, 34.516560413], [-86.235656504, 34.517433369], [-86.236519655, 34.518032599], [-86.237588697, 34.518354133], [-86.237947706, 34.518889948], [-86.23733477, 34.520380777], [-86.237851313, 34.522472108], [-86.238471912, 34.522903462], [-86.238104619, 34.524640355], [-86.237640135, 34.52538725], [-86.237646259, 34.525665881], [-86.237496787, 34.526192709], [-86.237549127, 34.528211339], [-86.234554389, 34.529346246], [-86.231623337, 34.529609941], [-86.230855933, 34.530459889], [-86.230155135, 34.531498733], [-86.228833102, 34.532192509], [-86.226952188, 34.533825357], [-86.226104065, 34.534270281], [-86.22544868, 34.534215195], [-86.225417339, 34.533258111], [-86.224541338, 34.532126784], [-86.224309551, 34.531546847], [-86.224021283, 34.531004301], [-86.223989891, 34.528761957], [-86.222424318, 34.52692789], [-86.221405055, 34.526049954], [-86.221121823, 34.525345579], [-86.22053156, 34.52483872], [-86.220053877, 34.523648127], [-86.219034347, 34.523303208], [-86.21930905, 34.522095832], [-86.218852648, 34.521227281], [-86.219210239, 34.51965183], [-86.218985163, 34.518693172], [-86.21866314, 34.518417454], [-86.217723777, 34.517318629], [-86.216510378, 34.517136461], [-86.215841686, 34.517370956], [-86.21349156, 34.517421783], [-86.211806362, 34.518287074], [-86.209720375, 34.518478059], [-86.20917992, 34.517844686], [-86.205070045, 34.515924548], [-86.202696126, 34.515979471], [-86.20148628, 34.516909963], [-86.199104281, 34.517231731], [-86.198413102, 34.516421243], [-86.19763083, 34.515961268], [-86.19741557, 34.514927515], [-86.197020939, 34.514409615], [-86.196542987, 34.514038502], [-86.196446256, 34.512235123], [-86.197858697, 34.511521933], [-86.198297583, 34.510124024], [-86.197954143, 34.508592721], [-86.198839268, 34.507245077], [-86.199810386, 34.50619756], [-86.199325914, 34.504778683], [-86.200233868, 34.504431709], [-86.202582639, 34.504307319], [-86.203159325, 34.502250955], [-86.203426169, 34.501616036], [-86.203361228, 34.500925761], [-86.203173908, 34.499569867], [-86.203656216, 34.498765577], [-86.203106606, 34.497004081], [-86.203640958, 34.496115679], [-86.204411315, 34.494610823], [-86.206046325, 34.494015345], [-86.207050591, 34.494416032], [-86.209634766, 34.494981412], [-86.212726237, 34.493301166], [-86.213296505, 34.492862453], [-86.214447111, 34.492211324], [-86.215676706, 34.491263416], [-86.216822981, 34.487668311], [-86.217609618, 34.486358604], [-86.218120058, 34.486268824], [-86.219513233, 34.485661247], [-86.222471364, 34.485518254], [-86.22492565, 34.487637939], [-86.225435575, 34.487286808], [-86.227172389, 34.488600186]]]}, "properties": {"arm": "121", "name": "Chandler Branch", "comid": 19648778, "kind": "aboveHead"}}