{"type": "Feature", "geometry": {"type": "Polygon", "coordinates": [[[-86.173865644, 34.510840696], [-86.174643364, 34.511863066], [-86.174440057, 34.512260985], [-86.172873442, 34.513715227], [-86.174447714, 34.515571914], [-86.17584395, 34.516227224], [-86.176554873, 34.515682557], [-86.179556428, 34.516631487], [-86.181009892, 34.51767084], [-86.181659387, 34.517974329], [-86.183434131, 34.519498015], [-86.184446442, 34.519288492], [-86.185486184, 34.519127633], [-86.186513989, 34.51865391], [-86.189727961, 34.518625947], [-86.192758369, 34.517233889], [-86.193979392, 34.517416952], [-86.195259551, 34.51682959], [-86.19603098, 34.516235135], [-86.197133938, 34.516064759], [-86.19763083, 34.515961268], [-86.198413102, 34.516421243], [-86.199104281, 34.517231731], [-86.20148628, 34.516909963], [-86.202696126, 34.515979471], [-86.205070045, 34.515924548], [-86.20917992, 34.517844686], [-86.209720375, 34.518478059], [-86.211806362, 34.518287074], [-86.21349156, 34.517421783], [-86.215841686, 34.517370956], [-86.216510378, 34.517136461], [-86.217723777, 34.517318629], [-86.21866314, 34.518417454], [-86.218985163, 34.518693172], [-86.219210239, 34.51965183], [-86.218852648, 34.521227281], [-86.21930905, 34.522095832], [-86.219034347, 34.523303208], [-86.220053877, 34.523648127], [-86.22053156, 34.52483872], [-86.221121823, 34.525345579], [-86.221405055, 34.526049954], [-86.222424318, 34.52692789], [-86.223989891, 34.528761957], [-86.224021283, 34.531004301], [-86.224309551, 34.531546847], [-86.224541338, 34.532126784], [-86.225417339, 34.533258111], [-86.22544868, 34.534215195], [-86.223895973, 34.534217414], [-86.221574171, 34.535265311], [-86.218556629, 34.540308438], [-86.217239388, 34.541084671], [-86.214379823, 34.540332109], [-86.211249049, 34.542653887], [-86.210234336, 34.545448698], [-86.207866757, 34.54554858], [-86.204834643, 34.548007038], [-86.203479959, 34.549401535], [-86.201133792, 34.549555769], [-86.199920154, 34.550104574], [-86.199626718, 34.555568499], [-86.198635454, 34.556749157], [-86.196274276, 34.558138834], [-86.195029851, 34.558480627], [-86.19412089, 34.558789584], [-86.192066146, 34.562082321], [-86.190417351, 34.563485599], [-86.189815969, 34.564387236], [-86.188059782, 34.564498288], [-86.184140853, 34.565920697], [-86.181507378, 34.567350342], [-86.18099173, 34.567273111], [-86.179088153, 34.567666572], [-86.17681538, 34.567605327], [-86.176966842, 34.565056019], [-86.177156107, 34.563997435], [-86.175156017, 34.562142939], [-86.173455151, 34.558855621], [-86.172443176, 34.557758763], [-86.171049, 34.557000435], [-86.167876082, 34.556449947], [-86.164839625, 34.554343267], [-86.163161269, 34.553906357], [-86.163008763, 34.553762822], [-86.16269498, 34.554031272], [-86.160508739, 34.554552218], [-86.158674755, 34.555435843], [-86.157164454, 34.555426048], [-86.1570856, 34.554989535], [-86.156715181, 34.554404033], [-86.15643355, 34.552454342], [-86.156985908, 34.551635082], [-86.156581639, 34.551274274], [-86.156295962, 34.550329307], [-86.156581929, 34.548920699], [-86.151869728, 34.546220857], [-86.150977362, 34.545589019], [-86.150039786, 34.544987057], [-86.148517023, 34.543800312], [-86.145975617, 34.543254191], [-86.146450409, 34.541969044], [-86.147057598, 34.540943753], [-86.146501245, 34.539607058], [-86.145535234, 34.538924674], [-86.144691562, 34.538520252], [-86.145753459, 34.537055181], [-86.14616768, 34.536567713], [-86.14637349, 34.536172155], [-86.147575007, 34.535517501], [-86.149107027, 34.534098555], [-86.149810597, 34.533715659], [-86.150800717, 34.532284502], [-86.152179192, 34.53113487], [-86.15097834, 34.529678276], [-86.148555364, 34.527945339], [-86.148713537, 34.527335025], [-86.148719076, 34.524638345], [-86.149417418, 34.521905535], [-86.150613223, 34.519956582], [-86.151278275, 34.51851684], [-86.154944062, 34.517078387], [-86.160920088, 34.513549122], [-86.162212295, 34.512240371], [-86.163087596, 34.511705476], [-86.163613946, 34.511330692], [-86.165448713, 34.510919105], [-86.166590009, 34.51010326], [-86.173865644, 34.510840696]]]}, "properties": {"arm": "126", "name": "Boshart Creek", "comid": 19647544, "kind": "aboveHead"}}