{"type": "Feature", "geometry": {"type": "Polygon", "coordinates": [[[-86.118684348, 34.631846149], [-86.122028593, 34.631790676], [-86.12234279, 34.633239526], [-86.125412131, 34.634035015], [-86.127717979, 34.635753846], [-86.127890269, 34.636552232], [-86.127549566, 34.638017165], [-86.126953626, 34.638704068], [-86.129220591, 34.640040303], [-86.130559649, 34.640408731], [-86.131334666, 34.640851548], [-86.132661114, 34.640732185], [-86.131980135, 34.641253885], [-86.128915592, 34.642985211], [-86.128821927, 34.646221921], [-86.129700623, 34.648302167], [-86.131372144, 34.649434053], [-86.13143009, 34.6503365], [-86.130244536, 34.650406702], [-86.129051127, 34.652195456], [-86.129043527, 34.655205563], [-86.128170816, 34.657605091], [-86.128165493, 34.65997067], [-86.130720702, 34.66209601], [-86.130902876, 34.663383992], [-86.131345564, 34.664196821], [-86.131914673, 34.664670617], [-86.131676086, 34.664873734], [-86.128983852, 34.665513674], [-86.128455774, 34.667226053], [-86.127953926, 34.668228532], [-86.127312592, 34.670944707], [-86.126164484, 34.672680378], [-86.12369301, 34.672991294], [-86.122788127, 34.673335957], [-86.119982086, 34.67378909], [-86.117156493, 34.67366743], [-86.116647903, 34.674599772], [-86.114277599, 34.676886901], [-86.115324797, 34.679067867], [-86.115159246, 34.680134645], [-86.114169193, 34.681363227], [-86.113389319, 34.682388415], [-86.111631496, 34.684567342], [-86.111107507, 34.685759604], [-86.111023294, 34.68657624], [-86.112826986, 34.690336219], [-86.112959253, 34.690840442], [-86.111520711, 34.691118688], [-86.109525327, 34.690161394], [-86.105877795, 34.687776504], [-86.104169963, 34.68522965], [-86.104415961, 34.683841038], [-86.104031235, 34.682316692], [-86.102997648, 34.680556037], [-86.10022574, 34.682050323], [-86.099326925, 34.682003452], [-86.098673326, 34.681924739], [-86.097668827, 34.681873089], [-86.095951099, 34.680937008], [-86.09454667, 34.680507908], [-86.088196198, 34.67967079], [-86.086187109, 34.675785334], [-86.08561135, 34.675163253], [-86.084690085, 34.674305283], [-86.083288777, 34.672787], [-86.082520156, 34.67207263], [-86.084238528, 34.670647106], [-86.086748847, 34.666876484], [-86.088167082, 34.665686632], [-86.089797828, 34.663792157], [-86.093584113, 34.660877921], [-86.092653293, 34.658544306], [-86.092896024, 34.657484077], [-86.091982584, 34.655036037], [-86.091827801, 34.652513458], [-86.092004084, 34.649955826], [-86.0924282, 34.648472766], [-86.092347425, 34.647288086], [-86.09223451, 34.647118349], [-86.091152099, 34.646366771], [-86.090584717, 34.645519943], [-86.09032528, 34.644958475], [-86.091607818, 34.643148121], [-86.092892937, 34.641961647], [-86.094592369, 34.640193051], [-86.097077933, 34.63879891], [-86.099732194, 34.638228152], [-86.100947669, 34.637541359], [-86.10214026, 34.636629269], [-86.102908619, 34.636195218], [-86.103078329, 34.636064259], [-86.103827281, 34.636547202], [-86.104488795, 34.636843615], [-86.105071046, 34.637192284], [-86.10881246, 34.637899931], [-86.109339932, 34.637525445], [-86.112592476, 34.635542981], [-86.11260304, 34.632958618], [-86.112142546, 34.631379311], [-86.112504517, 34.631062396], [-86.116641385, 34.628586042], [-86.116768479, 34.628746426], [-86.116790358, 34.629645856], [-86.118684348, 34.631846149]]]}, "properties": {"arm": "129", "name": "Archie Creek", "comid": 19647268, "kind": "aboveHead"}}