{"type": "Feature", "geometry": {"type": "Polygon", "coordinates": [[[-85.692607466, 34.973809889], [-85.693493008, 34.974020678], [-85.694239841, 34.974933581], [-85.693031187, 34.97952404], [-85.69408829, 34.980143979], [-85.693898133, 34.983473447], [-85.693463239, 34.985544426], [-85.693786595, 34.986179783], [-85.693627699, 34.986934906], [-85.69393697, 34.98753952], [-85.694184528, 34.98920282], [-85.694494884, 34.990825289], [-85.694550435, 34.992735064], [-85.694795122, 34.993548911], [-85.694769808, 34.997975933], [-85.6941289, 34.998345128], [-85.693955402, 34.998473133], [-85.692922793, 34.997804811], [-85.687526195, 34.997940366], [-85.686798057, 34.998531518], [-85.685390301, 34.999256616], [-85.683578059, 34.997725067], [-85.68153267, 34.998678368], [-85.680442485, 34.999829675], [-85.680863247, 35.001114237], [-85.68042362, 35.002405097], [-85.679915948, 35.002248641], [-85.678740978, 35.001342166], [-85.675914337, 35.001539518], [-85.675189361, 35.000348198], [-85.675211022, 34.997791967], [-85.674382444, 34.997581878], [-85.672918478, 34.9981628], [-85.671445773, 34.997514429], [-85.668482546, 34.999246233], [-85.667123201, 34.998645747], [-85.665956652, 34.998431036], [-85.666408526, 34.997147609], [-85.667469773, 34.996019145], [-85.667942342, 34.994678538], [-85.669150911, 34.994079342], [-85.6699704, 34.993390993], [-85.670630758, 34.992994137], [-85.671984845, 34.990890561], [-85.673296412, 34.989777829], [-85.674679721, 34.988557626], [-85.676587528, 34.988449949], [-85.677949859, 34.989935635], [-85.679054333, 34.989160693], [-85.681124757, 34.988580523], [-85.681480923, 34.988333787], [-85.681863713, 34.988102041], [-85.67995127, 34.985712343], [-85.67931395, 34.984218993], [-85.679833723, 34.983337672], [-85.679560144, 34.982778301], [-85.680146113, 34.979723945], [-85.680475503, 34.979753005], [-85.680511412, 34.979486448], [-85.680661962, 34.979335365], [-85.681091456, 34.979162532], [-85.681500266, 34.978060692], [-85.681965655, 34.977621297], [-85.682428069, 34.976585292], [-85.683576506, 34.976429507], [-85.684529552, 34.976873896], [-85.684554345, 34.977830655], [-85.685030228, 34.978241386], [-85.686122135, 34.978757006], [-85.686716487, 34.979100207], [-85.687854286, 34.979449171], [-85.691010939, 34.977063905], [-85.692252982, 34.974006229], [-85.692607466, 34.973809889]]]}, "properties": {"arm": "137", "name": "Long Hollow Branch", "comid": 19644418, "kind": "atMouth"}}