{"type": "Feature", "geometry": {"type": "Polygon", "coordinates": [[[-85.693269017, 34.961460852], [-85.693531768, 34.962023461], [-85.694772197, 34.962672226], [-85.694282582, 34.963389791], [-85.693898425, 34.96421358], [-85.694226685, 34.965315087], [-85.69397942, 34.970114622], [-85.693796592, 34.970989864], [-85.692888501, 34.972882195], [-85.692607466, 34.973809889], [-85.692252982, 34.974006229], [-85.691010939, 34.977063905], [-85.687854286, 34.979449171], [-85.686716487, 34.979100207], [-85.686122135, 34.978757006], [-85.685030228, 34.978241386], [-85.684554345, 34.977830655], [-85.684529552, 34.976873896], [-85.683576506, 34.976429507], [-85.682428069, 34.976585292], [-85.681965655, 34.977621297], [-85.681500266, 34.978060692], [-85.681091456, 34.979162532], [-85.680661962, 34.979335365], [-85.680511412, 34.979486448], [-85.680475503, 34.979753005], [-85.680146113, 34.979723945], [-85.679560144, 34.982778301], [-85.679833723, 34.983337672], [-85.67931395, 34.984218993], [-85.67995127, 34.985712343], [-85.681863713, 34.988102041], [-85.681480923, 34.988333787], [-85.681124757, 34.988580523], [-85.679054333, 34.989160693], [-85.677949859, 34.989935635], [-85.676587528, 34.988449949], [-85.674679721, 34.988557626], [-85.673296412, 34.989777829], [-85.671984845, 34.990890561], [-85.670630758, 34.992994137], [-85.6699704, 34.993390993], [-85.669000379, 34.993071438], [-85.668593769, 34.992340146], [-85.668267711, 34.991455815], [-85.66742745, 34.990386991], [-85.665993544, 34.989741956], [-85.665985262, 34.98926288], [-85.666646896, 34.987003354], [-85.665460681, 34.986375969], [-85.664443557, 34.98603956], [-85.662774494, 34.985034428], [-85.659779118, 34.984459925], [-85.658913614, 34.984775369], [-85.657478729, 34.983618056], [-85.65723107, 34.98294501], [-85.655230767, 34.981520617], [-85.654883914, 34.980579593], [-85.654586565, 34.98004333], [-85.654531855, 34.979349407], [-85.654861233, 34.979378539], [-85.655329184, 34.975913387], [-85.655909722, 34.973985977], [-85.656753289, 34.97400579], [-85.657090126, 34.97405665], [-85.659054619, 34.973006016], [-85.659457224, 34.971315736], [-85.660539572, 34.96977827], [-85.661626216, 34.970118777], [-85.66268752, 34.970743625], [-85.663889528, 34.969804644], [-85.666372433, 34.969290714], [-85.66626722, 34.967831604], [-85.6656354, 34.965103728], [-85.667123681, 34.963932927], [-85.669131051, 34.963642455], [-85.669717298, 34.962248641], [-85.670564255, 34.960890496], [-85.67056877, 34.960277672], [-85.671408447, 34.958644931], [-85.672176547, 34.958373497], [-85.673886452, 34.958280057], [-85.674324725, 34.957423159], [-85.675157815, 34.956978327], [-85.67516976, 34.955575925], [-85.675803652, 34.954677291], [-85.676863146, 34.954619107], [-85.678944062, 34.955944948], [-85.680018445, 34.9564528], [-85.682494801, 34.959366522], [-85.683717191, 34.959394291], [-85.68495144, 34.959585352], [-85.685995571, 34.96018319], [-85.687778298, 34.960167615], [-85.688779153, 34.960816398], [-85.690944491, 34.960027434], [-85.692000377, 34.959880286], [-85.692690166, 34.959629215], [-85.693292296, 34.960668475], [-85.692975558, 34.961165261], [-85.6929397, 34.961431827], [-85.693269017, 34.961460852]]]}, "properties": {"arm": "138", "name": "Big Culvert Creek", "comid": 19644464, "kind": "atMouth"}}