{"type": "Feature", "geometry": {"type": "Polygon", "coordinates": [[[-85.888662074, 34.823986621], [-85.889963275, 34.824798866], [-85.894249895, 34.82632048], [-85.896425216, 34.826947034], [-85.898353034, 34.827539487], [-85.90156193, 34.829770321], [-85.906880037, 34.834694958], [-85.907457565, 34.835322201], [-85.905514321, 34.83686088], [-85.903885891, 34.838376185], [-85.903141297, 34.839137744], [-85.901632057, 34.840338851], [-85.899959619, 34.842187423], [-85.898374728, 34.842501222], [-85.895463643, 34.842525362], [-85.893958823, 34.843197904], [-85.892820335, 34.84337749], [-85.891126151, 34.844619359], [-85.887661637, 34.84414871], [-85.886130217, 34.844391128], [-85.885140643, 34.84511662], [-85.882593161, 34.845279404], [-85.881454388, 34.848733194], [-85.877707407, 34.850028772], [-85.875799011, 34.85092107], [-85.874461943, 34.849846439], [-85.872304626, 34.847109825], [-85.869865978, 34.845147323], [-85.868113509, 34.84474032], [-85.867364013, 34.844255976], [-85.867239927, 34.844093499], [-85.866115823, 34.843218434], [-85.865672375, 34.841951517], [-85.865577813, 34.841526107], [-85.865172613, 34.840776634], [-85.865911127, 34.840379282], [-85.866659518, 34.839788932], [-85.867864496, 34.839322483], [-85.868893928, 34.838847113], [-85.87198425, 34.838744373], [-85.872644451, 34.838388652], [-85.873253511, 34.837908389], [-85.874065404, 34.837702778], [-85.875219823, 34.836791497], [-85.876795127, 34.836392897], [-85.87784621, 34.834254746], [-85.878323304, 34.832922297], [-85.879833905, 34.831555121], [-85.879254053, 34.830592492], [-85.877191331, 34.830274587], [-85.87770032, 34.828877475], [-85.879191655, 34.826493022], [-85.881156405, 34.825976432], [-85.882668216, 34.825209849], [-85.885027929, 34.825165701], [-85.887196403, 34.824068259], [-85.888468642, 34.824094184], [-85.888662074, 34.823986621]]]}, "properties": {"arm": "147", "name": "Slaton Branch", "comid": 19645066, "kind": "aboveHead"}}