{"type": "Feature", "geometry": {"type": "Polygon", "coordinates": [[[-85.874503926, 34.810618181], [-85.875257291, 34.810066148], [-85.876879283, 34.809309207], [-85.877777538, 34.809431365], [-85.878878752, 34.809472082], [-85.880407084, 34.811199697], [-85.880597844, 34.813182175], [-85.880806658, 34.814791148], [-85.882188989, 34.815064801], [-85.883253528, 34.815443641], [-85.884628252, 34.81693872], [-85.885036833, 34.820956526], [-85.888520918, 34.823835328], [-85.888662074, 34.823986621], [-85.889963275, 34.824798866], [-85.894249895, 34.82632048], [-85.896425216, 34.826947034], [-85.898353034, 34.827539487], [-85.90156193, 34.829770321], [-85.906880037, 34.834694958], [-85.907457565, 34.835322201], [-85.908780067, 34.835579788], [-85.910846149, 34.836763374], [-85.91320185, 34.837167071], [-85.914040618, 34.837349091], [-85.914811157, 34.83757578], [-85.91509189, 34.839098087], [-85.915713707, 34.840991178], [-85.914595555, 34.842599143], [-85.914615241, 34.843517373], [-85.913855906, 34.845973823], [-85.913374635, 34.848509065], [-85.914253678, 34.848879962], [-85.917612755, 34.848651716], [-85.919135348, 34.848970681], [-85.920638744, 34.84892136], [-85.921933638, 34.849193244], [-85.923202207, 34.849151015], [-85.925359867, 34.848334279], [-85.927790303, 34.848211036], [-85.929965869, 34.849218249], [-85.930896755, 34.85044257], [-85.931811825, 34.850757438], [-85.936728262, 34.85052384], [-85.937589391, 34.850397885], [-85.941194499, 34.849501209], [-85.94300588, 34.848072836], [-85.943895109, 34.847593195], [-85.946098561, 34.847555374], [-85.946991634, 34.847244592], [-85.948598646, 34.846403224], [-85.949277597, 34.844710845], [-85.950152008, 34.843351316], [-85.950927635, 34.839728913], [-85.951761705, 34.838835737], [-85.95261799, 34.838407982], [-85.95303828, 34.839107815], [-85.953059545, 34.841288161], [-85.953896882, 34.841680448], [-85.955197699, 34.841708079], [-85.956770369, 34.84051181], [-85.960495469, 34.84057932], [-85.961678176, 34.840337582], [-85.962772074, 34.840775034], [-85.964660368, 34.841297603], [-85.966536528, 34.841336629], [-85.967288288, 34.841449679], [-85.970837182, 34.845730129], [-85.974099266, 34.848468892], [-85.974543208, 34.848989464], [-85.975163573, 34.850905137], [-85.976151611, 34.851756821], [-85.976377517, 34.851380131], [-85.976927782, 34.850091645], [-85.977695936, 34.850119646], [-85.97867652, 34.850252249], [-85.980551395, 34.850322523], [-85.981769946, 34.852036647], [-85.983477471, 34.8530511], [-85.984781718, 34.853969846], [-85.98653196, 34.853382548], [-85.98910245, 34.853280571], [-85.990614888, 34.852603309], [-85.992191805, 34.853484239], [-85.994779152, 34.854289486], [-85.997291869, 34.854251901], [-85.999815799, 34.853928706], [-86.001030613, 34.854418247], [-86.002054803, 34.855333871], [-86.002519679, 34.856174222], [-86.003058104, 34.856110758], [-86.003832819, 34.855789427], [-86.006832599, 34.856861425], [-86.007498019, 34.857299671], [-86.008532359, 34.85771891], [-86.01010751, 34.858755312], [-86.011245259, 34.857681287], [-86.012847557, 34.856971408], [-86.014844939, 34.857519278], [-86.017807556, 34.859497888], [-86.018715723, 34.860847933], [-86.019184733, 34.862457486], [-86.020725082, 34.863503386], [-86.021097824, 34.864234644], [-86.021779069, 34.863852544], [-86.023604459, 34.86230627], [-86.024468999, 34.860633677], [-86.027237465, 34.860528795], [-86.028224006, 34.859776675], [-86.02825261, 34.858856398], [-86.028862823, 34.857159959], [-86.030326819, 34.856773009], [-86.030941111, 34.856865467], [-86.03292212, 34.856179226], [-86.033560627, 34.856545496], [-86.034479705, 34.8568725], [-86.036299153, 34.855949115], [-86.037741969, 34.855284299], [-86.03831023, 34.854850344], [-86.03943597, 34.853044047], [-86.04214854, 34.850543026], [-86.041801998, 34.849428552], [-86.041621719, 34.848454653], [-86.042468026, 34.847058474], [-86.042984231, 34.844260602], [-86.044997692, 34.844562868], [-86.045307563, 34.845419304], [-86.045990025, 34.845947258], [-86.046486391, 34.847329393], [-86.047671915, 34.847845435], [-86.048327075, 34.849666628], [-86.0494298, 34.850521079], [-86.050979613, 34.852557501], [-86.052721222, 34.853114527], [-86.053651535, 34.854337648], [-86.054598435, 34.854289776], [-86.056195741, 34.852932187], [-86.057613949, 34.852595786], [-86.058437245, 34.851896954], [-86.058637409, 34.851796022], [-86.059759766, 34.852279164], [-86.05988427, 34.852441436], [-86.059527762, 34.852625968], [-86.059947765, 34.853375852], [-86.060393308, 34.854791485], [-86.060692996, 34.855326784], [-86.060913165, 34.8559143], [-86.061507331, 34.856744297], [-86.062415956, 34.858437358], [-86.062057387, 34.859681335], [-86.062314131, 34.861411616], [-86.065916215, 34.861972899], [-86.067849426, 34.860388837], [-86.070959411, 34.860274048], [-86.073311238, 34.861680988], [-86.073751538, 34.862858047], [-86.074635994, 34.863253394], [-86.074890781, 34.863574172], [-86.07568153, 34.864031064], [-86.075006898, 34.865389345], [-86.073698291, 34.866826467], [-86.073744476, 34.868719957], [-86.075448529, 34.870636325], [-86.076154954, 34.870660522], [-86.07697251, 34.87076999], [-86.078059009, 34.870809605], [-86.079268477, 34.872169906], [-86.080258771, 34.873054468], [-86.080853965, 34.874120339], [-86.079352303, 34.874999752], [-86.079566481, 34.877444634], [-86.080992174, 34.878359826], [-86.081986275, 34.879758667], [-86.082226907, 34.881516947], [-86.081330932, 34.882576292], [-86.082187915, 34.884252069], [-86.082721113, 34.888272247], [-86.082622628, 34.88875259], [-86.082571397, 34.889691942], [-86.082066948, 34.892166361], [-86.080513835, 34.893561731], [-86.080523634, 34.894531537], [-86.080636104, 34.895189874], [-86.082830317, 34.896658921], [-86.08437941, 34.897125285], [-86.086271997, 34.899299599], [-86.086373531, 34.899721073], [-86.088836766, 34.901705703], [-86.089514958, 34.904929166], [-86.087237373, 34.905148892], [-86.086589437, 34.907164556], [-86.086168239, 34.907647014], [-86.085513688, 34.908566771], [-86.086313568, 34.910707329], [-86.087947157, 34.912111812], [-86.088464587, 34.91271599], [-86.08866525, 34.914081102], [-86.089941658, 34.915634304], [-86.089380025, 34.916277591], [-86.088917143, 34.917384228], [-86.087992026, 34.917901905], [-86.087316548, 34.918419679], [-86.086684505, 34.919305539], [-86.086092877, 34.919918886], [-86.085240912, 34.919970914], [-86.082922407, 34.921267705], [-86.083021111, 34.921691038], [-86.083560365, 34.922709934], [-86.084628157, 34.924247589], [-86.083858181, 34.925515633], [-86.083021897, 34.92876437], [-86.080533774, 34.930625998], [-86.079380278, 34.931821458], [-86.077803712, 34.93206473], [-86.07665594, 34.933677718], [-86.076826094, 34.933810116], [-86.077075438, 34.934134595], [-86.077585906, 34.934531785], [-86.078455798, 34.93566932], [-86.080333286, 34.937121917], [-86.081794716, 34.939036291], [-86.082102793, 34.94051581], [-86.083267266, 34.942112182], [-86.085113406, 34.942702623], [-86.086457469, 34.943977163], [-86.085672273, 34.944818435], [-86.085815578, 34.945239214], [-86.086315165, 34.945399519], [-86.087221874, 34.945952407], [-86.0884831, 34.945473739], [-86.090496271, 34.947228294], [-86.091673605, 34.947740882], [-86.092252464, 34.948093231], [-86.093376436, 34.948576003], [-86.092653696, 34.949578474], [-86.092779845, 34.952447428], [-86.091826785, 34.953963281], [-86.091842476, 34.954647054], [-86.08852046, 34.95637292], [-86.087773498, 34.958748733], [-86.086657467, 34.959330282], [-86.086697606, 34.960951329], [-86.0861949, 34.962705405], [-86.086705009, 34.963610112], [-86.08788583, 34.96413775], [-86.089029366, 34.964973947], [-86.089200808, 34.966566083], [-86.08842436, 34.967418644], [-86.087890008, 34.968491811], [-86.08683045, 34.969440434], [-86.086464225, 34.9699781], [-86.085038562, 34.970718758], [-86.083982468, 34.973731815], [-86.084327014, 34.974769926], [-86.083993907, 34.975051318], [-86.081782381, 34.97613185], [-86.081449258, 34.976413235], [-86.080445388, 34.976568247], [-86.079467748, 34.978892845], [-86.07833012, 34.979758957], [-86.07635245, 34.979755534], [-86.076011422, 34.980017278], [-86.074593902, 34.98081328], [-86.071410584, 34.983304564], [-86.070773649, 34.985628523], [-86.068767929, 34.987707836], [-86.068731916, 34.988949597], [-86.067300584, 34.989087189], [-86.066313675, 34.989430994], [-86.066823888, 34.990394753], [-86.067051008, 34.991012217], [-86.06567109, 34.991375318], [-86.064894297, 34.991644273], [-86.064844445, 34.993333498], [-86.064530119, 34.993850236], [-86.063665781, 34.994191792], [-86.062077315, 34.994436046], [-86.0609022, 34.994744873], [-86.060231456, 34.994978575], [-86.058320643, 34.995479753], [-86.058152369, 34.995612899], [-86.057368643, 34.996034981], [-86.056578485, 34.99716844], [-86.055870211, 34.997550585], [-86.05551931, 34.997927286], [-86.05612517, 34.999036126], [-86.055324708, 35.000328781], [-86.054760944, 35.000961211], [-86.054093615, 35.003052925], [-86.055252634, 35.006098104], [-86.055574957, 35.007526166], [-86.055934476, 35.008186487], [-86.056286951, 35.009743481], [-86.056677349, 35.010707616], [-86.056299889, 35.01174975], [-86.053592402, 35.012747684], [-86.052216039, 35.012879269], [-86.05065745, 35.013431349], [-86.050622808, 35.013698008], [-86.049421596, 35.014004526], [-86.048059034, 35.014149874], [-86.047599971, 35.015197689], [-86.046837088, 35.016118568], [-86.045900646, 35.020177786], [-86.041171671, 35.023539531], [-86.039796407, 35.024762134], [-86.038474913, 35.023849314], [-86.036743373, 35.023426048], [-86.034500746, 35.02256748], [-86.032305459, 35.023726519], [-86.031883683, 35.024505747], [-86.030100068, 35.025002615], [-86.028107435, 35.024584367], [-86.026791097, 35.023692906], [-86.026146565, 35.022502695], [-86.024519997, 35.021374139], [-86.024207258, 35.020096333], [-86.024561172, 35.019298704], [-86.024502988, 35.018345898], [-86.024993265, 35.017540931], [-86.025028229, 35.01637279], [-86.02527275, 35.015315182], [-86.025287025, 35.014905664], [-86.02630776, 35.013406566], [-86.02595554, 35.012531914], [-86.025587721, 35.011837075], [-86.026184884, 35.01115074], [-86.026112042, 35.008770684], [-86.024952419, 35.006578153], [-86.025444783, 35.004456886], [-86.024476373, 35.002036292], [-86.023946158, 35.002109055], [-86.022995887, 35.002468284], [-86.021680072, 35.001915879], [-86.020525392, 35.001545707], [-86.018887305, 35.000329661], [-86.018387501, 35.000169078], [-86.017751774, 34.999952665], [-86.016338786, 34.999147563], [-86.014161068, 34.998816429], [-86.013298581, 34.999301029], [-86.01040562, 35.001499663], [-86.008424003, 35.001081951], [-86.007371591, 35.000307518], [-86.007143096, 35.000681906], [-86.006529236, 35.00275275], [-86.005480048, 35.003549956], [-86.004479037, 35.003399173], [-86.00410919, 35.003679335], [-86.002814492, 35.003484496], [-86.002149043, 35.004413455], [-85.996008805, 35.00439643], [-85.993921793, 35.004944744], [-85.992391963, 35.005473259], [-85.990405397, 35.005172783], [-85.98962633, 35.005156707], [-85.988633738, 35.004762161], [-85.986603135, 35.00471905], [-85.982873916, 35.004145055], [-85.982972174, 35.004568436], [-85.983710523, 35.006767569], [-85.983872187, 35.007880969], [-85.984645461, 35.009813448], [-85.984670666, 35.011970491], [-85.982199408, 35.013861244], [-85.980819918, 35.015786423], [-85.980723041, 35.018895654], [-85.979982253, 35.021153535], [-85.979818393, 35.021291172], [-85.978757613, 35.021436291], [-85.978100205, 35.02168334], [-85.977003543, 35.021943333], [-85.975677583, 35.022442773], [-85.972105767, 35.023265924], [-85.970265751, 35.02498514], [-85.969632604, 35.025006728], [-85.969168563, 35.024811093], [-85.968307388, 35.024505594], [-85.966769116, 35.023324757], [-85.962351356, 35.023089294], [-85.957483986, 35.018675858], [-85.956527521, 35.0182041], [-85.955325209, 35.017283618], [-85.953309625, 35.016706197], [-85.952310259, 35.016085368], [-85.951910823, 35.016291223], [-85.950253651, 35.017646686], [-85.949702535, 35.018452505], [-85.949054721, 35.019161545], [-85.948602297, 35.02006852], [-85.947357085, 35.021082256], [-85.94616638, 35.021700425], [-85.945058026, 35.022603716], [-85.944442441, 35.022689871], [-85.944160575, 35.023289186], [-85.943333831, 35.024130285], [-85.943501112, 35.025652914], [-85.942211327, 35.025933923], [-85.94234973, 35.026982214], [-85.94274256, 35.027620527], [-85.9420182, 35.028276616], [-85.941364204, 35.028357352], [-85.941034355, 35.029361199], [-85.940991284, 35.030680381], [-85.941400131, 35.031989938], [-85.941526207, 35.03336999], [-85.941814364, 35.033912942], [-85.942270176, 35.035321315], [-85.944014994, 35.039391338], [-85.943219774, 35.042807147], [-85.943182346, 35.043964597], [-85.944551076, 35.044393894], [-85.945893666, 35.043375898], [-85.946460428, 35.044039644], [-85.946622052, 35.044177801], [-85.946828014, 35.045406695], [-85.945138974, 35.047673574], [-85.945309832, 35.04887207], [-85.944932321, 35.049425251], [-85.947600755, 35.050850791], [-85.949035286, 35.052010283], [-85.949292124, 35.054022904], [-85.950011639, 35.054000391], [-85.951297872, 35.05428559], [-85.952170309, 35.055738042], [-85.952132579, 35.056918613], [-85.951900277, 35.057913977], [-85.953658962, 35.060059612], [-85.95399609, 35.062355019], [-85.954707197, 35.064263318], [-85.95396715, 35.065295178], [-85.953126068, 35.065766491], [-85.954155727, 35.067769512], [-85.955294149, 35.06878552], [-85.95765387, 35.070504429], [-85.95839888, 35.071341332], [-85.959155774, 35.07182959], [-85.959670326, 35.071821032], [-85.962450119, 35.072345709], [-85.9633698, 35.072725715], [-85.964364423, 35.073051048], [-85.965904076, 35.073751646], [-85.967805458, 35.074257819], [-85.97034183, 35.074015807], [-85.973142041, 35.075340265], [-85.975058702, 35.075312614], [-85.975872561, 35.075466505], [-85.976875391, 35.075451202], [-85.978111654, 35.075683342], [-85.978867956, 35.075520554], [-85.979738623, 35.076713477], [-85.980358201, 35.078689527], [-85.980090291, 35.079620771], [-85.981774953, 35.080967531], [-85.982790131, 35.082709877], [-85.984953725, 35.084042758], [-85.986045672, 35.084024453], [-85.987858773, 35.085108263], [-85.989876972, 35.086856186], [-85.990999481, 35.087341734], [-85.991916199, 35.088782785], [-85.992086764, 35.090288583], [-85.99226567, 35.090415493], [-85.991901702, 35.091264823], [-85.991951133, 35.092202115], [-85.993407206, 35.093326928], [-85.993952467, 35.094041166], [-85.994143367, 35.096488067], [-85.99475949, 35.098295163], [-85.994835472, 35.099946616], [-85.992979622, 35.101378372], [-85.992780731, 35.101782636], [-85.992252104, 35.101857553], [-85.99158944, 35.102100051], [-85.990202146, 35.102221684], [-85.987874353, 35.103533024], [-85.986976755, 35.105330894], [-85.98737448, 35.106335846], [-85.987230743, 35.107035474], [-85.985384174, 35.108752261], [-85.986669973, 35.111259], [-85.986069176, 35.112262893], [-85.985877461, 35.112372888], [-85.983180366, 35.113275589], [-85.97830063, 35.116864553], [-85.976126918, 35.118009839], [-85.975174175, 35.121418397], [-85.973407737, 35.124209736], [-85.972681066, 35.126628722], [-85.97313007, 35.129489461], [-85.9735953, 35.129680895], [-85.97394013, 35.129676684], [-85.974362549, 35.129757037], [-85.974138631, 35.130529826], [-85.975444361, 35.132347504], [-85.977461825, 35.13231778], [-85.978583445, 35.133730026], [-85.978035773, 35.135420828], [-85.981709512, 35.138696066], [-85.982701063, 35.139330489], [-85.983248787, 35.139948051], [-85.983882096, 35.140509736], [-85.984014819, 35.14188587], [-85.984844067, 35.143978613], [-85.985110469, 35.145071294], [-85.984904503, 35.145468618], [-85.98405072, 35.146250802], [-85.981170633, 35.146689289], [-85.979777107, 35.147170487], [-85.977846635, 35.148045973], [-85.976886291, 35.149381353], [-85.976822873, 35.15141681], [-85.974794613, 35.153016844], [-85.973472387, 35.154862551], [-85.971544149, 35.156852304], [-85.971330655, 35.157027817], [-85.968734476, 35.156491984], [-85.967790833, 35.155928959], [-85.966365031, 35.155600588], [-85.965678353, 35.156121042], [-85.963645403, 35.157257145], [-85.96135035, 35.159335419], [-85.958636188, 35.160849123], [-85.958122836, 35.161241156], [-85.955717741, 35.161871384], [-85.954989929, 35.164113234], [-85.953297367, 35.165396277], [-85.95270903, 35.165484894], [-85.952833816, 35.165647228], [-85.952886757, 35.166713283], [-85.953290286, 35.167891506], [-85.953100189, 35.168483913], [-85.953185667, 35.170136164], [-85.953364278, 35.170663264], [-85.953329228, 35.170929853], [-85.952605911, 35.171072204], [-85.95132917, 35.170362584], [-85.95086019, 35.170575153], [-85.949697565, 35.171617107], [-85.948418076, 35.171444297], [-85.947509122, 35.171410642], [-85.945932943, 35.170795353], [-85.94494159, 35.172260547], [-85.944882683, 35.173283323], [-85.943762868, 35.173503266], [-85.942901534, 35.173385198], [-85.942111258, 35.173599677], [-85.938645918, 35.175598292], [-85.936342506, 35.176224251], [-85.934392431, 35.177971503], [-85.933499683, 35.178269811], [-85.931290576, 35.17847621], [-85.930767741, 35.1788589], [-85.929651712, 35.1795045], [-85.928797384, 35.181491049], [-85.927826816, 35.183111662], [-85.927806937, 35.183440632], [-85.927180315, 35.184174562], [-85.926420674, 35.185204577], [-85.925733053, 35.186499836], [-85.923579269, 35.189451049], [-85.924476826, 35.19095824], [-85.92571078, 35.193180923], [-85.924802846, 35.195710448], [-85.924739366, 35.196785478], [-85.924601591, 35.19745395], [-85.924725205, 35.197862634], [-85.92438046, 35.198833478], [-85.922262393, 35.199927963], [-85.921329362, 35.200806156], [-85.921631871, 35.201065923], [-85.920324692, 35.2065793], [-85.917204495, 35.208320596], [-85.916568509, 35.209024187], [-85.916165345, 35.209526629], [-85.915471521, 35.209738716], [-85.914167172, 35.209373895], [-85.912011417, 35.209445583], [-85.910744973, 35.208675376], [-85.909703332, 35.207903418], [-85.907582539, 35.206979682], [-85.906323076, 35.205327511], [-85.904593907, 35.204641694], [-85.904013974, 35.20428851], [-85.902191333, 35.204013753], [-85.899962803, 35.20475505], [-85.898246029, 35.20571307], [-85.897062468, 35.207357266], [-85.893834382, 35.209080278], [-85.892697404, 35.208733834], [-85.891119971, 35.208105116], [-85.890045942, 35.208703455], [-85.889524528, 35.209703242], [-85.888029065, 35.208849855], [-85.887044434, 35.208516479], [-85.886285547, 35.208036152], [-85.887162677, 35.207012264], [-85.889108677, 35.206158391], [-85.89027454, 35.204175733], [-85.89164784, 35.202341521], [-85.892039683, 35.201412709], [-85.892194862, 35.201265999], [-85.891872958, 35.199713335], [-85.892117264, 35.198538017], [-85.891621474, 35.196898757], [-85.891711216, 35.195392075], [-85.892624807, 35.194150134], [-85.894996436, 35.191378224], [-85.894941417, 35.187531628], [-85.894636467, 35.186521728], [-85.894331033, 35.185259028], [-85.893950213, 35.183994045], [-85.894098628, 35.183286476], [-85.894002966, 35.182549457], [-85.893884977, 35.182139097], [-85.893478855, 35.180532812], [-85.892106938, 35.179045521], [-85.890585643, 35.178510027], [-85.887601974, 35.175988582], [-85.886402908, 35.175562948], [-85.88547256, 35.175059365], [-85.884431386, 35.175392964], [-85.882990477, 35.175630998], [-85.881195229, 35.176514587], [-85.878931427, 35.176245579], [-85.875149155, 35.176070861], [-85.873924461, 35.174086281], [-85.874979211, 35.171070437], [-85.875300997, 35.169882838], [-85.874700553, 35.168013212], [-85.872807822, 35.166383774], [-85.872465648, 35.164909252], [-85.871948329, 35.163929347], [-85.871542367, 35.162188116], [-85.870548743, 35.160903768], [-85.870129407, 35.159854373], [-85.868528552, 35.157974098], [-85.868028036, 35.157812901], [-85.866655054, 35.156792735], [-85.864799805, 35.156851488], [-85.862341376, 35.156205082], [-85.861180976, 35.155451776], [-85.860599719, 35.154070258], [-85.860427998, 35.152532457], [-85.859881602, 35.151183433], [-85.85980097, 35.150748853], [-85.860038356, 35.150080572], [-85.860823588, 35.148842472], [-85.860300792, 35.145525953], [-85.861774858, 35.144326344], [-85.860599397, 35.142684888], [-85.860349142, 35.139615197], [-85.858291958, 35.13701062], [-85.858703867, 35.136363752], [-85.858626654, 35.13551027], [-85.8571211, 35.134804963], [-85.857150108, 35.133937495], [-85.857272424, 35.133408816], [-85.857292129, 35.132808066], [-85.858186052, 35.129392843], [-85.859469922, 35.12807149], [-85.85995015, 35.128285761], [-85.861210995, 35.127767079], [-85.861830521, 35.127186605], [-85.861722804, 35.126425273], [-85.861243932, 35.125669758], [-85.861754938, 35.124924018], [-85.861945367, 35.124510763], [-85.861591877, 35.124206348], [-85.862576046, 35.12091475], [-85.864713625, 35.119231132], [-85.865651358, 35.115855448], [-85.867593632, 35.114384508], [-85.869270463, 35.114129219], [-85.870322088, 35.112667622], [-85.871388361, 35.11144953], [-85.869721711, 35.110014205], [-85.870340966, 35.109079778], [-85.871352552, 35.108156083], [-85.871407191, 35.106444004], [-85.872120025, 35.105905253], [-85.874409925, 35.104681231], [-85.874890475, 35.104754347], [-85.875697371, 35.103859279], [-85.875674878, 35.103379159], [-85.874789672, 35.10250221], [-85.873658066, 35.102265405], [-85.873775664, 35.100727281], [-85.873688218, 35.099575888], [-85.870887561, 35.09879036], [-85.869806217, 35.099198239], [-85.868918511, 35.098655955], [-85.867010964, 35.097821145], [-85.866853627, 35.095781051], [-85.865275927, 35.094818842], [-85.864395106, 35.093280712], [-85.861959263, 35.09157433], [-85.861547965, 35.090428585], [-85.860571959, 35.090002865], [-85.860099582, 35.089180449], [-85.859720272, 35.088128042], [-85.858723323, 35.087919575], [-85.856344381, 35.088263458], [-85.855703051, 35.087417965], [-85.855532938, 35.087285267], [-85.855092203, 35.086598278], [-85.854719962, 35.085866658], [-85.8536765, 35.085085336], [-85.852711844, 35.084496208], [-85.849806537, 35.081832476], [-85.847529571, 35.08119279], [-85.845727263, 35.081592737], [-85.844564225, 35.080063634], [-85.843881069, 35.079534634], [-85.84394658, 35.078000368], [-85.843067167, 35.076691744], [-85.841844969, 35.076198147], [-85.841294736, 35.075375188], [-85.841113262, 35.075249905], [-85.840481607, 35.073469782], [-85.839650776, 35.072306476], [-85.839479051, 35.071008628], [-85.838202403, 35.068923942], [-85.839075509, 35.066863528], [-85.83965631, 35.064727192], [-85.840232064, 35.064100895], [-85.838119393, 35.062405024], [-85.838057712, 35.059454533], [-85.839160502, 35.057704761], [-85.840213511, 35.057448512], [-85.840539946, 35.056324475], [-85.840519456, 35.055300956], [-85.841185376, 35.054328554], [-85.841840464, 35.053614332], [-85.841777344, 35.052656634], [-85.842107107, 35.052685238], [-85.842213253, 35.051885477], [-85.842442704, 35.051511429], [-85.84292636, 35.050184032], [-85.843385242, 35.049435931], [-85.843833494, 35.048375115], [-85.84453881, 35.047222832], [-85.843182587, 35.046053961], [-85.842484602, 35.044303841], [-85.841111147, 35.043226136], [-85.839599226, 35.043191859], [-85.837754555, 35.041601313], [-85.838489628, 35.038831567], [-85.840793236, 35.036747785], [-85.842016515, 35.036933979], [-85.841495283, 35.034598746], [-85.840717514, 35.03368646], [-85.836724495, 35.033601129], [-85.8340503, 35.032962348], [-85.833515776, 35.031984748], [-85.83374521, 35.031610709], [-85.834174841, 35.030788462], [-85.83660733, 35.029950503], [-85.838380087, 35.029784167], [-85.840245378, 35.027860386], [-85.840622797, 35.027332747], [-85.841761262, 35.026291794], [-85.841626212, 35.024992854], [-85.840744026, 35.023317272], [-85.84138278, 35.022959783], [-85.842087855, 35.021552564], [-85.84266823, 35.019416116], [-85.842902179, 35.019046667], [-85.845090839, 35.018275888], [-85.846420884, 35.018479754], [-85.847970829, 35.017948463], [-85.848010692, 35.016763714], [-85.848376679, 35.015476632], [-85.849490328, 35.015229816], [-85.85200236, 35.015791037], [-85.852327894, 35.014671086], [-85.853699124, 35.014170581], [-85.854425838, 35.013993407], [-85.855093877, 35.013747942], [-85.855695877, 35.013863321], [-85.856243806, 35.013266148], [-85.856837612, 35.011221406], [-85.856795211, 35.00920158], [-85.857736685, 35.008857609], [-85.85846334, 35.00868041], [-85.85862969, 35.008545246], [-85.858428922, 35.007602989], [-85.857226376, 35.005356212], [-85.855863617, 35.004260562], [-85.856040176, 35.002927541], [-85.855606445, 35.002525474], [-85.855804812, 34.999671151], [-85.854575574, 34.999141124], [-85.854263058, 34.99872849], [-85.853491082, 34.998501441], [-85.851810322, 34.998136587], [-85.851038359, 34.997909522], [-85.849928235, 34.996500707], [-85.850411259, 34.99484032], [-85.849687529, 34.994406746], [-85.848834533, 34.994025157], [-85.848181289, 34.993197396], [-85.848014249, 34.993062815], [-85.848314914, 34.992012327], [-85.849121392, 34.991153196], [-85.84989754, 34.988911475], [-85.850226496, 34.988767254], [-85.85098514, 34.987541593], [-85.852284374, 34.986971682], [-85.853916988, 34.987540951], [-85.85500098, 34.9872789], [-85.856662025, 34.985332977], [-85.856362611, 34.983543629], [-85.855844698, 34.982146157], [-85.856193288, 34.98163704], [-85.858226882, 34.981615307], [-85.859472215, 34.981805422], [-85.860808638, 34.98337283], [-85.862805342, 34.982469288], [-85.863433347, 34.981992791], [-85.864634552, 34.982851089], [-85.867839823, 34.981135713], [-85.868492971, 34.98123652], [-85.86994829, 34.980941187], [-85.870018796, 34.980407958], [-85.869617102, 34.97942934], [-85.871257236, 34.977184376], [-85.871364111, 34.974170399], [-85.869960913, 34.97371813], [-85.870262876, 34.972773049], [-85.86909071, 34.971302123], [-85.868804355, 34.970455672], [-85.869252996, 34.969976256], [-85.869935749, 34.968021286], [-85.871190343, 34.966682561], [-85.870799242, 34.965525768], [-85.870710197, 34.965096695], [-85.869556633, 34.965376015], [-85.868669362, 34.964782997], [-85.86839728, 34.963927238], [-85.867458008, 34.963274925], [-85.867404119, 34.962383287], [-85.866987492, 34.962168113], [-85.865792453, 34.961973979], [-85.863041247, 34.961954673], [-85.862567234, 34.961051895], [-85.862630403, 34.959138043], [-85.862948354, 34.957777196], [-85.86277709, 34.955904118], [-85.862356982, 34.955204046], [-85.861294409, 34.955307869], [-85.860234564, 34.954859924], [-85.858204069, 34.95496196], [-85.856523502, 34.955389273], [-85.8556641, 34.955432714], [-85.854826686, 34.954287678], [-85.854437639, 34.953196279], [-85.854005664, 34.952861734], [-85.851536181, 34.952525257], [-85.850456689, 34.951892211], [-85.849598781, 34.952062147], [-85.848599154, 34.952417822], [-85.847425206, 34.952714111], [-85.846684391, 34.953296608], [-85.845390012, 34.952537405], [-85.84325492, 34.953546596], [-85.842873186, 34.952577979], [-85.842595149, 34.951416103], [-85.841054622, 34.951356025], [-85.840343929, 34.950552651], [-85.837713579, 34.948387839], [-85.832864193, 34.945629709], [-85.830049265, 34.944270341], [-85.82899443, 34.943080869], [-85.827829577, 34.942328487], [-85.826790875, 34.94115514], [-85.824693344, 34.939274402], [-85.82445934, 34.937724375], [-85.821746568, 34.933893728], [-85.820354434, 34.934168634], [-85.819833678, 34.934249709], [-85.818946875, 34.934971036], [-85.816743473, 34.9352806], [-85.815587941, 34.936966679], [-85.814498627, 34.936587339], [-85.813826134, 34.93573441], [-85.812584448, 34.935327024], [-85.812357038, 34.934257917], [-85.811577455, 34.932331594], [-85.811302882, 34.931049775], [-85.809856145, 34.928681802], [-85.809798557, 34.925943963], [-85.80960665, 34.924608229], [-85.809727759, 34.92258128], [-85.809217021, 34.922313407], [-85.809352861, 34.920390983], [-85.809595215, 34.920015987], [-85.809580321, 34.919736558], [-85.809894645, 34.918820004], [-85.809493909, 34.918351014], [-85.807019042, 34.916557028], [-85.805088669, 34.914894755], [-85.803371069, 34.912865409], [-85.803053802, 34.910673757], [-85.802702749, 34.909147096], [-85.801577315, 34.907517035], [-85.801508794, 34.90676093], [-85.801488911, 34.905541293], [-85.802687969, 34.903233302], [-85.802063616, 34.902040982], [-85.804055644, 34.898776016], [-85.803761856, 34.897484008], [-85.802865628, 34.89696752], [-85.800768399, 34.896251377], [-85.800636901, 34.893856743], [-85.798690636, 34.891556523], [-85.798593535, 34.891132939], [-85.796819846, 34.890586131], [-85.796231382, 34.89023974], [-85.793377669, 34.888936902], [-85.791908551, 34.887704399], [-85.791085023, 34.887326902], [-85.790089988, 34.886108401], [-85.78807124, 34.88629018], [-85.787287065, 34.886906464], [-85.785751049, 34.887583445], [-85.785340935, 34.887265228], [-85.785306785, 34.886564766], [-85.786139415, 34.884178485], [-85.789257051, 34.882343838], [-85.790784213, 34.881986336], [-85.790726153, 34.880742242], [-85.79118597, 34.880354669], [-85.791587146, 34.880153723], [-85.791751042, 34.880016329], [-85.792761214, 34.879967632], [-85.793847391, 34.878800337], [-85.795160943, 34.878308227], [-85.796305838, 34.877344116], [-85.797712136, 34.876643043], [-85.798110799, 34.875834993], [-85.798598734, 34.875078988], [-85.796816001, 34.873058432], [-85.796798389, 34.872096019], [-85.797728857, 34.871218526], [-85.799297936, 34.869937434], [-85.799285525, 34.869346339], [-85.79947694, 34.868688757], [-85.799462755, 34.86801322], [-85.799677814, 34.867275522], [-85.799429522, 34.865544908], [-85.799729284, 34.865069576], [-85.800088366, 34.864930254], [-85.80067673, 34.863906968], [-85.801145334, 34.863471665], [-85.801547486, 34.86277348], [-85.802057305, 34.86257567], [-85.805163374, 34.862716197], [-85.805725317, 34.861127967], [-85.806208622, 34.860601213], [-85.806796779, 34.860713657], [-85.807718646, 34.860701397], [-85.808388554, 34.858808608], [-85.810191578, 34.857876528], [-85.813231317, 34.857496919], [-85.815017452, 34.856573834], [-85.815646856, 34.856061895], [-85.815431243, 34.854572284], [-85.815760148, 34.854600968], [-85.815830913, 34.854067702], [-85.817968178, 34.854376287], [-85.820133225, 34.855357332], [-85.8208709, 34.855792494], [-85.820133466, 34.856981975], [-85.821153549, 34.857835787], [-85.821376661, 34.859446133], [-85.823103957, 34.860534342], [-85.824352706, 34.859958329], [-85.826327336, 34.860298929], [-85.826529728, 34.861203664], [-85.82672334, 34.861096208], [-85.827728609, 34.859689811], [-85.827571732, 34.859265256], [-85.828044298, 34.858798596], [-85.828459541, 34.857705337], [-85.82891419, 34.857256078], [-85.829294076, 34.85642945], [-85.82994267, 34.856144578], [-85.830186077, 34.855563134], [-85.829845252, 34.854153275], [-85.830620636, 34.853382157], [-85.831139707, 34.852544466], [-85.83159431, 34.852095194], [-85.831975084, 34.851477242], [-85.832859462, 34.850648173], [-85.833276429, 34.850463227], [-85.833608195, 34.848861182], [-85.835772166, 34.847534526], [-85.837388568, 34.84704518], [-85.837584843, 34.847466833], [-85.838511152, 34.847772909], [-85.839307713, 34.84847015], [-85.840049692, 34.848715923], [-85.84013674, 34.848902603], [-85.840910187, 34.849224857], [-85.84263406, 34.849199928], [-85.844413325, 34.848815259], [-85.845083652, 34.847834745], [-85.845879368, 34.847124307], [-85.847006951, 34.845928583], [-85.847409684, 34.845339893], [-85.848364484, 34.844487346], [-85.850577999, 34.844296273], [-85.851899416, 34.84367785], [-85.852472268, 34.842273727], [-85.852938994, 34.841534655], [-85.853574159, 34.838970706], [-85.852905493, 34.837875891], [-85.852142158, 34.836730699], [-85.851355323, 34.836097596], [-85.852684848, 34.831897749], [-85.854085852, 34.831383158], [-85.855860059, 34.831229694], [-85.856837801, 34.82963105], [-85.857356616, 34.829362164], [-85.857557807, 34.828960324], [-85.859081273, 34.827773609], [-85.859518845, 34.826703268], [-85.859988804, 34.82595813], [-85.859951386, 34.824136422], [-85.861550189, 34.823912864], [-85.864186264, 34.823684534], [-85.864813153, 34.821513836], [-85.864758473, 34.818877277], [-85.866449503, 34.817028639], [-85.86626763, 34.815788601], [-85.864979974, 34.815211119], [-85.864598291, 34.813418507], [-85.864492021, 34.811133554], [-85.86338155, 34.810316465], [-85.862062011, 34.809961635], [-85.861427706, 34.809158491], [-85.860594388, 34.808485554], [-85.860467532, 34.808324924], [-85.861325291, 34.808281441], [-85.862982776, 34.807413979], [-85.86458821, 34.807334269], [-85.866389964, 34.807617159], [-85.870545588, 34.808782845], [-85.871220354, 34.809161693], [-85.872156095, 34.809196542], [-85.872571969, 34.809253701], [-85.874503926, 34.810618181]]]}, "properties": {"arm": "147", "name": "Slaton Branch", "comid": 19646390, "kind": "atMouth"}}