{"type": "Feature", "geometry": {"type": "Polygon", "coordinates": [[[-86.300830533, 34.482546285], [-86.302070904, 34.483189167], [-86.30168426, 34.483694161], [-86.302300356, 34.484017363], [-86.301868704, 34.484859919], [-86.298713652, 34.486655032], [-86.298059022, 34.487584308], [-86.297641425, 34.488067744], [-86.2972362, 34.488864032], [-86.296785033, 34.489614345], [-86.296242565, 34.490679389], [-86.296208534, 34.491957539], [-86.297154053, 34.493321677], [-86.298111396, 34.493645991], [-86.297878914, 34.494014252], [-86.297286086, 34.496425603], [-86.296781104, 34.497438994], [-86.296869172, 34.499062319], [-86.297248681, 34.499355251], [-86.297730342, 34.499987485], [-86.297826902, 34.501173284], [-86.295502507, 34.501107774], [-86.294153043, 34.502604757], [-86.293564431, 34.503480526], [-86.292109183, 34.50320731], [-86.290745698, 34.503232488], [-86.28890749, 34.50263228], [-86.287208823, 34.503265694], [-86.285878877, 34.502716331], [-86.285206123, 34.502965608], [-86.283657185, 34.503190108], [-86.283074039, 34.503836639], [-86.282558599, 34.5046026], [-86.282020379, 34.504317421], [-86.280888718, 34.503487504], [-86.278548575, 34.504716089], [-86.276576454, 34.506348338], [-86.274806224, 34.507281099], [-86.273143039, 34.508656815], [-86.271523551, 34.508803627], [-86.2705313, 34.509021876], [-86.269624051, 34.508853238], [-86.266289024, 34.509682287], [-86.264362732, 34.510599729], [-86.262923446, 34.509543715], [-86.261295226, 34.509984626], [-86.259756648, 34.509080377], [-86.260154955, 34.50731864], [-86.258852282, 34.50573463], [-86.259133262, 34.504512971], [-86.259664493, 34.503541936], [-86.25987807, 34.502854005], [-86.260070181, 34.502745792], [-86.261612182, 34.500241302], [-86.262582119, 34.499338613], [-86.26324036, 34.498405594], [-86.263952104, 34.498216593], [-86.264717871, 34.497947834], [-86.265407714, 34.496968992], [-86.266547986, 34.496006796], [-86.26709916, 34.49522492], [-86.266710192, 34.493982957], [-86.267157591, 34.492014602], [-86.268142511, 34.49086872], [-86.268609354, 34.489955465], [-86.269456462, 34.48990208], [-86.270965498, 34.489910423], [-86.271783009, 34.489209817], [-86.272998942, 34.488917589], [-86.273712026, 34.48906576], [-86.274372165, 34.488813389], [-86.275522388, 34.48865259], [-86.27687035, 34.487496989], [-86.278106057, 34.485425996], [-86.27897201, 34.485304594], [-86.280625332, 34.485624074], [-86.282033988, 34.486428736], [-86.283932222, 34.486035432], [-86.285990015, 34.483881399], [-86.291690782, 34.483883713], [-86.295284878, 34.483079878], [-86.298963386, 34.483043578], [-86.300830533, 34.482546285]]]}, "properties": {"arm": "154", "name": "Jagger Branch", "comid": 19648786, "kind": "aboveHead"}}