{"type": "Feature", "geometry": {"type": "Polygon", "coordinates": [[[-86.302337581, 34.460018369], [-86.302464782, 34.46017858], [-86.303452957, 34.460501254], [-86.304622558, 34.461437433], [-86.308884914, 34.462033248], [-86.310936374, 34.46385197], [-86.311891135, 34.464441464], [-86.312766959, 34.46508336], [-86.314376617, 34.465727432], [-86.315252476, 34.466369309], [-86.316568222, 34.466719162], [-86.31694392, 34.467721756], [-86.317843746, 34.468976606], [-86.316912873, 34.471225049], [-86.318648875, 34.472614876], [-86.318021076, 34.473312619], [-86.317649127, 34.473928441], [-86.318513712, 34.474619904], [-86.318765488, 34.475291907], [-86.320266428, 34.476495666], [-86.323047215, 34.477018018], [-86.323249236, 34.4779429], [-86.322631427, 34.478829007], [-86.322442333, 34.482481302], [-86.323107287, 34.485838107], [-86.322799907, 34.486804837], [-86.322174085, 34.487981016], [-86.321520954, 34.48931293], [-86.321549691, 34.490341354], [-86.321363126, 34.49100422], [-86.320459289, 34.492273114], [-86.320568846, 34.492842656], [-86.321876005, 34.493615157], [-86.321289262, 34.495180131], [-86.321040223, 34.495557584], [-86.321122138, 34.496512477], [-86.322504088, 34.498256112], [-86.322670884, 34.498390087], [-86.322339071, 34.499860408], [-86.321551309, 34.500574342], [-86.320659595, 34.502054924], [-86.316131474, 34.502137083], [-86.313336145, 34.502856469], [-86.311746198, 34.502214117], [-86.310747988, 34.501616851], [-86.309974807, 34.501472342], [-86.309171869, 34.501894194], [-86.308217395, 34.503481129], [-86.307299874, 34.503497331], [-86.304987981, 34.503064361], [-86.303292608, 34.503487589], [-86.301276778, 34.504238009], [-86.299902869, 34.503626156], [-86.298781949, 34.501701754], [-86.297954162, 34.501333493], [-86.297826902, 34.501173284], [-86.295502507, 34.501107774], [-86.294153043, 34.502604757], [-86.293564431, 34.503480526], [-86.292109183, 34.50320731], [-86.290745698, 34.503232488], [-86.28890749, 34.50263228], [-86.287208823, 34.503265694], [-86.285878877, 34.502716331], [-86.285206123, 34.502965608], [-86.283657185, 34.503190108], [-86.283074039, 34.503836639], [-86.282558599, 34.5046026], [-86.282020379, 34.504317421], [-86.280888718, 34.503487504], [-86.278548575, 34.504716089], [-86.276576454, 34.506348338], [-86.274806224, 34.507281099], [-86.273143039, 34.508656815], [-86.271523551, 34.508803627], [-86.2705313, 34.509021876], [-86.269624051, 34.508853238], [-86.266289024, 34.509682287], [-86.264362732, 34.510599729], [-86.262923446, 34.509543715], [-86.261295226, 34.509984626], [-86.259756648, 34.509080377], [-86.260154955, 34.50731864], [-86.258852282, 34.50573463], [-86.259133262, 34.504512971], [-86.259664493, 34.503541936], [-86.25987807, 34.502854005], [-86.260070181, 34.502745792], [-86.261612182, 34.500241302], [-86.262582119, 34.499338613], [-86.26324036, 34.498405594], [-86.263952104, 34.498216593], [-86.264717871, 34.497947834], [-86.265407714, 34.496968992], [-86.266547986, 34.496006796], [-86.26709916, 34.49522492], [-86.266710192, 34.493982957], [-86.267157591, 34.492014602], [-86.268142511, 34.49086872], [-86.268609354, 34.489955465], [-86.269456462, 34.48990208], [-86.270965498, 34.489910423], [-86.271783009, 34.489209817], [-86.272998942, 34.488917589], [-86.273712026, 34.48906576], [-86.274372165, 34.488813389], [-86.275522388, 34.48865259], [-86.27687035, 34.487496989], [-86.278106057, 34.485425996], [-86.27897201, 34.485304594], [-86.279183892, 34.484915676], [-86.279616834, 34.484147035], [-86.280074198, 34.483102318], [-86.280847358, 34.482136684], [-86.281928835, 34.48013914], [-86.284743008, 34.476432342], [-86.28746193, 34.473069384], [-86.287495514, 34.4728025], [-86.2880782, 34.472712145], [-86.289355057, 34.471727458], [-86.290171982, 34.471850509], [-86.292121563, 34.470346812], [-86.294332221, 34.468451932], [-86.29396703, 34.467285777], [-86.293624716, 34.465834983], [-86.293026477, 34.464240598], [-86.292839216, 34.463304207], [-86.294197861, 34.462530685], [-86.295001741, 34.46168763], [-86.296251744, 34.460523649], [-86.297776879, 34.459658647], [-86.298114865, 34.459396112], [-86.2989307, 34.459588551], [-86.299666039, 34.460010243], [-86.302337581, 34.460018369]]]}, "properties": {"arm": "154", "name": "Jagger Branch", "comid": 19650166, "kind": "atMouth"}}