{"type": "Feature", "geometry": {"type": "Polygon", "coordinates": [[[-85.755023985, 34.993901403], [-85.755598642, 34.994861951], [-85.756766843, 34.996291645], [-85.756996503, 34.996872215], [-85.757318871, 34.997149062], [-85.75798502, 34.997932183], [-85.758626922, 34.998487728], [-85.758377386, 35.000353758], [-85.757388865, 35.000267233], [-85.757477318, 35.000696376], [-85.758146331, 35.000990918], [-85.759017924, 35.001640305], [-85.76014058, 35.002126238], [-85.760231903, 35.002553521], [-85.760494433, 35.003356079], [-85.760613935, 35.00485828], [-85.761162233, 35.005841755], [-85.761386321, 35.007555371], [-85.762783069, 35.008680483], [-85.76296966, 35.009505881], [-85.761473256, 35.010723434], [-85.76032084, 35.011939464], [-85.760104185, 35.012371399], [-85.759296347, 35.012471378], [-85.759774718, 35.0138027], [-85.759818991, 35.014503979], [-85.759965982, 35.015138394], [-85.761530405, 35.017757255], [-85.763157036, 35.019677799], [-85.764744659, 35.020058941], [-85.764737682, 35.021280356], [-85.765019112, 35.022215162], [-85.764722266, 35.023636669], [-85.765793356, 35.026576781], [-85.764744511, 35.03003735], [-85.765074148, 35.030066171], [-85.764967229, 35.030865879], [-85.764113822, 35.03091557], [-85.762639988, 35.03215619], [-85.75990889, 35.03340692], [-85.756454068, 35.036949815], [-85.755433484, 35.037313501], [-85.753807464, 35.03700265], [-85.753306279, 35.037009351], [-85.752406823, 35.036837919], [-85.748169187, 35.037427678], [-85.747142638, 35.037232433], [-85.746202803, 35.036039759], [-85.745949242, 35.034081259], [-85.744357064, 35.034101916], [-85.743477986, 35.033934302], [-85.741305511, 35.032627252], [-85.73945985, 35.033489486], [-85.739200668, 35.034004047], [-85.737862325, 35.03292806], [-85.736462534, 35.032466119], [-85.73548994, 35.030722644], [-85.73591196, 35.029790434], [-85.736692942, 35.028940263], [-85.73650503, 35.02781551], [-85.735732173, 35.026428764], [-85.736297115, 35.0244303], [-85.736910172, 35.023763461], [-85.735816913, 35.023309406], [-85.73434859, 35.022913048], [-85.734144996, 35.021963893], [-85.733963822, 35.021838438], [-85.733575517, 35.021256556], [-85.732169888, 35.020684461], [-85.731577367, 35.01974121], [-85.731602291, 35.017535236], [-85.731053409, 35.016189149], [-85.73091324, 35.014845207], [-85.728855896, 35.013442585], [-85.728046637, 35.011940876], [-85.727011756, 35.01151923], [-85.726612639, 35.010921612], [-85.725471344, 35.010574891], [-85.724916532, 35.010205907], [-85.724224734, 35.00992603], [-85.723488804, 35.009431566], [-85.723159271, 35.009402628], [-85.72286953, 35.009018982], [-85.72158317, 35.008724798], [-85.72161895, 35.008458236], [-85.721289421, 35.008429292], [-85.721162526, 35.008268545], [-85.720499299, 35.007970081], [-85.719915989, 35.007619636], [-85.718264206, 35.007234311], [-85.717351392, 35.0068549], [-85.71537012, 35.006440579], [-85.714055335, 35.005893063], [-85.71240655, 35.006494035], [-85.710588841, 35.005676803], [-85.710221732, 35.003950411], [-85.710257549, 35.003683851], [-85.709928045, 35.003654875], [-85.709963864, 35.003388315], [-85.709634361, 35.003359339], [-85.70967018, 35.003092779], [-85.70934068, 35.003063802], [-85.709376499, 35.002797242], [-85.709047, 35.002768264], [-85.708907451, 35.001984787], [-85.706624051, 34.99947875], [-85.705739429, 34.998115576], [-85.704832344, 34.99748159], [-85.704491772, 34.996973304], [-85.702083769, 34.996500104], [-85.70212015, 34.99541602], [-85.702398714, 34.994235252], [-85.701491273, 34.993449485], [-85.701548624, 34.991589704], [-85.700852932, 34.991359891], [-85.700481749, 34.989607774], [-85.701331586, 34.989252728], [-85.702453941, 34.9890207], [-85.703580787, 34.988561485], [-85.704248928, 34.988860503], [-85.704404036, 34.98871401], [-85.705716154, 34.988561867], [-85.706453765, 34.987375123], [-85.70882329, 34.988074554], [-85.709663217, 34.988258008], [-85.709627405, 34.988524572], [-85.709956844, 34.988553549], [-85.709921032, 34.988820113], [-85.710250473, 34.988849089], [-85.710424255, 34.989222587], [-85.710837737, 34.989440167], [-85.711736765, 34.98930009], [-85.714457249, 34.988395129], [-85.714962746, 34.986026906], [-85.71529633, 34.986296446], [-85.715803721, 34.986939477], [-85.716304109, 34.987343783], [-85.716731163, 34.987887031], [-85.71926013, 34.989455746], [-85.720517247, 34.988995181], [-85.721818232, 34.987101408], [-85.724159085, 34.987549361], [-85.725159029, 34.988151321], [-85.726151547, 34.988478696], [-85.729158344, 34.991262785], [-85.731250528, 34.991235727], [-85.733018514, 34.992539247], [-85.734379633, 34.992856746], [-85.734709099, 34.992885654], [-85.735553761, 34.992820693], [-85.737571165, 34.994207119], [-85.739968556, 34.995226482], [-85.741551262, 34.995776134], [-85.74443767, 34.995439195], [-85.746364311, 34.992953182], [-85.751459654, 34.989769197], [-85.751839911, 34.990099598], [-85.75369587, 34.992752661], [-85.755023985, 34.993901403]]]}, "properties": {"arm": "156", "name": "Poplar Spring Branch", "comid": 19646246, "kind": "atMouth"}}