{"type": "Feature", "geometry": {"type": "Polygon", "coordinates": [[[-86.147485437, 34.64399092], [-86.147811599, 34.645147795], [-86.148001051, 34.645267058], [-86.148088613, 34.645453549], [-86.148914355, 34.645885777], [-86.149177052, 34.646445247], [-86.149559263, 34.647528897], [-86.149990809, 34.647862462], [-86.149785999, 34.649463207], [-86.149634617, 34.651517227], [-86.150601451, 34.652589206], [-86.150571799, 34.654562918], [-86.150950975, 34.655387152], [-86.149985359, 34.655682626], [-86.150784054, 34.656793047], [-86.150278723, 34.659000417], [-86.150568148, 34.660242637], [-86.151177366, 34.660768182], [-86.152903082, 34.662797567], [-86.152779373, 34.663339096], [-86.154078579, 34.663779678], [-86.15371468, 34.664233489], [-86.152747596, 34.665127202], [-86.152363319, 34.666813877], [-86.152690053, 34.667096419], [-86.151323916, 34.669953644], [-86.151283786, 34.672657491], [-86.151990762, 34.673675842], [-86.150776323, 34.674232614], [-86.149821202, 34.674484745], [-86.149536704, 34.675735305], [-86.149515508, 34.676447716], [-86.148759376, 34.677028468], [-86.148566676, 34.677136477], [-86.148223889, 34.678599104], [-86.146955719, 34.679675891], [-86.145967596, 34.68326236], [-86.145415923, 34.684816864], [-86.144771585, 34.686993455], [-86.144730415, 34.687739987], [-86.14425083, 34.68830618], [-86.144197069, 34.689312887], [-86.142844135, 34.690462525], [-86.144445521, 34.692555153], [-86.145065107, 34.693568232], [-86.147558075, 34.694166653], [-86.148157944, 34.694503881], [-86.150162919, 34.694985147], [-86.149957778, 34.696000116], [-86.150153052, 34.69747238], [-86.149375334, 34.699901036], [-86.150021808, 34.70084682], [-86.150749515, 34.702819121], [-86.15203439, 34.70238415], [-86.153338095, 34.703301166], [-86.155672785, 34.703801736], [-86.156244437, 34.705170923], [-86.156665773, 34.705992307], [-86.156960011, 34.707199016], [-86.158951044, 34.709494888], [-86.160128803, 34.710059889], [-86.160811251, 34.710827446], [-86.169033924, 34.711120902], [-86.169392175, 34.711523994], [-86.169393602, 34.713481206], [-86.170385673, 34.715094293], [-86.172072902, 34.71699138], [-86.174007659, 34.717662161], [-86.172278275, 34.721331524], [-86.171831841, 34.722389344], [-86.171325747, 34.72324411], [-86.170315544, 34.726013439], [-86.168986919, 34.726463896], [-86.168075638, 34.726713587], [-86.165773334, 34.728063598], [-86.165032392, 34.728826907], [-86.164463168, 34.729160196], [-86.16330018, 34.730018507], [-86.160419429, 34.730089344], [-86.160318472, 34.731932565], [-86.159108018, 34.732228573], [-86.158287408, 34.730735224], [-86.155918028, 34.730174982], [-86.15506534, 34.729439396], [-86.154299547, 34.72709322], [-86.154138216, 34.726955303], [-86.154080151, 34.726010826], [-86.154140501, 34.725742055], [-86.154148993, 34.725473118], [-86.154274393, 34.72491912], [-86.153627325, 34.724360982], [-86.15310118, 34.723486518], [-86.151534016, 34.722355586], [-86.150884136, 34.720280375], [-86.150536488, 34.717931537], [-86.148884697, 34.715194411], [-86.146968584, 34.714339373], [-86.145121036, 34.713900906], [-86.14331756, 34.712349571], [-86.142115344, 34.710943848], [-86.140669549, 34.709698686], [-86.139869071, 34.708760896], [-86.13765019, 34.706870934], [-86.134491988, 34.706098059], [-86.133381481, 34.704626241], [-86.132887655, 34.702673599], [-86.130451383, 34.700802977], [-86.129083087, 34.700128807], [-86.129633408, 34.697032084], [-86.126978843, 34.694055757], [-86.125946456, 34.69262415], [-86.123900968, 34.692176939], [-86.119239693, 34.689908857], [-86.115578958, 34.690854092], [-86.113145146, 34.690725589], [-86.112959253, 34.690840442], [-86.112826986, 34.690336219], [-86.111023294, 34.68657624], [-86.111107507, 34.685759604], [-86.111631496, 34.684567342], [-86.113389319, 34.682388415], [-86.114169193, 34.681363227], [-86.115159246, 34.680134645], [-86.115324797, 34.679067867], [-86.114277599, 34.676886901], [-86.116647903, 34.674599772], [-86.117156493, 34.67366743], [-86.119982086, 34.67378909], [-86.122788127, 34.673335957], [-86.12369301, 34.672991294], [-86.126164484, 34.672680378], [-86.127312592, 34.670944707], [-86.127953926, 34.668228532], [-86.128455774, 34.667226053], [-86.128983852, 34.665513674], [-86.131676086, 34.664873734], [-86.131914673, 34.664670617], [-86.131345564, 34.664196821], [-86.130902876, 34.663383992], [-86.130720702, 34.66209601], [-86.128165493, 34.65997067], [-86.128170816, 34.657605091], [-86.129043527, 34.655205563], [-86.129051127, 34.652195456], [-86.130244536, 34.650406702], [-86.13143009, 34.6503365], [-86.13228594, 34.650291026], [-86.132939692, 34.650043019], [-86.135190129, 34.649974498], [-86.135701643, 34.649198241], [-86.138308833, 34.647295283], [-86.139030885, 34.646513665], [-86.140631682, 34.645709519], [-86.141766514, 34.644739499], [-86.142225265, 34.644597138], [-86.142491095, 34.644261468], [-86.142819224, 34.64428924], [-86.142853382, 34.64402245], [-86.143906075, 34.643572181], [-86.144758743, 34.643996187], [-86.145252734, 34.643416459], [-86.145685397, 34.643619512], [-86.147485437, 34.64399092]]]}, "properties": {"arm": "16", "name": "Blue Spring Creek", "comid": 19647234, "kind": "aboveHead"}}