{"type": "Feature", "geometry": {"type": "Polygon", "coordinates": [[[-85.927791687, 34.624538749], [-85.929179179, 34.624985439], [-85.929311193, 34.626710196], [-85.930539053, 34.627248427], [-85.930675575, 34.629057861], [-85.931303602, 34.629546305], [-85.931427477, 34.629708751], [-85.933123544, 34.630789002], [-85.935181966, 34.632606525], [-85.936550139, 34.633658366], [-85.937388845, 34.63356648], [-85.937711792, 34.633653398], [-85.938498812, 34.633580218], [-85.942559036, 34.631859471], [-85.943423952, 34.6318246], [-85.943967518, 34.631254089], [-85.946075088, 34.630871332], [-85.946222148, 34.630717549], [-85.947119505, 34.630969948], [-85.948552981, 34.63064906], [-85.949378252, 34.630838319], [-85.950932891, 34.631356055], [-85.95260817, 34.632617539], [-85.953885412, 34.632997495], [-85.954150277, 34.633311163], [-85.954900128, 34.633959595], [-85.954882124, 34.63455442], [-85.95415642, 34.636799348], [-85.950707712, 34.638739749], [-85.949472293, 34.640023966], [-85.948979308, 34.641199457], [-85.946727368, 34.642090336], [-85.946573415, 34.642237202], [-85.944513794, 34.643123573], [-85.944033174, 34.643906041], [-85.943568566, 34.644367467], [-85.943710002, 34.645368027], [-85.942869069, 34.647261555], [-85.942540848, 34.648742064], [-85.943425109, 34.649056559], [-85.947683744, 34.653006688], [-85.949719864, 34.655974602], [-85.949872175, 34.656118399], [-85.949702162, 34.656249132], [-85.947263599, 34.657374709], [-85.945088294, 34.658548254], [-85.944355264, 34.658742061], [-85.941306956, 34.659949748], [-85.940726447, 34.660761506], [-85.93796804, 34.662249137], [-85.937253992, 34.662436114], [-85.934182398, 34.663502537], [-85.932643784, 34.663531825], [-85.931870756, 34.664942246], [-85.930480851, 34.664845279], [-85.928728612, 34.664664283], [-85.925001653, 34.666219614], [-85.920390665, 34.668406411], [-85.919783604, 34.669002943], [-85.919231512, 34.669654804], [-85.918821616, 34.67123988], [-85.917019601, 34.671952142], [-85.917875646, 34.673195811], [-85.91500374, 34.674810111], [-85.914936561, 34.676905316], [-85.912130353, 34.680133144], [-85.911090114, 34.682291597], [-85.910322181, 34.684884552], [-85.908982245, 34.685906467], [-85.908789188, 34.686014079], [-85.908589118, 34.686451935], [-85.906646932, 34.688327817], [-85.905132171, 34.68864545], [-85.904514679, 34.689259975], [-85.903675233, 34.690696092], [-85.902309493, 34.691300559], [-85.900035598, 34.693507954], [-85.899826473, 34.693599409], [-85.899064908, 34.694342612], [-85.898603124, 34.694481705], [-85.897060362, 34.69443857], [-85.896892465, 34.694571527], [-85.895583361, 34.69476358], [-85.893207644, 34.695710266], [-85.892469506, 34.697774663], [-85.891643866, 34.701669065], [-85.891077779, 34.703213108], [-85.890306778, 34.706039597], [-85.888636658, 34.707555286], [-85.886730191, 34.708500433], [-85.886562246, 34.708633373], [-85.886333481, 34.709011807], [-85.886306955, 34.709825043], [-85.886110241, 34.710669872], [-85.883279813, 34.710236667], [-85.882429757, 34.711117501], [-85.880487844, 34.712902416], [-85.880471247, 34.713442561], [-85.878104128, 34.714771162], [-85.877025898, 34.716852297], [-85.876240701, 34.717574353], [-85.876225415, 34.717986064], [-85.875746154, 34.720049666], [-85.874594036, 34.721350971], [-85.873521226, 34.720591859], [-85.871740574, 34.719120062], [-85.870509531, 34.718951976], [-85.869723707, 34.719166068], [-85.867869537, 34.719788846], [-85.866829158, 34.719748984], [-85.862984199, 34.718723449], [-85.861848234, 34.719290581], [-85.860241032, 34.72079453], [-85.856753774, 34.720735581], [-85.854924013, 34.721427725], [-85.85369673, 34.721152312], [-85.850689285, 34.720681859], [-85.848901522, 34.719542027], [-85.848455479, 34.718419977], [-85.847223965, 34.717351736], [-85.847825662, 34.714995377], [-85.846912083, 34.713248832], [-85.847038567, 34.712703492], [-85.84697842, 34.711665616], [-85.846825098, 34.711471021], [-85.845315862, 34.710561892], [-85.843197587, 34.709707143], [-85.840883442, 34.70831263], [-85.83948668, 34.708045451], [-85.838851316, 34.708141792], [-85.833505873, 34.710583897], [-85.831841244, 34.710615702], [-85.831502125, 34.710904341], [-85.830095989, 34.711217893], [-85.828728167, 34.710927823], [-85.826592604, 34.712107067], [-85.824757372, 34.712800381], [-85.823644559, 34.71232809], [-85.822680744, 34.711984711], [-85.820410171, 34.711105695], [-85.819180023, 34.711284859], [-85.817685652, 34.712616907], [-85.816094319, 34.71287829], [-85.813637821, 34.713344337], [-85.811759465, 34.712168551], [-85.808848801, 34.712008906], [-85.796526821, 34.710448135], [-85.79395072, 34.711501846], [-85.790975906, 34.713603861], [-85.790249084, 34.713723548], [-85.789760137, 34.713556369], [-85.788339966, 34.711882888], [-85.784593244, 34.708719847], [-85.784028049, 34.708052782], [-85.782672048, 34.707518708], [-85.781077172, 34.707454739], [-85.779826525, 34.70675283], [-85.779375368, 34.706692186], [-85.774167878, 34.706519871], [-85.771208604, 34.707838758], [-85.768786009, 34.7077947], [-85.768659509, 34.707633953], [-85.767017285, 34.706307383], [-85.766304068, 34.704375285], [-85.764758221, 34.703124577], [-85.764144984, 34.703209816], [-85.762543777, 34.70451921], [-85.760958419, 34.705338897], [-85.760268538, 34.70590214], [-85.759538, 34.707686346], [-85.758891048, 34.708394566], [-85.758452751, 34.709464666], [-85.755616995, 34.710534802], [-85.754201484, 34.711266066], [-85.752892353, 34.713184841], [-85.751443215, 34.713934195], [-85.749831554, 34.714072775], [-85.749051392, 34.714358241], [-85.748301586, 34.715856164], [-85.745457149, 34.717922235], [-85.745086152, 34.718660992], [-85.744892784, 34.718768329], [-85.744350018, 34.719180039], [-85.743495744, 34.719475812], [-85.739825977, 34.719401519], [-85.737007142, 34.720087035], [-85.734723486, 34.720301136], [-85.731855325, 34.720733483], [-85.730000104, 34.722188723], [-85.728817205, 34.722204627], [-85.728151289, 34.722449448], [-85.727329103, 34.722290572], [-85.724999767, 34.722321312], [-85.722085107, 34.721760821], [-85.720089337, 34.722790418], [-85.716504469, 34.722758725], [-85.715399701, 34.723179744], [-85.714668077, 34.723954054], [-85.713055602, 34.724678022], [-85.712312897, 34.725282725], [-85.7109015, 34.725900059], [-85.710289584, 34.72603152], [-85.707780433, 34.725504369], [-85.704221132, 34.723691425], [-85.703846459, 34.723388537], [-85.70381743, 34.721900017], [-85.704837669, 34.718409086], [-85.704177569, 34.716613987], [-85.702450915, 34.713618068], [-85.701512348, 34.713050345], [-85.701017911, 34.712886507], [-85.700393746, 34.711870201], [-85.70033565, 34.710657312], [-85.701389903, 34.709024219], [-85.701988107, 34.707812419], [-85.704202309, 34.707514855], [-85.704793379, 34.70701484], [-85.704775232, 34.705948811], [-85.703509233, 34.704203422], [-85.702695156, 34.704005017], [-85.701768945, 34.703636503], [-85.699519472, 34.702997144], [-85.697543735, 34.702038369], [-85.693924028, 34.698788401], [-85.693100056, 34.697851308], [-85.692183253, 34.69733599], [-85.690647914, 34.697273921], [-85.689719277, 34.696905082], [-85.687624666, 34.696447794], [-85.682244341, 34.693834083], [-85.681861694, 34.6922193], [-85.679112722, 34.691284419], [-85.675136748, 34.69073608], [-85.673570184, 34.690888118], [-85.672377075, 34.691195501], [-85.672344799, 34.689523191], [-85.673171329, 34.688622617], [-85.673603977, 34.687139071], [-85.672895223, 34.686235191], [-85.672729153, 34.686100318], [-85.673085586, 34.685126449], [-85.67695086, 34.682979624], [-85.679073295, 34.682221253], [-85.681198023, 34.681039363], [-85.683030016, 34.680763198], [-85.684182188, 34.680121157], [-85.684864244, 34.679599784], [-85.685250949, 34.679385298], [-85.685617964, 34.677847424], [-85.686992358, 34.676301784], [-85.685042222, 34.67544825], [-85.683875209, 34.673957897], [-85.682186081, 34.672589907], [-85.682715543, 34.670769204], [-85.681276494, 34.668736161], [-85.681259955, 34.667834614], [-85.681682176, 34.666388047], [-85.681904409, 34.666007232], [-85.682463739, 34.664524327], [-85.684468543, 34.663962046], [-85.686506415, 34.6612568], [-85.69117303, 34.658516564], [-85.691754373, 34.658106394], [-85.693338034, 34.657588905], [-85.695539525, 34.656698164], [-85.697721503, 34.656591909], [-85.699645525, 34.656165581], [-85.701403043, 34.655452579], [-85.701576297, 34.655010488], [-85.702505262, 34.65384266], [-85.702964871, 34.653702025], [-85.703206655, 34.653038339], [-85.705384933, 34.65078789], [-85.706072527, 34.649659826], [-85.705104206, 34.646490344], [-85.706052451, 34.64168804], [-85.706659266, 34.640213451], [-85.706620256, 34.637442296], [-85.706523979, 34.637018521], [-85.706959456, 34.6361464], [-85.707483942, 34.636140075], [-85.708978733, 34.637349375], [-85.71157331, 34.637894894], [-85.713758053, 34.638617038], [-85.71621974, 34.638954669], [-85.716777438, 34.638913293], [-85.717239216, 34.638774909], [-85.718879448, 34.63870266], [-85.719714152, 34.638877551], [-85.72021387, 34.638862657], [-85.72071054, 34.638967641], [-85.721373755, 34.638718446], [-85.721901757, 34.638647021], [-85.723541517, 34.638791778], [-85.725266809, 34.638800724], [-85.728075914, 34.637292753], [-85.730201752, 34.636455879], [-85.732365894, 34.636128238], [-85.734266947, 34.636645798], [-85.736383766, 34.637081171], [-85.738245785, 34.636705706], [-85.739223587, 34.636857236], [-85.741334373, 34.635898697], [-85.742218968, 34.635582479], [-85.743362985, 34.635400826], [-85.746868004, 34.634229879], [-85.747905623, 34.634068323], [-85.748578744, 34.633840935], [-85.753183604, 34.633266214], [-85.755989222, 34.63316113], [-85.757025735, 34.632695873], [-85.758063312, 34.632534226], [-85.758806882, 34.632283472], [-85.760028615, 34.632452073], [-85.760739494, 34.632213186], [-85.762053755, 34.632075841], [-85.76461755, 34.634198309], [-85.765293252, 34.634223992], [-85.766263043, 34.634357727], [-85.768152624, 34.636503031], [-85.769651976, 34.636377648], [-85.772328249, 34.636973225], [-85.776192171, 34.636433676], [-85.778193794, 34.635629331], [-85.778719437, 34.63555534], [-85.780373983, 34.63420198], [-85.781327396, 34.632291732], [-85.784145621, 34.631055221], [-85.784512342, 34.630518308], [-85.785306377, 34.629808115], [-85.786042354, 34.629027484], [-85.788077295, 34.62736384], [-85.79114344, 34.626933011], [-85.792365381, 34.625731259], [-85.79218811, 34.624448955], [-85.792586884, 34.623552298], [-85.794170228, 34.622732108], [-85.795492977, 34.62164877], [-85.796779278, 34.621622421], [-85.799083629, 34.621168887], [-85.803001635, 34.618940754], [-85.806464203, 34.617195335], [-85.808894387, 34.616533438], [-85.812799891, 34.617372762], [-85.817608428, 34.618046456], [-85.819293393, 34.617258029], [-85.819196524, 34.616834338], [-85.818677517, 34.61584047], [-85.818698686, 34.615210008], [-85.819154197, 34.614684988], [-85.818583601, 34.613140704], [-85.820309741, 34.610726606], [-85.821067271, 34.609857037], [-85.821540109, 34.608945703], [-85.822394932, 34.607692601], [-85.8226003, 34.60729534], [-85.822797852, 34.607192476], [-85.824369666, 34.605905106], [-85.827627442, 34.604661826], [-85.829750232, 34.602693284], [-85.831152245, 34.601964291], [-85.835868611, 34.602249875], [-85.837899093, 34.603354594], [-85.839134548, 34.604280258], [-85.840539955, 34.604546283], [-85.841815897, 34.604497484], [-85.842359352, 34.604580751], [-85.842837322, 34.604590855], [-85.844107472, 34.604153712], [-85.84507766, 34.604301608], [-85.846554266, 34.603791826], [-85.848312282, 34.60197242], [-85.849976458, 34.601198643], [-85.85480178, 34.602013555], [-85.854888586, 34.602200273], [-85.855715058, 34.602632731], [-85.855829397, 34.603279209], [-85.856375509, 34.604148795], [-85.856452715, 34.604585485], [-85.85661893, 34.604720108], [-85.857750082, 34.606380458], [-85.85838225, 34.608092151], [-85.861438523, 34.608729384], [-85.863029581, 34.609692057], [-85.863635904, 34.611325578], [-85.865347762, 34.612709714], [-85.865690034, 34.613633142], [-85.866917371, 34.615805449], [-85.867215025, 34.616044229], [-85.86761809, 34.616998227], [-85.867750019, 34.618240544], [-85.869480736, 34.619423903], [-85.870000199, 34.62020255], [-85.869569724, 34.620835296], [-85.869555931, 34.622062812], [-85.869818303, 34.622865448], [-85.870040921, 34.623911208], [-85.869501705, 34.624996047], [-85.868622204, 34.628036596], [-85.868719358, 34.62846024], [-85.86948957, 34.62957894], [-85.869798179, 34.630916693], [-85.873360299, 34.633192935], [-85.874675652, 34.633813148], [-85.874807925, 34.633970071], [-85.877431839, 34.63419824], [-85.878523977, 34.633953879], [-85.880507537, 34.634617358], [-85.882893261, 34.635060738], [-85.886088993, 34.634744077], [-85.888334479, 34.633670405], [-85.891210605, 34.633635654], [-85.891721043, 34.632590397], [-85.892376428, 34.631566152], [-85.89393567, 34.631197823], [-85.8949172, 34.630827803], [-85.896179687, 34.630528525], [-85.897127822, 34.630728827], [-85.898273035, 34.630691216], [-85.899521573, 34.630182051], [-85.899408665, 34.628553705], [-85.900364244, 34.627709315], [-85.900562397, 34.627305008], [-85.900422577, 34.626336077], [-85.900912246, 34.62463777], [-85.901610106, 34.622715157], [-85.902345976, 34.622458652], [-85.904030741, 34.62229709], [-85.907519813, 34.620686047], [-85.908896426, 34.619395485], [-85.910557967, 34.619370915], [-85.911043324, 34.619463563], [-85.911541786, 34.619456186], [-85.912836079, 34.619703231], [-85.915930708, 34.619657347], [-85.916893697, 34.620238129], [-85.917554353, 34.620535605], [-85.918582105, 34.621294792], [-85.92004066, 34.621950072], [-85.922668476, 34.624065861], [-85.924384366, 34.623824511], [-85.925922031, 34.62371734], [-85.926969371, 34.624347474], [-85.927791687, 34.624538749]]]}, "properties": {"arm": "165", "name": "Jones Creek", "comid": 19646612, "kind": "atMouth"}}