{"type": "Feature", "geometry": {"type": "Polygon", "coordinates": [[[-85.847631792, 34.749242273], [-85.849384396, 34.751301978], [-85.84975387, 34.751020147], [-85.850559593, 34.75083529], [-85.850034579, 34.752334262], [-85.848727052, 34.754176045], [-85.848777852, 34.754852702], [-85.848260436, 34.755861322], [-85.848028744, 34.75653446], [-85.847628358, 34.756735626], [-85.846202267, 34.757941189], [-85.84484098, 34.757654075], [-85.844018378, 34.757965976], [-85.843628632, 34.759657932], [-85.84291377, 34.760647229], [-85.841945499, 34.763730199], [-85.844326785, 34.765650811], [-85.844418642, 34.767372047], [-85.842582383, 34.769380567], [-85.841889258, 34.771697241], [-85.843518542, 34.773769395], [-85.841439215, 34.774060366], [-85.841476447, 34.775880093], [-85.840556769, 34.776885255], [-85.840079909, 34.777840472], [-85.839524173, 34.778449544], [-85.836899147, 34.776720487], [-85.836305869, 34.776729909], [-85.835667181, 34.778535005], [-85.834508205, 34.779483452], [-85.834271738, 34.780151933], [-85.833733705, 34.780214627], [-85.832886782, 34.780570707], [-85.832754343, 34.780413761], [-85.831188826, 34.779489179], [-85.829680203, 34.778527385], [-85.829029904, 34.778222026], [-85.828436468, 34.777879474], [-85.825502726, 34.776875533], [-85.824127898, 34.7752573], [-85.820917284, 34.775187914], [-85.819225678, 34.774648323], [-85.817918325, 34.774285546], [-85.815228125, 34.773365799], [-85.815195855, 34.771826716], [-85.812897225, 34.769775718], [-85.811118308, 34.76897548], [-85.811097698, 34.768014822], [-85.811437385, 34.766843289], [-85.810040708, 34.766215503], [-85.809318731, 34.765296824], [-85.809856679, 34.765234241], [-85.810796053, 34.764846363], [-85.811418625, 34.763499338], [-85.812265103, 34.763126516], [-85.8127203, 34.763315901], [-85.816826085, 34.763914698], [-85.818015772, 34.763479077], [-85.81975173, 34.763329261], [-85.821579945, 34.763678488], [-85.821543713, 34.761913568], [-85.822204829, 34.759783815], [-85.825525585, 34.758349743], [-85.826066075, 34.757267348], [-85.828485658, 34.756344644], [-85.829036168, 34.755539175], [-85.829467304, 34.755066794], [-85.829834299, 34.754529812], [-85.832084241, 34.752867315], [-85.83301287, 34.751989431], [-85.833341345, 34.752018069], [-85.833376619, 34.751751402], [-85.833705093, 34.751780039], [-85.833740367, 34.751513372], [-85.834068839, 34.751542007], [-85.834104112, 34.75127534], [-85.835263803, 34.751201522], [-85.837045647, 34.750309471], [-85.840361352, 34.749163291], [-85.842299832, 34.748636741], [-85.845006398, 34.748052721], [-85.845871235, 34.747714995], [-85.847631792, 34.749242273]]]}, "properties": {"arm": "166", "name": "Deal Creek", "comid": 19646544, "kind": "atMouth"}}