{"type": "Feature", "geometry": {"type": "Polygon", "coordinates": [[[-85.800481083, 34.84040284], [-85.800651698, 34.840605289], [-85.80149943, 34.840249464], [-85.805207104, 34.840354117], [-85.806019403, 34.840264893], [-85.806749464, 34.840775365], [-85.806941462, 34.841854168], [-85.807086924, 34.842246168], [-85.808279541, 34.841935153], [-85.809463146, 34.841789812], [-85.809779432, 34.843166035], [-85.810288616, 34.844538016], [-85.810522646, 34.845555149], [-85.810330919, 34.846372872], [-85.810564059, 34.848121124], [-85.813149436, 34.85035907], [-85.813321836, 34.851566778], [-85.813901915, 34.852405467], [-85.814131577, 34.85298601], [-85.815431243, 34.854572284], [-85.815646856, 34.856061895], [-85.815017452, 34.856573834], [-85.813231317, 34.857496919], [-85.810191578, 34.857876528], [-85.808388554, 34.858808608], [-85.807718646, 34.860701397], [-85.806796779, 34.860713657], [-85.806208622, 34.860601213], [-85.805725317, 34.861127967], [-85.805163374, 34.862716197], [-85.802057305, 34.86257567], [-85.801930481, 34.862414985], [-85.799934847, 34.861254543], [-85.79988031, 34.858535704], [-85.802773214, 34.858381649], [-85.80366636, 34.85792019], [-85.804549862, 34.854870242], [-85.803717622, 34.853699726], [-85.803570271, 34.852578469], [-85.803260009, 34.852018254], [-85.803817684, 34.850442289], [-85.804949882, 34.849432751], [-85.804765524, 34.84737687], [-85.802712826, 34.846824646], [-85.802573986, 34.84616771], [-85.799708134, 34.845847851], [-85.799262303, 34.845408528], [-85.798040785, 34.845232268], [-85.797071489, 34.845465766], [-85.795996742, 34.845593108], [-85.795928668, 34.844990809], [-85.79544537, 34.84473574], [-85.795516266, 34.844202481], [-85.79597941, 34.844061734], [-85.796644605, 34.843222179], [-85.796598805, 34.842765119], [-85.79597434, 34.842457676], [-85.796515985, 34.840005812], [-85.79715497, 34.840379848], [-85.797398748, 34.840051348], [-85.799333027, 34.840378403], [-85.800481083, 34.84040284]]]}, "properties": {"arm": "178", "name": "Pump Spring Branch", "comid": 19646400, "kind": "atMouth"}}