{"type": "Feature", "geometry": {"type": "Polygon", "coordinates": [[[-85.799708134, 34.845847851], [-85.799262303, 34.845408528], [-85.798040785, 34.845232268], [-85.797949438, 34.844804946], [-85.797647033, 34.844264356], [-85.797727534, 34.843991127], [-85.797718449, 34.843511989], [-85.800986287, 34.841823001], [-85.801754512, 34.84231998], [-85.802904852, 34.842268731], [-85.806923136, 34.842383589], [-85.807086924, 34.842246168], [-85.808279541, 34.841935153], [-85.809463146, 34.841789812], [-85.809779432, 34.843166035], [-85.810288616, 34.844538016], [-85.810522646, 34.845555149], [-85.810330919, 34.846372872], [-85.810564059, 34.848121124], [-85.813149436, 34.85035907], [-85.813321836, 34.851566778], [-85.813901915, 34.852405467], [-85.814131577, 34.85298601], [-85.815431243, 34.854572284], [-85.815646856, 34.856061895], [-85.815017452, 34.856573834], [-85.813231317, 34.857496919], [-85.810191578, 34.857876528], [-85.808388554, 34.858808608], [-85.807718646, 34.860701397], [-85.806796779, 34.860713657], [-85.806208622, 34.860601213], [-85.805725317, 34.861127967], [-85.805163374, 34.862716197], [-85.802057305, 34.86257567], [-85.801930481, 34.862414985], [-85.799934847, 34.861254543], [-85.79988031, 34.858535704], [-85.802773214, 34.858381649], [-85.80366636, 34.85792019], [-85.804549862, 34.854870242], [-85.803717622, 34.853699726], [-85.803570271, 34.852578469], [-85.803260009, 34.852018254], [-85.803817684, 34.850442289], [-85.804949882, 34.849432751], [-85.804765524, 34.84737687], [-85.802712826, 34.846824646], [-85.802573986, 34.84616771], [-85.799708134, 34.845847851]]]}, "properties": {"arm": "178", "name": "Pump Spring Branch", "comid": 19646396, "kind": "aboveHead"}}