{"type": "Feature", "geometry": {"type": "Polygon", "coordinates": [[[-86.083107337, 34.484668202], [-86.08278214, 34.485186264], [-86.084647373, 34.487556094], [-86.085315377, 34.488093576], [-86.085476088, 34.488231624], [-86.085945662, 34.488783781], [-86.084610751, 34.49100065], [-86.084600391, 34.492228368], [-86.08564808, 34.493695977], [-86.08727861, 34.494855035], [-86.087515545, 34.495949999], [-86.087321459, 34.496635196], [-86.087419328, 34.498913168], [-86.08696329, 34.503609487], [-86.086796208, 34.504044101], [-86.086532909, 34.504381999], [-86.086498619, 34.504648815], [-86.086171101, 34.50462088], [-86.085821904, 34.505385563], [-86.084659019, 34.506704609], [-86.082761311, 34.506917817], [-86.081242804, 34.506897828], [-86.079459596, 34.506964809], [-86.078137177, 34.506506327], [-86.077012903, 34.505875081], [-86.075929583, 34.505729906], [-86.073952139, 34.50565799], [-86.072162065, 34.505416595], [-86.071173348, 34.505380609], [-86.069505302, 34.505155918], [-86.068680618, 34.505433173], [-86.064181374, 34.504755718], [-86.063536385, 34.504180052], [-86.063401125, 34.504025185], [-86.065258539, 34.503783561], [-86.066646357, 34.503170914], [-86.068039574, 34.502938043], [-86.069593773, 34.500851765], [-86.071345652, 34.499781259], [-86.072449377, 34.494139217], [-86.073053003, 34.492603908], [-86.074111691, 34.491592168], [-86.076432601, 34.488930641], [-86.077577783, 34.48583782], [-86.079197191, 34.48484863], [-86.080781019, 34.484739386], [-86.081623564, 34.484381397], [-86.082486769, 34.48434549], [-86.082521063, 34.48407867], [-86.083175922, 34.484134561], [-86.083107337, 34.484668202]]]}, "properties": {"arm": "179", "name": "Cooks Branch", "comid": 19650482, "kind": "atMouth"}}