{"type": "Feature", "geometry": {"type": "Polygon", "coordinates": [[[-86.510715849, 34.14153196], [-86.508694809, 34.143431289], [-86.508658262, 34.144886531], [-86.510405621, 34.14547663], [-86.509715057, 34.146640092], [-86.509449059, 34.147572865], [-86.508500914, 34.148422277], [-86.507691873, 34.149312598], [-86.507230575, 34.149548692], [-86.505220774, 34.149503873], [-86.503779286, 34.150114674], [-86.503446499, 34.150856514], [-86.503724032, 34.15159577], [-86.503032936, 34.153140569], [-86.502483997, 34.15396581], [-86.502598678, 34.154731735], [-86.501815718, 34.156479711], [-86.500779404, 34.157479873], [-86.499953803, 34.157852505], [-86.499692235, 34.158789834], [-86.499155181, 34.159664503], [-86.499173776, 34.16037407], [-86.497875724, 34.161786813], [-86.496787797, 34.16217792], [-86.496858683, 34.163363809], [-86.496015648, 34.164402986], [-86.495630562, 34.164940316], [-86.497327965, 34.165773014], [-86.498971413, 34.167172316], [-86.498065804, 34.169163056], [-86.498220467, 34.169308512], [-86.498059322, 34.169447002], [-86.497089771, 34.169942663], [-86.496492442, 34.171476147], [-86.494283549, 34.171937432], [-86.492904926, 34.171653492], [-86.491598683, 34.171954977], [-86.490420664, 34.173792633], [-86.489402709, 34.17300305], [-86.488659651, 34.172029538], [-86.48705728, 34.171680777], [-86.486310978, 34.1720767], [-86.484738785, 34.173390912], [-86.481674694, 34.171065372], [-86.480340967, 34.169996848], [-86.479484739, 34.170470085], [-86.48016963, 34.17172758], [-86.480860191, 34.174595487], [-86.48086265, 34.176839926], [-86.47879251, 34.177594719], [-86.478020982, 34.178216103], [-86.476257069, 34.177630541], [-86.476127167, 34.177472342], [-86.47529027, 34.177850208], [-86.47501709, 34.178459906], [-86.475079613, 34.179480756], [-86.474980607, 34.179993102], [-86.47426397, 34.180418791], [-86.475324688, 34.181970639], [-86.475534645, 34.184012992], [-86.475054145, 34.184297967], [-86.474149445, 34.184179258], [-86.473821089, 34.18416909], [-86.473225606, 34.184090575], [-86.471526524, 34.184317371], [-86.471062972, 34.186496047], [-86.471457184, 34.187457801], [-86.47161932, 34.188526882], [-86.470218431, 34.189783373], [-86.46864291, 34.188627413], [-86.467044424, 34.188202862], [-86.465370588, 34.187658289], [-86.464044694, 34.188764953], [-86.462727774, 34.189463534], [-86.462790215, 34.191613877], [-86.462200475, 34.193727335], [-86.459719526, 34.193817903], [-86.458132412, 34.195141099], [-86.457470814, 34.19591261], [-86.45561551, 34.196819608], [-86.453920266, 34.19722139], [-86.452872656, 34.198157021], [-86.452947862, 34.199490801], [-86.452297649, 34.200524525], [-86.452351039, 34.201470875], [-86.451106144, 34.202501905], [-86.45055266, 34.203147433], [-86.450948975, 34.204132604], [-86.448565109, 34.204456446], [-86.447025564, 34.20501428], [-86.446529995, 34.20485538], [-86.445325113, 34.204349244], [-86.444762405, 34.20521525], [-86.444079365, 34.205803697], [-86.442746323, 34.206127758], [-86.442302626, 34.207260665], [-86.440429034, 34.207706549], [-86.43992124, 34.208878409], [-86.440250592, 34.210802144], [-86.439608448, 34.211684748], [-86.436534803, 34.211270756], [-86.435542017, 34.211237215], [-86.434893071, 34.211151996], [-86.434282558, 34.211131059], [-86.433189345, 34.211681346], [-86.433986727, 34.213234966], [-86.434443959, 34.214330591], [-86.434544282, 34.215312436], [-86.434748118, 34.215476784], [-86.434566502, 34.216133998], [-86.432910965, 34.216376529], [-86.431370241, 34.217191165], [-86.430753651, 34.218115876], [-86.429441591, 34.219581567], [-86.42820561, 34.219763886], [-86.42712335, 34.220787057], [-86.426498862, 34.220670104], [-86.425176305, 34.221302512], [-86.424806988, 34.222060094], [-86.424474843, 34.223246416], [-86.424495809, 34.22397305], [-86.423987714, 34.224540035], [-86.423658989, 34.226011117], [-86.422543167, 34.226846036], [-86.421008386, 34.227005682], [-86.420097057, 34.227686806], [-86.419365025, 34.229105549], [-86.418001041, 34.229487909], [-86.418325283, 34.230553618], [-86.418263879, 34.23086252], [-86.416390233, 34.231386027], [-86.416918097, 34.233117624], [-86.419059526, 34.23503328], [-86.418297253, 34.235945876], [-86.418229282, 34.237286785], [-86.416472045, 34.237472236], [-86.415965771, 34.240209804], [-86.414909016, 34.240231935], [-86.414330073, 34.240974242], [-86.413188369, 34.241328595], [-86.413075378, 34.243719395], [-86.411248848, 34.245087529], [-86.411059877, 34.245198321], [-86.410733339, 34.245171289], [-86.41056271, 34.245300456], [-86.40624482, 34.246369524], [-86.404921352, 34.247357783], [-86.405531615, 34.249005624], [-86.406670808, 34.250025051], [-86.406641081, 34.251575624], [-86.406109474, 34.251643283], [-86.405491842, 34.25221798], [-86.404915552, 34.25374857], [-86.403194989, 34.253884207], [-86.402292121, 34.254721845], [-86.402388908, 34.255147096], [-86.402926498, 34.256133565], [-86.401811439, 34.257351889], [-86.400915205, 34.25784448], [-86.400652106, 34.258781472], [-86.400227207, 34.259256216], [-86.399714102, 34.260754085], [-86.397955149, 34.261010802], [-86.39627218, 34.26069641], [-86.396077546, 34.261101723], [-86.394612521, 34.262417409], [-86.393305618, 34.262146796], [-86.392589737, 34.26276386], [-86.392120504, 34.263740639], [-86.390943011, 34.264026508], [-86.389796925, 34.265014574], [-86.390002685, 34.265122252], [-86.390351512, 34.26586343], [-86.389926102, 34.266424495], [-86.390936203, 34.267591386], [-86.392045373, 34.268168027], [-86.391789528, 34.26881691], [-86.391735088, 34.269878652], [-86.387264785, 34.269794467], [-86.386128008, 34.270644196], [-86.386667274, 34.271637191], [-86.387985072, 34.272734801], [-86.387987022, 34.275189876], [-86.385184049, 34.275296606], [-86.3838647, 34.275581182], [-86.383447043, 34.277407203], [-86.381396107, 34.278370678], [-86.381146819, 34.278862042], [-86.379831605, 34.278946734], [-86.378661021, 34.28027404], [-86.377915901, 34.281476513], [-86.378295954, 34.283210702], [-86.377384695, 34.283322587], [-86.376070162, 34.284583129], [-86.376222316, 34.285619873], [-86.374097256, 34.286347393], [-86.373811251, 34.287423608], [-86.37284729, 34.2875648], [-86.372207686, 34.288518922], [-86.37168702, 34.2890973], [-86.370409178, 34.289418905], [-86.36907937, 34.29005437], [-86.368452199, 34.291881897], [-86.366173532, 34.292453232], [-86.365595825, 34.29390345], [-86.364419619, 34.294526348], [-86.363435995, 34.295342253], [-86.362086353, 34.295866423], [-86.361122268, 34.297311888], [-86.359068481, 34.298394888], [-86.358525905, 34.300161973], [-86.357162546, 34.299905277], [-86.355341038, 34.301420557], [-86.355361878, 34.302267288], [-86.354649451, 34.304237268], [-86.353677611, 34.304480917], [-86.352784714, 34.304815416], [-86.352400182, 34.305603125], [-86.351317202, 34.305641534], [-86.350452016, 34.30635341], [-86.349851546, 34.307424471], [-86.349192852, 34.307493965], [-86.349118338, 34.306809235], [-86.345751906, 34.303110995], [-86.345494048, 34.300712545], [-86.343804213, 34.29914518], [-86.343573974, 34.297724672], [-86.34229857, 34.297879716], [-86.341380026, 34.29912233], [-86.337784068, 34.298940651], [-86.336365212, 34.298240764], [-86.334827254, 34.296987248], [-86.33411301, 34.296634777], [-86.333468068, 34.295934056], [-86.333141343, 34.295906808], [-86.332279118, 34.295624166], [-86.330851287, 34.294480919], [-86.328994034, 34.294751645], [-86.32745184, 34.295307834], [-86.326933616, 34.295388918], [-86.326605348, 34.295662867], [-86.323858016, 34.297110971], [-86.322549809, 34.297300994], [-86.321895051, 34.297545565], [-86.318825136, 34.297653767], [-86.31659862, 34.298565698], [-86.31463723, 34.298677886], [-86.314141335, 34.298518439], [-86.313103843, 34.297740536], [-86.312496514, 34.296431701], [-86.311825174, 34.29565488], [-86.311217882, 34.294346035], [-86.310568211, 34.29413789], [-86.3079546, 34.29218923], [-86.306685143, 34.292234798], [-86.304658037, 34.291369815], [-86.304331341, 34.291342486], [-86.303483297, 34.291770986], [-86.303022254, 34.292733413], [-86.301770364, 34.294017423], [-86.300070843, 34.294880419], [-86.299613467, 34.296224574], [-86.298818547, 34.297483577], [-86.298295752, 34.298834895], [-86.299239765, 34.300357444], [-86.298210419, 34.301181673], [-86.297454658, 34.301181637], [-86.29636183, 34.30068133], [-86.295006662, 34.299887198], [-86.293174515, 34.300551444], [-86.292311471, 34.300316901], [-86.291448121, 34.300352069], [-86.290214202, 34.300668082], [-86.289679578, 34.301824501], [-86.290232809, 34.302677967], [-86.290275842, 34.303383326], [-86.289949101, 34.303355957], [-86.289882097, 34.303889831], [-86.287133002, 34.304685808], [-86.285122516, 34.305002031], [-86.282766452, 34.30583085], [-86.281430849, 34.305805287], [-86.280597643, 34.305415108], [-86.279317248, 34.304498509], [-86.277764499, 34.304989971], [-86.275410501, 34.306807189], [-86.271723342, 34.307039423], [-86.269368187, 34.306997703], [-86.267128652, 34.305073184], [-86.265728213, 34.304291754], [-86.265570064, 34.303867526], [-86.266249781, 34.303180684], [-86.265917287, 34.30123079], [-86.265804496, 34.301061153], [-86.266006781, 34.300662977], [-86.26683332, 34.299280365], [-86.266077571, 34.29784496], [-86.265947936, 34.297296676], [-86.266787591, 34.296937271], [-86.2676822, 34.296633054], [-86.267650434, 34.295675717], [-86.267306942, 34.295023071], [-86.267577009, 34.293819217], [-86.267163011, 34.293029987], [-86.266956722, 34.289769295], [-86.2689946, 34.28818702], [-86.269578905, 34.285591221], [-86.269259978, 34.284087111], [-86.269488171, 34.28401565], [-86.269858772, 34.283262791], [-86.270374178, 34.283101641], [-86.270261686, 34.28192466], [-86.269322646, 34.280142974], [-86.26934461, 34.279373483], [-86.269462769, 34.278843891], [-86.269488893, 34.277897719], [-86.269941033, 34.27725497], [-86.27324549, 34.274598791], [-86.273025333, 34.273088213], [-86.272664393, 34.271548951], [-86.2724103, 34.270739417], [-86.272412034, 34.269515109], [-86.272368567, 34.26791187], [-86.2708625, 34.264919202], [-86.270011162, 34.263528402], [-86.269791091, 34.26294089], [-86.269241603, 34.261958999], [-86.269173099, 34.261150279], [-86.269161023, 34.260179803], [-86.268721325, 34.25949375], [-86.26874281, 34.258256328], [-86.268403175, 34.257717774], [-86.26931076, 34.256445192], [-86.26889787, 34.254766629], [-86.269752466, 34.253915315], [-86.270201755, 34.253704365], [-86.270911195, 34.251833445], [-86.271360468, 34.25162249], [-86.271968117, 34.250274116], [-86.273152112, 34.250021587], [-86.274255752, 34.249526256], [-86.273828052, 34.248375453], [-86.275008951, 34.247182683], [-86.274039463, 34.245912621], [-86.273879278, 34.244807458], [-86.274704004, 34.244459415], [-86.275237964, 34.244394657], [-86.275271491, 34.244127705], [-86.27557106, 34.242624881], [-86.275832649, 34.242286453], [-86.278711545, 34.242287869], [-86.280019493, 34.241683187], [-86.280728845, 34.241494026], [-86.282198493, 34.240976655], [-86.281766356, 34.239593672], [-86.28280854, 34.238621022], [-86.284030498, 34.23880363], [-86.284530602, 34.238700163], [-86.284663029, 34.238856693], [-86.285903891, 34.239279018], [-86.286880033, 34.238524196], [-86.289577422, 34.237936883], [-86.290247939, 34.237830821], [-86.291073937, 34.238355297], [-86.292079562, 34.238372156], [-86.294388396, 34.236586701], [-86.2964169, 34.236893673], [-86.297965121, 34.236570268], [-86.298586124, 34.235686552], [-86.299461511, 34.234870507], [-86.300981789, 34.235099002], [-86.301444527, 34.23510825], [-86.302209273, 34.234516855], [-86.303732537, 34.234330384], [-86.304161138, 34.233171309], [-86.304401968, 34.23281212], [-86.305403465, 34.233087747], [-86.307134397, 34.232703653], [-86.309861486, 34.23158729], [-86.312530439, 34.232088779], [-86.313091416, 34.231621476], [-86.314040737, 34.231119212], [-86.317293873, 34.232183679], [-86.31867311, 34.232117747], [-86.319624348, 34.231269974], [-86.320179119, 34.230625093], [-86.320825306, 34.230898283], [-86.322464244, 34.230816081], [-86.32251034, 34.231519616], [-86.322789463, 34.233142514], [-86.324458344, 34.234306187], [-86.325295192, 34.23455945], [-86.326454876, 34.234765911], [-86.327300122, 34.235426599], [-86.328899914, 34.236318887], [-86.329565687, 34.237343907], [-86.331939948, 34.237379858], [-86.334190839, 34.235637324], [-86.336991086, 34.234324143], [-86.339724535, 34.23358698], [-86.341491974, 34.234292866], [-86.342699518, 34.233702332], [-86.343877119, 34.23368251], [-86.345849713, 34.235905911], [-86.346991751, 34.235944205], [-86.347855025, 34.236172103], [-86.348142555, 34.238145415], [-86.349769281, 34.239547515], [-86.3502952, 34.240166652], [-86.350712514, 34.241202431], [-86.351564244, 34.241937212], [-86.352867471, 34.242378733], [-86.353785629, 34.242746022], [-86.354599327, 34.242938121], [-86.354760009, 34.243075836], [-86.358912521, 34.243796665], [-86.359716782, 34.243174499], [-86.359745139, 34.242097888], [-86.360030657, 34.241377751], [-86.361611535, 34.242280611], [-86.36272922, 34.242660214], [-86.363320915, 34.243000259], [-86.36576232, 34.243470989], [-86.367969926, 34.244868419], [-86.370871913, 34.244599727], [-86.371644348, 34.24504115], [-86.372292306, 34.245343674], [-86.375032408, 34.247082343], [-86.374998639, 34.248681098], [-86.377182385, 34.24846846], [-86.377762514, 34.24732602], [-86.379506505, 34.245694415], [-86.380126654, 34.244810273], [-86.382161598, 34.242661217], [-86.382358515, 34.242549022], [-86.382391673, 34.242282039], [-86.382619639, 34.242210353], [-86.383536992, 34.241028453], [-86.383867606, 34.239258361], [-86.384724747, 34.238602497], [-86.386287468, 34.236580649], [-86.38648544, 34.235878486], [-86.386349429, 34.235479448], [-86.386118959, 34.233723881], [-86.384888142, 34.23203488], [-86.38460617, 34.231254935], [-86.384148476, 34.230458291], [-86.383463506, 34.228565917], [-86.382359092, 34.228101199], [-86.380564901, 34.22752649], [-86.379434538, 34.226109165], [-86.378820038, 34.224127764], [-86.377947979, 34.223452596], [-86.377823819, 34.223290548], [-86.378599323, 34.222710131], [-86.380005155, 34.222759497], [-86.381912163, 34.223503758], [-86.383438653, 34.223556781], [-86.384686952, 34.224252608], [-86.385680726, 34.224383591], [-86.387398756, 34.224035208], [-86.388384381, 34.224584853], [-86.392813571, 34.224667912], [-86.394212074, 34.224111689], [-86.394538518, 34.224138768], [-86.394604734, 34.223604783], [-86.394498598, 34.223026999], [-86.392891494, 34.222543857], [-86.392339151, 34.222177714], [-86.391832349, 34.222026081], [-86.393356895, 34.220245425], [-86.394171742, 34.21776735], [-86.395011893, 34.216269177], [-86.392327429, 34.215603911], [-86.391284535, 34.214602772], [-86.391024854, 34.213186144], [-86.39161609, 34.209229094], [-86.391385795, 34.208364922], [-86.390436324, 34.207089122], [-86.38990253, 34.205681332], [-86.390633615, 34.204833733], [-86.391588646, 34.20481817], [-86.392452704, 34.205203882], [-86.393815554, 34.206927016], [-86.395318382, 34.207209758], [-86.395851986, 34.207144443], [-86.39668929, 34.206790319], [-86.398299207, 34.207851094], [-86.39959855, 34.209838615], [-86.401107297, 34.210448406], [-86.40268769, 34.210292823], [-86.403398525, 34.209607851], [-86.403605752, 34.209515446], [-86.403949088, 34.208511302], [-86.405437711, 34.206849752], [-86.40612515, 34.205437896], [-86.406779845, 34.204893661], [-86.407367102, 34.204581965], [-86.407530773, 34.204445905], [-86.408466852, 34.204312729], [-86.409262009, 34.202279682], [-86.410211894, 34.201431137], [-86.411325301, 34.201030245], [-86.412108219, 34.198241731], [-86.413840314, 34.197565421], [-86.414853307, 34.197080319], [-86.416177963, 34.19688654], [-86.416840503, 34.195215468], [-86.41992646, 34.195961923], [-86.422590142, 34.195832524], [-86.424091192, 34.195836591], [-86.426948587, 34.195556639], [-86.429157889, 34.194413818], [-86.429195459, 34.192941791], [-86.430009466, 34.191209429], [-86.432557439, 34.188823829], [-86.433957096, 34.188020718], [-86.435441395, 34.186552346], [-86.436504837, 34.186073348], [-86.436831136, 34.186100309], [-86.436864083, 34.185833292], [-86.437471128, 34.184941469], [-86.438023434, 34.18309471], [-86.438861119, 34.181794144], [-86.438939515, 34.181012475], [-86.44049961, 34.179721], [-86.442401883, 34.176927835], [-86.442063901, 34.175742986], [-86.442348739, 34.174727587], [-86.444742694, 34.172727316], [-86.445344739, 34.172041561], [-86.447455047, 34.170085255], [-86.449239066, 34.169062936], [-86.451078326, 34.166776525], [-86.451840893, 34.166040767], [-86.452873863, 34.165575983], [-86.453136018, 34.164638767], [-86.453883257, 34.16256356], [-86.453848488, 34.161340529], [-86.453958967, 34.160945031], [-86.453888641, 34.158526295], [-86.453761621, 34.158366191], [-86.453589779, 34.158172885], [-86.451878726, 34.157351006], [-86.450786639, 34.156373665], [-86.45105199, 34.155034197], [-86.450700439, 34.153875621], [-86.45140744, 34.153025693], [-86.450272318, 34.15080985], [-86.452358296, 34.149567968], [-86.452517332, 34.148757102], [-86.451093147, 34.146673343], [-86.450935299, 34.146533868], [-86.450835577, 34.146110477], [-86.449255317, 34.144249827], [-86.450183439, 34.143380226], [-86.451411099, 34.142084358], [-86.45448191, 34.142687644], [-86.456092811, 34.142104051], [-86.458773124, 34.1426181], [-86.458897708, 34.144638833], [-86.460291491, 34.145841199], [-86.462187026, 34.145873171], [-86.463753382, 34.14678204], [-86.464545946, 34.146992783], [-86.465010727, 34.147001591], [-86.466344153, 34.145764882], [-86.467221624, 34.141348481], [-86.468260003, 34.139600629], [-86.469499845, 34.13755326], [-86.471034962, 34.135783093], [-86.473164091, 34.134812067], [-86.474113063, 34.133455099], [-86.474974269, 34.129250128], [-86.477427088, 34.128092848], [-86.477595057, 34.127961268], [-86.478431905, 34.127600262], [-86.480293622, 34.127233], [-86.482413971, 34.127169385], [-86.483349578, 34.12778587], [-86.484182017, 34.127963952], [-86.484647084, 34.127717721], [-86.485454629, 34.126840055], [-86.487526598, 34.125240303], [-86.488032187, 34.123425287], [-86.488936702, 34.123057132], [-86.489698056, 34.123185077], [-86.491548621, 34.124523703], [-86.494320242, 34.124519746], [-86.49561094, 34.124737521], [-86.498799586, 34.124731904], [-86.500456719, 34.125403306], [-86.501310481, 34.128054932], [-86.504160231, 34.128716743], [-86.504444962, 34.130678866], [-86.506340284, 34.132033527], [-86.507233976, 34.133120501], [-86.508350408, 34.134048729], [-86.509542117, 34.134593269], [-86.511215802, 34.134353381], [-86.513160789, 34.134230551], [-86.515341078, 34.134750744], [-86.517115674, 34.136063689], [-86.51683049, 34.136628241], [-86.515494599, 34.136988632], [-86.514256774, 34.137430806], [-86.513228319, 34.139464284], [-86.510747757, 34.140135338], [-86.510715849, 34.14153196]]]}, "properties": {"arm": "18", "name": "Big Spring Creek", "comid": 19649546, "kind": "aboveHead"}}