{"type": "Feature", "geometry": {"type": "Polygon", "coordinates": [[[-85.768786009, 34.7077947], [-85.771208604, 34.707838758], [-85.774167878, 34.706519871], [-85.779375368, 34.706692186], [-85.779826525, 34.70675283], [-85.781077172, 34.707454739], [-85.782672048, 34.707518708], [-85.784028049, 34.708052782], [-85.784593244, 34.708719847], [-85.788339966, 34.711882888], [-85.789760137, 34.713556369], [-85.790249084, 34.713723548], [-85.790269369, 34.714743273], [-85.79228459, 34.716371887], [-85.792541837, 34.717580961], [-85.792965701, 34.71827774], [-85.792930302, 34.718544405], [-85.793258619, 34.718573156], [-85.793440963, 34.719427922], [-85.793833833, 34.720632002], [-85.793922154, 34.722547046], [-85.793115601, 34.723266744], [-85.792332203, 34.724437366], [-85.794066443, 34.72583898], [-85.794293261, 34.726906273], [-85.795247317, 34.727499815], [-85.795480824, 34.728595085], [-85.795236891, 34.729435701], [-85.794691575, 34.730298404], [-85.795631784, 34.73154405], [-85.797101841, 34.730987784], [-85.799518362, 34.732569125], [-85.799715403, 34.734135367], [-85.800826795, 34.73553924], [-85.800915187, 34.735968468], [-85.799952048, 34.736811496], [-85.799589508, 34.73735301], [-85.799153709, 34.737820674], [-85.798813189, 34.739291402], [-85.798615266, 34.73939421], [-85.797953796, 34.741483846], [-85.797074827, 34.742376368], [-85.796874605, 34.742476865], [-85.795099556, 34.742650283], [-85.794435269, 34.743645877], [-85.793706385, 34.743818113], [-85.791284322, 34.745911653], [-85.789703482, 34.746283244], [-85.78871998, 34.746652333], [-85.787760699, 34.74687812], [-85.787099698, 34.747437718], [-85.78677126, 34.747408951], [-85.786735826, 34.747675605], [-85.786252919, 34.747793474], [-85.784678402, 34.74790212], [-85.783960252, 34.749457752], [-85.782510989, 34.749463541], [-85.782022371, 34.74987805], [-85.780282269, 34.750743472], [-85.779470415, 34.750933645], [-85.779306772, 34.751071041], [-85.779837464, 34.75233147], [-85.780085377, 34.75372728], [-85.780446616, 34.753978117], [-85.780559001, 34.754148135], [-85.780404509, 34.754294764], [-85.77900025, 34.754390869], [-85.778470804, 34.755248574], [-85.77647216, 34.756377905], [-85.775127373, 34.756533975], [-85.774328099, 34.758267904], [-85.772685384, 34.758418899], [-85.771892031, 34.757864596], [-85.771779659, 34.75769457], [-85.770877763, 34.757994813], [-85.770497736, 34.758821337], [-85.769407403, 34.75973729], [-85.768773101, 34.761108419], [-85.767736818, 34.762086003], [-85.767317883, 34.762268426], [-85.767008815, 34.762561647], [-85.766106843, 34.762861851], [-85.765687687, 34.764858804], [-85.762681026, 34.767528564], [-85.76109818, 34.771865939], [-85.758550553, 34.772179685], [-85.758988632, 34.772867257], [-85.759177821, 34.773473966], [-85.760675565, 34.775173423], [-85.760752401, 34.775610094], [-85.761373963, 34.775934412], [-85.761593929, 34.777479533], [-85.760482008, 34.779236513], [-85.759764936, 34.780992317], [-85.758325787, 34.78216418], [-85.756596788, 34.782821642], [-85.754510252, 34.783900789], [-85.753799239, 34.786135494], [-85.752148519, 34.787937811], [-85.751635932, 34.789696783], [-85.752767126, 34.7917308], [-85.75222192, 34.793461613], [-85.751075859, 34.79471183], [-85.751098365, 34.796762259], [-85.751485789, 34.797460138], [-85.749859566, 34.7998357], [-85.747037818, 34.799918659], [-85.745337461, 34.802692286], [-85.744258709, 34.80308641], [-85.743013882, 34.802525999], [-85.741259873, 34.80099352], [-85.740764788, 34.800829866], [-85.740165907, 34.801443171], [-85.740161677, 34.802058181], [-85.737877746, 34.804394741], [-85.736456031, 34.806421434], [-85.733726604, 34.807346775], [-85.732092666, 34.808180887], [-85.731629598, 34.809467853], [-85.731321658, 34.810391229], [-85.732097036, 34.812461551], [-85.731954446, 34.81300327], [-85.731949036, 34.813626604], [-85.731449292, 34.814429836], [-85.73089201, 34.815974045], [-85.731141818, 34.817195171], [-85.729999594, 34.817809096], [-85.729482568, 34.818216704], [-85.729780768, 34.819678125], [-85.729792294, 34.82248627], [-85.731582633, 34.823613215], [-85.732579482, 34.824339462], [-85.73319002, 34.825933703], [-85.733228787, 34.828480785], [-85.732446733, 34.82935402], [-85.732242599, 34.829753336], [-85.731747348, 34.829589649], [-85.729700896, 34.828355895], [-85.727722611, 34.829079591], [-85.725039803, 34.827960449], [-85.723831118, 34.827729708], [-85.72127691, 34.828406811], [-85.719875191, 34.827560511], [-85.719293974, 34.828194248], [-85.718638687, 34.829148116], [-85.717832454, 34.8294438], [-85.716647907, 34.829459578], [-85.716521316, 34.829298796], [-85.714187873, 34.827415651], [-85.712922629, 34.825803623], [-85.711843323, 34.825596799], [-85.709677464, 34.825625055], [-85.707689265, 34.824153644], [-85.705135749, 34.824185564], [-85.703685994, 34.823311625], [-85.702691077, 34.822863468], [-85.702109765, 34.822392785], [-85.701603571, 34.821749586], [-85.701104336, 34.821345148], [-85.700370355, 34.820850444], [-85.699860991, 34.820695902], [-85.699768065, 34.819703485], [-85.697209787, 34.816828501], [-85.696682499, 34.815955793], [-85.69515937, 34.814759108], [-85.693116377, 34.812441628], [-85.690453185, 34.810041908], [-85.6900452, 34.809578025], [-85.688879934, 34.808794319], [-85.687523293, 34.808545874], [-85.686572939, 34.808232158], [-85.68554487, 34.806446786], [-85.683688154, 34.80394532], [-85.68142864, 34.80303105], [-85.681302166, 34.802870225], [-85.678834911, 34.802902816], [-85.677251056, 34.803321225], [-85.676457298, 34.80342804], [-85.674064485, 34.804394475], [-85.672271116, 34.804650961], [-85.670555466, 34.804735152], [-85.669819422, 34.805011429], [-85.667789757, 34.80414674], [-85.666500605, 34.804633259], [-85.665754715, 34.804731597], [-85.665303049, 34.804052977], [-85.663683818, 34.802918952], [-85.663119984, 34.8020702], [-85.662216671, 34.801794158], [-85.660265565, 34.800038414], [-85.658966752, 34.799149791], [-85.658440945, 34.798308592], [-85.65818872, 34.797500071], [-85.657198778, 34.797096166], [-85.656178485, 34.796377622], [-85.655951294, 34.796039218], [-85.655622698, 34.796010084], [-85.654027493, 34.79670539], [-85.65344893, 34.798685898], [-85.652288874, 34.799910864], [-85.651068841, 34.800192578], [-85.650248189, 34.799997539], [-85.648882031, 34.799435836], [-85.646775491, 34.798854787], [-85.644148437, 34.798377145], [-85.642611522, 34.797675849], [-85.64031313, 34.797227291], [-85.63923755, 34.796592202], [-85.637199224, 34.79668096], [-85.635133384, 34.798301671], [-85.632462407, 34.798958037], [-85.631937796, 34.799033668], [-85.631771554, 34.798898753], [-85.631518827, 34.798576994], [-85.630977837, 34.798138983], [-85.630962774, 34.797269253], [-85.631869056, 34.795463362], [-85.631820955, 34.792837043], [-85.634300919, 34.79172743], [-85.63426896, 34.789962508], [-85.635110425, 34.789213142], [-85.635843466, 34.788439384], [-85.637055272, 34.787813542], [-85.63703418, 34.786525938], [-85.637918488, 34.785131172], [-85.637602893, 34.784158861], [-85.636643527, 34.783934519], [-85.63541169, 34.783188527], [-85.634074436, 34.783204595], [-85.633426366, 34.783079553], [-85.631095158, 34.783108421], [-85.629803793, 34.781457047], [-85.628897254, 34.779879916], [-85.624695057, 34.779069885], [-85.622986978, 34.778005253], [-85.621762876, 34.775877052], [-85.619044106, 34.775238828], [-85.617777146, 34.774447332], [-85.615621349, 34.772699823], [-85.614863768, 34.770638346], [-85.614250358, 34.769854405], [-85.612853976, 34.768983863], [-85.611526847, 34.767908683], [-85.610059293, 34.765836598], [-85.609672157, 34.764781896], [-85.608831311, 34.76326097], [-85.607837974, 34.759776649], [-85.607415555, 34.759079232], [-85.604201372, 34.758345842], [-85.603439774, 34.758370687], [-85.602793047, 34.75746986], [-85.601815351, 34.755599384], [-85.600536063, 34.754806541], [-85.599869788, 34.754511026], [-85.598638466, 34.753747732], [-85.596775758, 34.753122017], [-85.595293271, 34.752871687], [-85.595124796, 34.75146963], [-85.596539334, 34.747561264], [-85.59753715, 34.745445392], [-85.596250037, 34.743829676], [-85.597645471, 34.736761852], [-85.597967431, 34.735572179], [-85.597929959, 34.733547293], [-85.598369688, 34.732043498], [-85.596971212, 34.729736932], [-85.596733616, 34.728596386], [-85.596423485, 34.727339747], [-85.597798311, 34.72679001], [-85.600957236, 34.726751489], [-85.602727986, 34.728186899], [-85.603701177, 34.728648928], [-85.606084411, 34.728319734], [-85.6065222, 34.728403041], [-85.608537406, 34.727973526], [-85.609114286, 34.728083979], [-85.609681005, 34.728077587], [-85.610814068, 34.727664249], [-85.612523502, 34.727576303], [-85.614110891, 34.726758648], [-85.614274777, 34.726621479], [-85.615332182, 34.726479608], [-85.615988231, 34.726234516], [-85.616727885, 34.726062214], [-85.618390536, 34.723514267], [-85.618626415, 34.722843872], [-85.619683226, 34.72239837], [-85.62012364, 34.721558583], [-85.622172527, 34.721146607], [-85.623634497, 34.721525518], [-85.624559987, 34.721898808], [-85.62489876, 34.721907888], [-85.626684848, 34.722212322], [-85.627085629, 34.722011906], [-85.628113108, 34.72114846], [-85.631099662, 34.720788158], [-85.633149627, 34.719058645], [-85.634153778, 34.718559855], [-85.636096411, 34.717798823], [-85.636267091, 34.717668556], [-85.638893136, 34.717902058], [-85.639835979, 34.716837069], [-85.641509206, 34.715474438], [-85.64230762, 34.714305955], [-85.643933191, 34.71391291], [-85.645425693, 34.712696478], [-85.646156469, 34.711239504], [-85.646697619, 34.710650998], [-85.647245166, 34.708781451], [-85.64771305, 34.708043093], [-85.648304382, 34.706021444], [-85.650022644, 34.704321229], [-85.65082411, 34.704150008], [-85.65343489, 34.705014238], [-85.654015611, 34.705365125], [-85.6545099, 34.705529162], [-85.65610392, 34.705021447], [-85.657469523, 34.704282648], [-85.659960625, 34.703220033], [-85.661349704, 34.70305873], [-85.662125061, 34.702328636], [-85.662960492, 34.701962208], [-85.663162363, 34.701560649], [-85.66363005, 34.700822222], [-85.664294247, 34.698737422], [-85.666432854, 34.696994187], [-85.667323023, 34.696683177], [-85.667557258, 34.696252862], [-85.670371995, 34.693859168], [-85.672377075, 34.691195501], [-85.673570184, 34.690888118], [-85.675136748, 34.69073608], [-85.679112722, 34.691284419], [-85.681861694, 34.6922193], [-85.682244341, 34.693834083], [-85.687624666, 34.696447794], [-85.689719277, 34.696905082], [-85.690647914, 34.697273921], [-85.692183253, 34.69733599], [-85.693100056, 34.697851308], [-85.693924028, 34.698788401], [-85.697543735, 34.702038369], [-85.699519472, 34.702997144], [-85.701768945, 34.703636503], [-85.702695156, 34.704005017], [-85.703509233, 34.704203422], [-85.704775232, 34.705948811], [-85.704793379, 34.70701484], [-85.704202309, 34.707514855], [-85.701988107, 34.707812419], [-85.701389903, 34.709024219], [-85.70033565, 34.710657312], [-85.700393746, 34.711870201], [-85.701017911, 34.712886507], [-85.701512348, 34.713050345], [-85.702450915, 34.713618068], [-85.704177569, 34.716613987], [-85.704837669, 34.718409086], [-85.70381743, 34.721900017], [-85.703846459, 34.723388537], [-85.704221132, 34.723691425], [-85.707780433, 34.725504369], [-85.710289584, 34.72603152], [-85.7109015, 34.725900059], [-85.712312897, 34.725282725], [-85.713055602, 34.724678022], [-85.714668077, 34.723954054], [-85.715399701, 34.723179744], [-85.716504469, 34.722758725], [-85.720089337, 34.722790418], [-85.722085107, 34.721760821], [-85.724999767, 34.722321312], [-85.727329103, 34.722290572], [-85.728151289, 34.722449448], [-85.728817205, 34.722204627], [-85.730000104, 34.722188723], [-85.731855325, 34.720733483], [-85.734723486, 34.720301136], [-85.737007142, 34.720087035], [-85.739825977, 34.719401519], [-85.743495744, 34.719475812], [-85.744350018, 34.719180039], [-85.744892784, 34.718768329], [-85.745086152, 34.718660992], [-85.745457149, 34.717922235], [-85.748301586, 34.715856164], [-85.749051392, 34.714358241], [-85.749831554, 34.714072775], [-85.751443215, 34.713934195], [-85.752892353, 34.713184841], [-85.754201484, 34.711266066], [-85.755616995, 34.710534802], [-85.758452751, 34.709464666], [-85.758891048, 34.708394566], [-85.759538, 34.707686346], [-85.760268538, 34.70590214], [-85.760958419, 34.705338897], [-85.762543777, 34.70451921], [-85.764144984, 34.703209816], [-85.764758221, 34.703124577], [-85.766304068, 34.704375285], [-85.767017285, 34.706307383], [-85.768659509, 34.707633953], [-85.768786009, 34.7077947]]]}, "properties": {"arm": "180", "name": "Coon Creek", "comid": 19645350, "kind": "aboveHead"}}