{"type": "Feature", "geometry": {"type": "Polygon", "coordinates": [[[-85.764758221, 34.703124577], [-85.766304068, 34.704375285], [-85.767017285, 34.706307383], [-85.768659509, 34.707633953], [-85.768786009, 34.7077947], [-85.771208604, 34.707838758], [-85.774167878, 34.706519871], [-85.779375368, 34.706692186], [-85.779826525, 34.70675283], [-85.781077172, 34.707454739], [-85.782672048, 34.707518708], [-85.784028049, 34.708052782], [-85.784593244, 34.708719847], [-85.788339966, 34.711882888], [-85.789760137, 34.713556369], [-85.790249084, 34.713723548], [-85.790975906, 34.713603861], [-85.79395072, 34.711501846], [-85.796526821, 34.710448135], [-85.808848801, 34.712008906], [-85.811759465, 34.712168551], [-85.813637821, 34.713344337], [-85.816094319, 34.71287829], [-85.817685652, 34.712616907], [-85.819180023, 34.711284859], [-85.820410171, 34.711105695], [-85.822680744, 34.711984711], [-85.823644559, 34.71232809], [-85.824757372, 34.712800381], [-85.826592604, 34.712107067], [-85.828728167, 34.710927823], [-85.830095989, 34.711217893], [-85.831502125, 34.710904341], [-85.831841244, 34.710615702], [-85.833505873, 34.710583897], [-85.838851316, 34.708141792], [-85.83948668, 34.708045451], [-85.840883442, 34.70831263], [-85.843197587, 34.709707143], [-85.845315862, 34.710561892], [-85.846825098, 34.711471021], [-85.84697842, 34.711665616], [-85.847038567, 34.712703492], [-85.846912083, 34.713248832], [-85.847825662, 34.714995377], [-85.847223965, 34.717351736], [-85.848455479, 34.718419977], [-85.848901522, 34.719542027], [-85.850689285, 34.720681859], [-85.85369673, 34.721152312], [-85.854924013, 34.721427725], [-85.856753774, 34.720735581], [-85.860241032, 34.72079453], [-85.861848234, 34.719290581], [-85.862984199, 34.718723449], [-85.866829158, 34.719748984], [-85.867869537, 34.719788846], [-85.869723707, 34.719166068], [-85.870509531, 34.718951976], [-85.871740574, 34.719120062], [-85.873521226, 34.720591859], [-85.874594036, 34.721350971], [-85.874388633, 34.721748273], [-85.873902548, 34.722306639], [-85.872089108, 34.722028975], [-85.871121511, 34.722362155], [-85.870495614, 34.723567957], [-85.870074068, 34.72404973], [-85.869298449, 34.727573227], [-85.86837541, 34.72863097], [-85.867388871, 34.729185856], [-85.862917353, 34.72913008], [-85.861417606, 34.730270389], [-85.859877451, 34.732425014], [-85.860138961, 34.734397049], [-85.859957839, 34.735179978], [-85.857493663, 34.736154174], [-85.856980333, 34.736543629], [-85.857155543, 34.73724165], [-85.860252795, 34.740735265], [-85.860429164, 34.74183798], [-85.861578431, 34.74327817], [-85.861945702, 34.744134062], [-85.862352752, 34.744963909], [-85.862458542, 34.745381924], [-85.862117825, 34.74564311], [-85.859917937, 34.746874262], [-85.859025031, 34.747110602], [-85.858217747, 34.74866513], [-85.856282022, 34.751807346], [-85.855231742, 34.753825399], [-85.854375891, 34.756277603], [-85.853878011, 34.756116279], [-85.853542103, 34.755671915], [-85.850067816, 34.754893333], [-85.849296015, 34.75647197], [-85.848028744, 34.75653446], [-85.847628358, 34.756735626], [-85.846202267, 34.757941189], [-85.84484098, 34.757654075], [-85.844018378, 34.757965976], [-85.843628632, 34.759657932], [-85.84291377, 34.760647229], [-85.841945499, 34.763730199], [-85.844326785, 34.765650811], [-85.844418642, 34.767372047], [-85.842582383, 34.769380567], [-85.841889258, 34.771697241], [-85.843518542, 34.773769395], [-85.841439215, 34.774060366], [-85.841476447, 34.775880093], [-85.840556769, 34.776885255], [-85.840079909, 34.777840472], [-85.839524173, 34.778449544], [-85.836899147, 34.776720487], [-85.836305869, 34.776729909], [-85.835667181, 34.778535005], [-85.834508205, 34.779483452], [-85.834271738, 34.780151933], [-85.833733705, 34.780214627], [-85.832886782, 34.780570707], [-85.832754343, 34.780413761], [-85.831188826, 34.779489179], [-85.829680203, 34.778527385], [-85.829029904, 34.778222026], [-85.828436468, 34.777879474], [-85.825502726, 34.776875533], [-85.824127898, 34.7752573], [-85.820917284, 34.775187914], [-85.819225678, 34.774648323], [-85.817918325, 34.774285546], [-85.815228125, 34.773365799], [-85.813916034, 34.774018307], [-85.812661345, 34.775902299], [-85.811246199, 34.776606895], [-85.809726963, 34.775962099], [-85.808496677, 34.776427822], [-85.8076534, 34.778145405], [-85.808634565, 34.779381747], [-85.808826982, 34.780319472], [-85.809443461, 34.78080112], [-85.809567323, 34.780963669], [-85.809531953, 34.78123032], [-85.809587918, 34.781924313], [-85.810874251, 34.783562388], [-85.810461709, 34.784988853], [-85.810538298, 34.786173546], [-85.809845703, 34.786382794], [-85.808242426, 34.788307942], [-85.806211757, 34.789108342], [-85.804691403, 34.78995752], [-85.803258697, 34.791046147], [-85.801977264, 34.790310374], [-85.800200822, 34.790270991], [-85.800007352, 34.790378411], [-85.799518568, 34.790792975], [-85.79789727, 34.791599529], [-85.796589277, 34.793586186], [-85.79533503, 34.795480593], [-85.793834423, 34.797117416], [-85.79387498, 34.799118734], [-85.793367582, 34.800317689], [-85.791682209, 34.801643298], [-85.790941444, 34.802408788], [-85.7896726, 34.803570614], [-85.78861155, 34.806080348], [-85.787480328, 34.807085608], [-85.784315296, 34.809455423], [-85.784260686, 34.810373662], [-85.783990047, 34.810826232], [-85.783451759, 34.810888693], [-85.782195575, 34.811406708], [-85.781422461, 34.813077583], [-85.780206193, 34.81427132], [-85.779533649, 34.814366263], [-85.777597101, 34.815271411], [-85.775660275, 34.815436824], [-85.775047504, 34.816936264], [-85.774020961, 34.818557501], [-85.772291035, 34.820445845], [-85.769723921, 34.821771886], [-85.769465594, 34.822501571], [-85.769097767, 34.824247939], [-85.768149836, 34.825043617], [-85.767462912, 34.826532307], [-85.766729233, 34.827260355], [-85.766072109, 34.827550459], [-85.765760484, 34.827841349], [-85.763930002, 34.828551188], [-85.760824121, 34.828613867], [-85.759975502, 34.828897679], [-85.757877772, 34.828610381], [-85.756128028, 34.83023336], [-85.756773037, 34.831339429], [-85.756021, 34.832242828], [-85.755383156, 34.833088807], [-85.749869107, 34.83641281], [-85.749525459, 34.838285594], [-85.749403998, 34.839720585], [-85.749008321, 34.839997734], [-85.748821527, 34.840111989], [-85.747765386, 34.839340677], [-85.745225336, 34.838607609], [-85.744212557, 34.837901181], [-85.74243822, 34.837020355], [-85.741340525, 34.835821735], [-85.740000359, 34.835659705], [-85.738628811, 34.836101833], [-85.736427301, 34.834567993], [-85.735297549, 34.833823793], [-85.734411013, 34.832232711], [-85.732242599, 34.829753336], [-85.731747348, 34.829589649], [-85.729700896, 34.828355895], [-85.727722611, 34.829079591], [-85.725039803, 34.827960449], [-85.723831118, 34.827729708], [-85.72127691, 34.828406811], [-85.719875191, 34.827560511], [-85.719293974, 34.828194248], [-85.718638687, 34.829148116], [-85.717832454, 34.8294438], [-85.716647907, 34.829459578], [-85.716521316, 34.829298796], [-85.714187873, 34.827415651], [-85.712922629, 34.825803623], [-85.711843323, 34.825596799], [-85.709677464, 34.825625055], [-85.707689265, 34.824153644], [-85.705135749, 34.824185564], [-85.703685994, 34.823311625], [-85.702691077, 34.822863468], [-85.702109765, 34.822392785], [-85.701603571, 34.821749586], [-85.701104336, 34.821345148], [-85.700370355, 34.820850444], [-85.699860991, 34.820695902], [-85.699768065, 34.819703485], [-85.697209787, 34.816828501], [-85.696682499, 34.815955793], [-85.69515937, 34.814759108], [-85.693116377, 34.812441628], [-85.690453185, 34.810041908], [-85.6900452, 34.809578025], [-85.688879934, 34.808794319], [-85.687523293, 34.808545874], [-85.686572939, 34.808232158], [-85.68554487, 34.806446786], [-85.683688154, 34.80394532], [-85.68142864, 34.80303105], [-85.681302166, 34.802870225], [-85.678834911, 34.802902816], [-85.677251056, 34.803321225], [-85.676457298, 34.80342804], [-85.674064485, 34.804394475], [-85.672271116, 34.804650961], [-85.670555466, 34.804735152], [-85.669819422, 34.805011429], [-85.667789757, 34.80414674], [-85.666500605, 34.804633259], [-85.665754715, 34.804731597], [-85.665303049, 34.804052977], [-85.663683818, 34.802918952], [-85.663119984, 34.8020702], [-85.662216671, 34.801794158], [-85.660265565, 34.800038414], [-85.658966752, 34.799149791], [-85.658440945, 34.798308592], [-85.65818872, 34.797500071], [-85.657198778, 34.797096166], [-85.656178485, 34.796377622], [-85.655951294, 34.796039218], [-85.655622698, 34.796010084], [-85.654027493, 34.79670539], [-85.65344893, 34.798685898], [-85.652288874, 34.799910864], [-85.651068841, 34.800192578], [-85.650248189, 34.799997539], [-85.648882031, 34.799435836], [-85.646775491, 34.798854787], [-85.644148437, 34.798377145], [-85.642611522, 34.797675849], [-85.64031313, 34.797227291], [-85.63923755, 34.796592202], [-85.637199224, 34.79668096], [-85.635133384, 34.798301671], [-85.632462407, 34.798958037], [-85.631937796, 34.799033668], [-85.631771554, 34.798898753], [-85.631518827, 34.798576994], [-85.630977837, 34.798138983], [-85.630962774, 34.797269253], [-85.631869056, 34.795463362], [-85.631820955, 34.792837043], [-85.634300919, 34.79172743], [-85.63426896, 34.789962508], [-85.635110425, 34.789213142], [-85.635843466, 34.788439384], [-85.637055272, 34.787813542], [-85.63703418, 34.786525938], [-85.637918488, 34.785131172], [-85.637602893, 34.784158861], [-85.636643527, 34.783934519], [-85.63541169, 34.783188527], [-85.634074436, 34.783204595], [-85.633426366, 34.783079553], [-85.631095158, 34.783108421], [-85.629803793, 34.781457047], [-85.628897254, 34.779879916], [-85.624695057, 34.779069885], [-85.622986978, 34.778005253], [-85.621762876, 34.775877052], [-85.619044106, 34.775238828], [-85.617777146, 34.774447332], [-85.615621349, 34.772699823], [-85.614863768, 34.770638346], [-85.614250358, 34.769854405], [-85.612853976, 34.768983863], [-85.611526847, 34.767908683], [-85.610059293, 34.765836598], [-85.609672157, 34.764781896], [-85.608831311, 34.76326097], [-85.607837974, 34.759776649], [-85.607415555, 34.759079232], [-85.604201372, 34.758345842], [-85.603439774, 34.758370687], [-85.602793047, 34.75746986], [-85.601815351, 34.755599384], [-85.600536063, 34.754806541], [-85.599869788, 34.754511026], [-85.598638466, 34.753747732], [-85.596775758, 34.753122017], [-85.595293271, 34.752871687], [-85.595124796, 34.75146963], [-85.596539334, 34.747561264], [-85.59753715, 34.745445392], [-85.596250037, 34.743829676], [-85.597645471, 34.736761852], [-85.597967431, 34.735572179], [-85.597929959, 34.733547293], [-85.598369688, 34.732043498], [-85.596971212, 34.729736932], [-85.596733616, 34.728596386], [-85.596423485, 34.727339747], [-85.597798311, 34.72679001], [-85.600957236, 34.726751489], [-85.602727986, 34.728186899], [-85.603701177, 34.728648928], [-85.606084411, 34.728319734], [-85.6065222, 34.728403041], [-85.608537406, 34.727973526], [-85.609114286, 34.728083979], [-85.609681005, 34.728077587], [-85.610814068, 34.727664249], [-85.612523502, 34.727576303], [-85.614110891, 34.726758648], [-85.614274777, 34.726621479], [-85.615332182, 34.726479608], [-85.615988231, 34.726234516], [-85.616727885, 34.726062214], [-85.618390536, 34.723514267], [-85.618626415, 34.722843872], [-85.619683226, 34.72239837], [-85.62012364, 34.721558583], [-85.622172527, 34.721146607], [-85.623634497, 34.721525518], [-85.624559987, 34.721898808], [-85.62489876, 34.721907888], [-85.626684848, 34.722212322], [-85.627085629, 34.722011906], [-85.628113108, 34.72114846], [-85.631099662, 34.720788158], [-85.633149627, 34.719058645], [-85.634153778, 34.718559855], [-85.636096411, 34.717798823], [-85.636267091, 34.717668556], [-85.638893136, 34.717902058], [-85.639835979, 34.716837069], [-85.641509206, 34.715474438], [-85.64230762, 34.714305955], [-85.643933191, 34.71391291], [-85.645425693, 34.712696478], [-85.646156469, 34.711239504], [-85.646697619, 34.710650998], [-85.647245166, 34.708781451], [-85.64771305, 34.708043093], [-85.648304382, 34.706021444], [-85.650022644, 34.704321229], [-85.65082411, 34.704150008], [-85.65343489, 34.705014238], [-85.654015611, 34.705365125], [-85.6545099, 34.705529162], [-85.65610392, 34.705021447], [-85.657469523, 34.704282648], [-85.659960625, 34.703220033], [-85.661349704, 34.70305873], [-85.662125061, 34.702328636], [-85.662960492, 34.701962208], [-85.663162363, 34.701560649], [-85.66363005, 34.700822222], [-85.664294247, 34.698737422], [-85.666432854, 34.696994187], [-85.667323023, 34.696683177], [-85.667557258, 34.696252862], [-85.670371995, 34.693859168], [-85.672377075, 34.691195501], [-85.673570184, 34.690888118], [-85.675136748, 34.69073608], [-85.679112722, 34.691284419], [-85.681861694, 34.6922193], [-85.682244341, 34.693834083], [-85.687624666, 34.696447794], [-85.689719277, 34.696905082], [-85.690647914, 34.697273921], [-85.692183253, 34.69733599], [-85.693100056, 34.697851308], [-85.693924028, 34.698788401], [-85.697543735, 34.702038369], [-85.699519472, 34.702997144], [-85.701768945, 34.703636503], [-85.702695156, 34.704005017], [-85.703509233, 34.704203422], [-85.704775232, 34.705948811], [-85.704793379, 34.70701484], [-85.704202309, 34.707514855], [-85.701988107, 34.707812419], [-85.701389903, 34.709024219], [-85.70033565, 34.710657312], [-85.700393746, 34.711870201], [-85.701017911, 34.712886507], [-85.701512348, 34.713050345], [-85.702450915, 34.713618068], [-85.704177569, 34.716613987], [-85.704837669, 34.718409086], [-85.70381743, 34.721900017], [-85.703846459, 34.723388537], [-85.704221132, 34.723691425], [-85.707780433, 34.725504369], [-85.710289584, 34.72603152], [-85.7109015, 34.725900059], [-85.712312897, 34.725282725], [-85.713055602, 34.724678022], [-85.714668077, 34.723954054], [-85.715399701, 34.723179744], [-85.716504469, 34.722758725], [-85.720089337, 34.722790418], [-85.722085107, 34.721760821], [-85.724999767, 34.722321312], [-85.727329103, 34.722290572], [-85.728151289, 34.722449448], [-85.728817205, 34.722204627], [-85.730000104, 34.722188723], [-85.731855325, 34.720733483], [-85.734723486, 34.720301136], [-85.737007142, 34.720087035], [-85.739825977, 34.719401519], [-85.743495744, 34.719475812], [-85.744350018, 34.719180039], [-85.744892784, 34.718768329], [-85.745086152, 34.718660992], [-85.745457149, 34.717922235], [-85.748301586, 34.715856164], [-85.749051392, 34.714358241], [-85.749831554, 34.714072775], [-85.751443215, 34.713934195], [-85.752892353, 34.713184841], [-85.754201484, 34.711266066], [-85.755616995, 34.710534802], [-85.758452751, 34.709464666], [-85.758891048, 34.708394566], [-85.759538, 34.707686346], [-85.760268538, 34.70590214], [-85.760958419, 34.705338897], [-85.762543777, 34.70451921], [-85.764144984, 34.703209816], [-85.764758221, 34.703124577]]]}, "properties": {"arm": "180", "name": "Coon Creek", "comid": 19646562, "kind": "atMouth"}}