{"type": "Feature", "geometry": {"type": "Polygon", "coordinates": [[[-85.874594036, 34.721350971], [-85.874388633, 34.721748273], [-85.873902548, 34.722306639], [-85.872089108, 34.722028975], [-85.871121511, 34.722362155], [-85.870495614, 34.723567957], [-85.870074068, 34.72404973], [-85.869298449, 34.727573227], [-85.86837541, 34.72863097], [-85.867388871, 34.729185856], [-85.862917353, 34.72913008], [-85.861417606, 34.730270389], [-85.859877451, 34.732425014], [-85.860138961, 34.734397049], [-85.859957839, 34.735179978], [-85.857493663, 34.736154174], [-85.856980333, 34.736543629], [-85.856457834, 34.736333799], [-85.853329174, 34.736265968], [-85.851150825, 34.737924516], [-85.850822404, 34.737895928], [-85.850787196, 34.738162604], [-85.850458774, 34.738134015], [-85.850423564, 34.738400691], [-85.850095141, 34.738372101], [-85.85005993, 34.738638777], [-85.844824508, 34.741826517], [-85.843470951, 34.741974147], [-85.842125218, 34.742396401], [-85.842156659, 34.741863869], [-85.842197581, 34.741593477], [-85.84140284, 34.740379936], [-85.841236277, 34.738812291], [-85.8410079, 34.737987375], [-85.840668266, 34.735471073], [-85.839351874, 34.7341994], [-85.839918844, 34.733561803], [-85.840708849, 34.7328467], [-85.842014378, 34.730979516], [-85.843324712, 34.730646917], [-85.843727784, 34.730070891], [-85.845115291, 34.729428889], [-85.846163145, 34.729275705], [-85.847565535, 34.728776167], [-85.850615885, 34.7280197], [-85.851663709, 34.727866467], [-85.8520702, 34.727067333], [-85.852670197, 34.726099593], [-85.852684325, 34.723928117], [-85.853829863, 34.723309215], [-85.85369673, 34.721152312], [-85.854924013, 34.721427725], [-85.856753774, 34.720735581], [-85.860241032, 34.72079453], [-85.861848234, 34.719290581], [-85.862984199, 34.718723449], [-85.866829158, 34.719748984], [-85.867869537, 34.719788846], [-85.869723707, 34.719166068], [-85.870509531, 34.718951976], [-85.871740574, 34.719120062], [-85.873521226, 34.720591859], [-85.874594036, 34.721350971]]]}, "properties": {"arm": "182", "name": "Kizzort Branch", "comid": 19645402, "kind": "aboveHead"}}