{"type": "Feature", "geometry": {"type": "Polygon", "coordinates": [[[-85.873902548, 34.722306639], [-85.872089108, 34.722028975], [-85.871121511, 34.722362155], [-85.870495614, 34.723567957], [-85.870074068, 34.72404973], [-85.869298449, 34.727573227], [-85.86837541, 34.72863097], [-85.867388871, 34.729185856], [-85.862917353, 34.72913008], [-85.861417606, 34.730270389], [-85.859877451, 34.732425014], [-85.860138961, 34.734397049], [-85.859957839, 34.735179978], [-85.857493663, 34.736154174], [-85.856980333, 34.736543629], [-85.856457834, 34.736333799], [-85.853329174, 34.736265968], [-85.851150825, 34.737924516], [-85.851115618, 34.738191193], [-85.850787196, 34.738162604], [-85.850751987, 34.73842928], [-85.850423564, 34.738400691], [-85.850388354, 34.738667367], [-85.85005993, 34.738638777], [-85.849826014, 34.739309625], [-85.848378096, 34.740584956], [-85.847902134, 34.741300054], [-85.846375622, 34.742482119], [-85.84588896, 34.743474449], [-85.846099638, 34.744885753], [-85.846012152, 34.746648306], [-85.845941694, 34.74718165], [-85.846270153, 34.747210252], [-85.846234925, 34.747476924], [-85.845906465, 34.747448322], [-85.845109165, 34.747235591], [-85.842185645, 34.747124253], [-85.841185324, 34.746640926], [-85.840293189, 34.746006855], [-85.838076312, 34.744732598], [-85.835225241, 34.742170188], [-85.834887364, 34.74150641], [-85.835140049, 34.738417939], [-85.835309055, 34.7379838], [-85.835839442, 34.737309313], [-85.836318469, 34.73537434], [-85.836583651, 34.735037094], [-85.83792769, 34.734391378], [-85.839351874, 34.7341994], [-85.839918844, 34.733561803], [-85.840708849, 34.7328467], [-85.842014378, 34.730979516], [-85.843324712, 34.730646917], [-85.843727784, 34.730070891], [-85.845115291, 34.729428889], [-85.846163145, 34.729275705], [-85.847565535, 34.728776167], [-85.850615885, 34.7280197], [-85.851663709, 34.727866467], [-85.8520702, 34.727067333], [-85.852670197, 34.726099593], [-85.852684325, 34.723928117], [-85.853829863, 34.723309215], [-85.85369673, 34.721152312], [-85.854924013, 34.721427725], [-85.856753774, 34.720735581], [-85.860241032, 34.72079453], [-85.861848234, 34.719290581], [-85.862984199, 34.718723449], [-85.866829158, 34.719748984], [-85.867869537, 34.719788846], [-85.869723707, 34.719166068], [-85.870509531, 34.718951976], [-85.871740574, 34.719120062], [-85.873521226, 34.720591859], [-85.874594036, 34.721350971], [-85.874388633, 34.721748273], [-85.873902548, 34.722306639]]]}, "properties": {"arm": "182", "name": "Kizzort Branch", "comid": 19646568, "kind": "atMouth"}}