{"type": "Feature", "geometry": {"type": "Polygon", "coordinates": [[[-85.803133577, 34.760273771], [-85.802770665, 34.761091328], [-85.803498286, 34.762162289], [-85.803756972, 34.763088984], [-85.805068768, 34.763827451], [-85.805742498, 34.763719857], [-85.805808927, 34.765156588], [-85.805998144, 34.765276389], [-85.807478675, 34.764567039], [-85.808820887, 34.76513531], [-85.809318731, 34.765296824], [-85.810040708, 34.766215503], [-85.811437385, 34.766843289], [-85.811097698, 34.768014822], [-85.811118308, 34.76897548], [-85.812897225, 34.769775718], [-85.815195855, 34.771826716], [-85.815228125, 34.773365799], [-85.813916034, 34.774018307], [-85.812661345, 34.775902299], [-85.811246199, 34.776606895], [-85.809726963, 34.775962099], [-85.808496677, 34.776427822], [-85.8076534, 34.778145405], [-85.808634565, 34.779381747], [-85.808826982, 34.780319472], [-85.809443461, 34.78080112], [-85.809567323, 34.780963669], [-85.809531953, 34.78123032], [-85.809587918, 34.781924313], [-85.810874251, 34.783562388], [-85.810461709, 34.784988853], [-85.810538298, 34.786173546], [-85.809845703, 34.786382794], [-85.808242426, 34.788307942], [-85.806211757, 34.789108342], [-85.804691403, 34.78995752], [-85.803258697, 34.791046147], [-85.801977264, 34.790310374], [-85.800200822, 34.790270991], [-85.800007352, 34.790378411], [-85.799518568, 34.790792975], [-85.79789727, 34.791599529], [-85.796589277, 34.793586186], [-85.79533503, 34.795480593], [-85.793834423, 34.797117416], [-85.79387498, 34.799118734], [-85.793367582, 34.800317689], [-85.791682209, 34.801643298], [-85.790941444, 34.802408788], [-85.7896726, 34.803570614], [-85.78861155, 34.806080348], [-85.787480328, 34.807085608], [-85.784315296, 34.809455423], [-85.784260686, 34.810373662], [-85.783990047, 34.810826232], [-85.783451759, 34.810888693], [-85.782195575, 34.811406708], [-85.781422461, 34.813077583], [-85.780206193, 34.81427132], [-85.779533649, 34.814366263], [-85.777597101, 34.815271411], [-85.775660275, 34.815436824], [-85.775047504, 34.816936264], [-85.774020961, 34.818557501], [-85.772291035, 34.820445845], [-85.769723921, 34.821771886], [-85.769465594, 34.822501571], [-85.769097767, 34.824247939], [-85.768149836, 34.825043617], [-85.767462912, 34.826532307], [-85.766729233, 34.827260355], [-85.766072109, 34.827550459], [-85.765760484, 34.827841349], [-85.763930002, 34.828551188], [-85.760824121, 34.828613867], [-85.759975502, 34.828897679], [-85.757877772, 34.828610381], [-85.756128028, 34.83023336], [-85.756773037, 34.831339429], [-85.756021, 34.832242828], [-85.755383156, 34.833088807], [-85.749869107, 34.83641281], [-85.749525459, 34.838285594], [-85.749403998, 34.839720585], [-85.749008321, 34.839997734], [-85.748821527, 34.840111989], [-85.747765386, 34.839340677], [-85.745225336, 34.838607609], [-85.744212557, 34.837901181], [-85.74243822, 34.837020355], [-85.741340525, 34.835821735], [-85.740000359, 34.835659705], [-85.738628811, 34.836101833], [-85.736427301, 34.834567993], [-85.735297549, 34.833823793], [-85.734411013, 34.832232711], [-85.732242599, 34.829753336], [-85.732446733, 34.82935402], [-85.733228787, 34.828480785], [-85.73319002, 34.825933703], [-85.732579482, 34.824339462], [-85.731582633, 34.823613215], [-85.729792294, 34.82248627], [-85.729780768, 34.819678125], [-85.729482568, 34.818216704], [-85.729999594, 34.817809096], [-85.731141818, 34.817195171], [-85.73089201, 34.815974045], [-85.731449292, 34.814429836], [-85.731949036, 34.813626604], [-85.731954446, 34.81300327], [-85.732097036, 34.812461551], [-85.731321658, 34.810391229], [-85.731629598, 34.809467853], [-85.732092666, 34.808180887], [-85.733726604, 34.807346775], [-85.736456031, 34.806421434], [-85.737877746, 34.804394741], [-85.740161677, 34.802058181], [-85.740165907, 34.801443171], [-85.740764788, 34.800829866], [-85.741259873, 34.80099352], [-85.743013882, 34.802525999], [-85.744258709, 34.80308641], [-85.745337461, 34.802692286], [-85.747037818, 34.799918659], [-85.749859566, 34.7998357], [-85.751485789, 34.797460138], [-85.751098365, 34.796762259], [-85.751075859, 34.79471183], [-85.75222192, 34.793461613], [-85.752767126, 34.7917308], [-85.751635932, 34.789696783], [-85.752148519, 34.787937811], [-85.753799239, 34.786135494], [-85.754510252, 34.783900789], [-85.756596788, 34.782821642], [-85.758325787, 34.78216418], [-85.759764936, 34.780992317], [-85.760482008, 34.779236513], [-85.761593929, 34.777479533], [-85.761373963, 34.775934412], [-85.760752401, 34.775610094], [-85.760675565, 34.775173423], [-85.759177821, 34.773473966], [-85.758988632, 34.772867257], [-85.758550553, 34.772179685], [-85.76109818, 34.771865939], [-85.762681026, 34.767528564], [-85.765687687, 34.764858804], [-85.766106843, 34.762861851], [-85.767008815, 34.762561647], [-85.767317883, 34.762268426], [-85.767736818, 34.762086003], [-85.768773101, 34.761108419], [-85.769407403, 34.75973729], [-85.770497736, 34.758821337], [-85.770877763, 34.757994813], [-85.771779659, 34.75769457], [-85.771892031, 34.757864596], [-85.772685384, 34.758418899], [-85.774328099, 34.758267904], [-85.775127373, 34.756533975], [-85.77647216, 34.756377905], [-85.778470804, 34.755248574], [-85.77900025, 34.754390869], [-85.780404509, 34.754294764], [-85.780559001, 34.754148135], [-85.780446616, 34.753978117], [-85.780085377, 34.75372728], [-85.779837464, 34.75233147], [-85.779306772, 34.751071041], [-85.779470415, 34.750933645], [-85.780282269, 34.750743472], [-85.782022371, 34.74987805], [-85.782510989, 34.749463541], [-85.783960252, 34.749457752], [-85.784678402, 34.74790212], [-85.786252919, 34.747793474], [-85.786735826, 34.747675605], [-85.787064265, 34.747704373], [-85.787099698, 34.747437718], [-85.787954533, 34.747392462], [-85.790095077, 34.74693081], [-85.793629182, 34.745103237], [-85.795078703, 34.744899238], [-85.795465417, 34.745740244], [-85.79566476, 34.745490042], [-85.796321626, 34.745547526], [-85.796434034, 34.745717531], [-85.797296319, 34.746319851], [-85.797857612, 34.746491196], [-85.797242987, 34.748696612], [-85.797935671, 34.75110492], [-85.800808106, 34.754302392], [-85.80052792, 34.754926976], [-85.80019651, 34.756406912], [-85.800714178, 34.756555452], [-85.800785002, 34.75811482], [-85.803740678, 34.759709378], [-85.803133577, 34.760273771]]]}, "properties": {"arm": "186", "name": "Dry Creek", "comid": 19646192, "kind": "aboveHead"}}