{"type": "Feature", "geometry": {"type": "Polygon", "coordinates": [[[-86.391187311, 34.42128695], [-86.391841859, 34.421341111], [-86.391742253, 34.422141898], [-86.391527551, 34.422227368], [-86.391036763, 34.424137695], [-86.390507724, 34.425109415], [-86.390029842, 34.427933062], [-86.389467347, 34.428571235], [-86.386484568, 34.430970544], [-86.386585804, 34.431693141], [-86.38691312, 34.431720235], [-86.386580878, 34.434389476], [-86.386257631, 34.435346607], [-86.383719713, 34.437241224], [-86.383779087, 34.43832062], [-86.38277218, 34.439912175], [-86.382928506, 34.440980636], [-86.383313412, 34.442101729], [-86.381978758, 34.443295341], [-86.381476391, 34.444776969], [-86.380601997, 34.445220731], [-86.379017154, 34.446637984], [-86.378534856, 34.44735649], [-86.377748145, 34.448070846], [-86.376595596, 34.449315304], [-86.376610172, 34.449841108], [-86.375926166, 34.450601885], [-86.374951441, 34.452056993], [-86.374660063, 34.453088362], [-86.374332661, 34.453061235], [-86.37416611, 34.453194911], [-86.373164995, 34.453741892], [-86.372336924, 34.456900899], [-86.373535836, 34.457897744], [-86.373537316, 34.458694236], [-86.372822104, 34.459269119], [-86.37222427, 34.459358627], [-86.371080013, 34.459415488], [-86.369571561, 34.45940844], [-86.367757409, 34.459013657], [-86.366436385, 34.459306527], [-86.365242571, 34.458352163], [-86.363799196, 34.458672779], [-86.361122477, 34.457051799], [-86.359688063, 34.456431354], [-86.360048373, 34.454973827], [-86.359552133, 34.451414221], [-86.359574337, 34.450615462], [-86.360149077, 34.449944723], [-86.358966893, 34.449271443], [-86.357314025, 34.44895306], [-86.357549557, 34.448287883], [-86.358385793, 34.446888815], [-86.358042289, 34.446287236], [-86.35683362, 34.445247239], [-86.357361453, 34.444496769], [-86.358135684, 34.443593987], [-86.357881031, 34.443191504], [-86.357248632, 34.442648105], [-86.357928036, 34.439959248], [-86.358539623, 34.438434073], [-86.357931356, 34.437283785], [-86.357865093, 34.436593546], [-86.358345182, 34.436473279], [-86.360273108, 34.436386806], [-86.362200787, 34.435577622], [-86.363205637, 34.433922829], [-86.364156651, 34.433879539], [-86.366095244, 34.43281627], [-86.367133447, 34.432653776], [-86.367629577, 34.432549552], [-86.368250915, 34.432870764], [-86.36960714, 34.431525279], [-86.369945882, 34.430963445], [-86.370699335, 34.43020424], [-86.370974742, 34.4295908], [-86.371207204, 34.429218195], [-86.372289373, 34.427002996], [-86.371019301, 34.425399699], [-86.372762551, 34.423911401], [-86.373376435, 34.423587269], [-86.373974269, 34.422459081], [-86.376158661, 34.421285415], [-86.379862872, 34.420559989], [-86.386017408, 34.420319671], [-86.38844405, 34.420663825], [-86.391220515, 34.42102002], [-86.391187311, 34.42128695]]]}, "properties": {"arm": "19", "name": "Tennessee River", "comid": 19650268, "kind": "atMouth"}}