{"type": "Feature", "geometry": {"type": "Polygon", "coordinates": [[[-86.440385844, 34.274863249], [-86.443026831, 34.274124457], [-86.443608949, 34.274191427], [-86.444758518, 34.273963835], [-86.447051158, 34.274334061], [-86.447510829, 34.275079934], [-86.44721621, 34.276130262], [-86.447508614, 34.277458648], [-86.447610281, 34.279350755], [-86.447457839, 34.279896564], [-86.447487416, 34.280910397], [-86.446618967, 34.281700605], [-86.446258481, 34.282239799], [-86.445833733, 34.282714696], [-86.445080839, 34.284260322], [-86.444622882, 34.284502807], [-86.44426237, 34.285041993], [-86.443178686, 34.286029354], [-86.442658784, 34.287337114], [-86.441859976, 34.2880635], [-86.442170807, 34.288615898], [-86.442392254, 34.289203065], [-86.442558807, 34.289336901], [-86.442514791, 34.290591186], [-86.44268772, 34.290965751], [-86.443771382, 34.291712498], [-86.446184037, 34.293516947], [-86.446403469, 34.29412079], [-86.446833691, 34.294813643], [-86.44701617, 34.295361761], [-86.447193265, 34.298627504], [-86.448266996, 34.299246951], [-86.448785119, 34.299165326], [-86.449808401, 34.298689163], [-86.451756036, 34.29860097], [-86.452615069, 34.30002021], [-86.453633667, 34.301484184], [-86.455875386, 34.301521269], [-86.456755032, 34.302021404], [-86.457452544, 34.303747559], [-86.45995939, 34.304918869], [-86.460551985, 34.305258394], [-86.462697414, 34.305763592], [-86.46447458, 34.305134407], [-86.467576024, 34.305960439], [-86.468262284, 34.305749277], [-86.468883281, 34.306067914], [-86.472363358, 34.307422177], [-86.474976564, 34.308150985], [-86.476566887, 34.309269777], [-86.477672749, 34.309756708], [-86.477448046, 34.310136464], [-86.477436288, 34.310546349], [-86.477348696, 34.310943686], [-86.477329028, 34.311732168], [-86.478487244, 34.313868892], [-86.477215177, 34.314396504], [-86.475902462, 34.314583657], [-86.474851458, 34.314823898], [-86.473610387, 34.314429079], [-86.47268802, 34.314043576], [-86.471690139, 34.314271299], [-86.47041419, 34.314452984], [-86.469780655, 34.3154291], [-86.468750319, 34.316317816], [-86.467075391, 34.316555163], [-86.46448183, 34.317150978], [-86.46014146, 34.316557991], [-86.460016979, 34.316396049], [-86.45779862, 34.316877207], [-86.457347817, 34.317227788], [-86.457531414, 34.317809669], [-86.454401108, 34.317946024], [-86.453317506, 34.317445958], [-86.450377565, 34.314932553], [-86.448022384, 34.314599497], [-86.447814929, 34.31469197], [-86.4467843, 34.31587336], [-86.445378949, 34.314950589], [-86.444175834, 34.315251771], [-86.442716539, 34.315350626], [-86.440652716, 34.314371408], [-86.438841053, 34.314002904], [-86.43847803, 34.31435223], [-86.43757948, 34.31471428], [-86.435176644, 34.314349638], [-86.432954813, 34.313626937], [-86.431384561, 34.314456057], [-86.430338892, 34.31460996], [-86.428395791, 34.315408271], [-86.427746451, 34.316736876], [-86.427757207, 34.3171086], [-86.427164527, 34.319229904], [-86.426736648, 34.319706586], [-86.425949865, 34.321019618], [-86.425074866, 34.321815464], [-86.423925125, 34.321600423], [-86.423202767, 34.32187157], [-86.422156982, 34.322025398], [-86.42048867, 34.322456488], [-86.417808538, 34.322475253], [-86.416940244, 34.322799622], [-86.415866423, 34.322013447], [-86.415111463, 34.3220269], [-86.414702847, 34.322368178], [-86.413507852, 34.322372639], [-86.412908129, 34.323444004], [-86.41170808, 34.323572345], [-86.411317694, 34.324682083], [-86.411103283, 34.324767599], [-86.410595774, 34.324616067], [-86.410088421, 34.323859822], [-86.408179425, 34.32279801], [-86.40733254, 34.32213798], [-86.405835496, 34.321769709], [-86.404930481, 34.320101885], [-86.4032208, 34.320179536], [-86.400538236, 34.320945708], [-86.398789523, 34.319757923], [-86.39844561, 34.319244816], [-86.397416349, 34.318828771], [-86.396583965, 34.318281525], [-86.393461812, 34.31791333], [-86.393626775, 34.317478185], [-86.393888102, 34.317139521], [-86.392403793, 34.315859741], [-86.391183605, 34.313554588], [-86.391083994, 34.313131231], [-86.390340828, 34.312157256], [-86.388477254, 34.31071322], [-86.387625015, 34.309226572], [-86.386495405, 34.308353269], [-86.386125278, 34.307865327], [-86.386323612, 34.307763774], [-86.388846399, 34.30763791], [-86.390828251, 34.305263096], [-86.391778599, 34.303384334], [-86.391288073, 34.301955071], [-86.391529268, 34.301570491], [-86.391832876, 34.300683262], [-86.393257529, 34.29938744], [-86.39320022, 34.297252363], [-86.393695242, 34.296235598], [-86.394409598, 34.294158143], [-86.3960303, 34.294128079], [-86.397120099, 34.294780978], [-86.400203608, 34.294496961], [-86.401558642, 34.293781069], [-86.402275132, 34.291975577], [-86.403245903, 34.291092991], [-86.403698598, 34.29041615], [-86.405210876, 34.28915906], [-86.405994743, 34.288743518], [-86.406160222, 34.287408642], [-86.407460901, 34.286401619], [-86.409797888, 34.285771123], [-86.410184153, 34.284235369], [-86.412078425, 34.283431235], [-86.413343275, 34.28325351], [-86.414469887, 34.282817803], [-86.415609923, 34.281565625], [-86.416692088, 34.280593117], [-86.416920453, 34.280477143], [-86.418078256, 34.280684554], [-86.419007058, 34.281283912], [-86.42024734, 34.277991846], [-86.421345714, 34.277033281], [-86.423534514, 34.276596786], [-86.424557452, 34.27608078], [-86.425119709, 34.273994816], [-86.424771826, 34.273034715], [-86.425098486, 34.273061707], [-86.42513151, 34.272794721], [-86.426703318, 34.272134407], [-86.428721843, 34.27259404], [-86.430380597, 34.27177229], [-86.431470091, 34.272239435], [-86.432299902, 34.270948854], [-86.433907492, 34.270164976], [-86.436149885, 34.27058607], [-86.437051912, 34.270963939], [-86.438370514, 34.271308747], [-86.43911522, 34.271791616], [-86.438773648, 34.272302854], [-86.439130903, 34.27325103], [-86.439291211, 34.274123956], [-86.440385844, 34.274863249]]]}, "properties": {"arm": "193", "name": "Mink Creek", "comid": 19649406, "kind": "aboveHead"}}