{"type": "Feature", "geometry": {"type": "Polygon", "coordinates": [[[-85.674234659, 34.927143491], [-85.67442417, 34.927880948], [-85.680060797, 34.934508973], [-85.683326388, 34.935092242], [-85.684651648, 34.935493679], [-85.685481605, 34.936365583], [-85.686289538, 34.936569626], [-85.686253669, 34.936836197], [-85.686582878, 34.936865241], [-85.68654701, 34.937131812], [-85.68687622, 34.937160855], [-85.687539493, 34.938188725], [-85.687720394, 34.938314263], [-85.68745386, 34.9386511], [-85.687247713, 34.939351504], [-85.686918493, 34.939322462], [-85.686882625, 34.939589032], [-85.684921937, 34.940640394], [-85.683875469, 34.940796719], [-85.683356763, 34.941189266], [-85.682318243, 34.942659131], [-85.68284803, 34.943673136], [-85.682861668, 34.945853286], [-85.683069462, 34.94742259], [-85.682700038, 34.948987319], [-85.679440782, 34.951464444], [-85.67902673, 34.95225817], [-85.677388447, 34.953618158], [-85.676863146, 34.954619107], [-85.675803652, 34.954677291], [-85.67516976, 34.955575925], [-85.675157815, 34.956978327], [-85.674324725, 34.957423159], [-85.673886452, 34.958280057], [-85.672176547, 34.958373497], [-85.671408447, 34.958644931], [-85.67056877, 34.960277672], [-85.670564255, 34.960890496], [-85.669717298, 34.962248641], [-85.669131051, 34.963642455], [-85.667123681, 34.963932927], [-85.6656354, 34.965103728], [-85.66626722, 34.967831604], [-85.666372433, 34.969290714], [-85.663889528, 34.969804644], [-85.66268752, 34.970743625], [-85.661626216, 34.970118777], [-85.660539572, 34.96977827], [-85.659457224, 34.971315736], [-85.659054619, 34.973006016], [-85.657090126, 34.97405665], [-85.656753289, 34.97400579], [-85.655909722, 34.973985977], [-85.655329184, 34.975913387], [-85.655168228, 34.975774821], [-85.65425169, 34.974694893], [-85.6530661, 34.97421913], [-85.650462788, 34.974157384], [-85.649563856, 34.972851378], [-85.648946529, 34.971292117], [-85.646966782, 34.969641753], [-85.642815493, 34.966625259], [-85.642195136, 34.96572527], [-85.642134839, 34.965035039], [-85.64270605, 34.964006666], [-85.648081085, 34.958331245], [-85.648633202, 34.957655192], [-85.649228121, 34.955756445], [-85.650161114, 34.953744319], [-85.65041346, 34.953090193], [-85.650623585, 34.952999209], [-85.651086048, 34.952254097], [-85.652612186, 34.951940298], [-85.655771353, 34.950057688], [-85.658139793, 34.947205225], [-85.659000818, 34.94535737], [-85.658844416, 34.944934709], [-85.659440329, 34.944627059], [-85.661163972, 34.942809122], [-85.660655848, 34.940401836], [-85.661773567, 34.939409071], [-85.662507771, 34.938635268], [-85.66330611, 34.937926137], [-85.664295077, 34.936884035], [-85.663850939, 34.936086115], [-85.663686091, 34.935108474], [-85.665202654, 34.934534487], [-85.665742867, 34.934639145], [-85.66660806, 34.934321553], [-85.666577682, 34.932597153], [-85.668322696, 34.9311772], [-85.669236897, 34.930707978], [-85.669889594, 34.929726733], [-85.670315377, 34.92954098], [-85.672800045, 34.927149511], [-85.674234659, 34.927143491]]]}, "properties": {"arm": "194", "name": "Glover Creek", "comid": 19644542, "kind": "atMouth"}}