{"type": "Feature", "geometry": {"type": "Polygon", "coordinates": [[[-85.655230767, 34.981520617], [-85.65723107, 34.98294501], [-85.657478729, 34.983618056], [-85.658913614, 34.984775369], [-85.659779118, 34.984459925], [-85.662774494, 34.985034428], [-85.664443557, 34.98603956], [-85.665460681, 34.986375969], [-85.666646896, 34.987003354], [-85.665985262, 34.98926288], [-85.665993544, 34.989741956], [-85.66742745, 34.990386991], [-85.668267711, 34.991455815], [-85.668593769, 34.992340146], [-85.669000379, 34.993071438], [-85.6699704, 34.993390993], [-85.669150911, 34.994079342], [-85.667942342, 34.994678538], [-85.667469773, 34.996019145], [-85.666408526, 34.997147609], [-85.665956652, 34.998431036], [-85.665725784, 34.998501255], [-85.665322085, 34.99900294], [-85.664860343, 34.999143375], [-85.664912306, 34.999839135], [-85.665187589, 35.000655766], [-85.664299535, 35.001909088], [-85.663898813, 35.002716578], [-85.663241619, 35.003417122], [-85.662687362, 35.004242654], [-85.661268566, 35.004911725], [-85.659654063, 35.005043001], [-85.658323571, 35.005578659], [-85.65812317, 35.005982393], [-85.657316513, 35.006381008], [-85.65612602, 35.008155425], [-85.655570086, 35.010072324], [-85.655332971, 35.010439092], [-85.654344437, 35.010351701], [-85.653454499, 35.01036363], [-85.652526249, 35.010639782], [-85.65196582, 35.010680836], [-85.651451166, 35.010074801], [-85.648057023, 35.009995852], [-85.646913885, 35.009818859], [-85.644752669, 35.009773028], [-85.644294117, 35.010120183], [-85.643187124, 35.010407841], [-85.641075284, 35.011999439], [-85.639324532, 35.011595789], [-85.638309548, 35.011010714], [-85.636041313, 35.010080732], [-85.635852587, 35.009800608], [-85.634946122, 35.00954963], [-85.634606155, 35.00957852], [-85.633035538, 35.009114862], [-85.63285456, 35.00898925], [-85.632719466, 35.008043754], [-85.633699698, 35.00698002], [-85.634392535, 35.004613805], [-85.631243367, 35.004650877], [-85.630333407, 35.003425974], [-85.6296003, 35.002107155], [-85.629108812, 35.00077392], [-85.62767733, 35.000438402], [-85.627520229, 34.998079032], [-85.62914259, 34.997312492], [-85.630722702, 34.997646419], [-85.631224768, 34.99763191], [-85.631559154, 34.997701583], [-85.632758874, 34.997382221], [-85.633041305, 34.996758197], [-85.633449127, 34.994746029], [-85.633977363, 34.994672717], [-85.635925076, 34.993964422], [-85.636833248, 34.993008077], [-85.637632388, 34.992299161], [-85.637835152, 34.991897767], [-85.639110378, 34.991365877], [-85.639919879, 34.991273197], [-85.640209171, 34.990828887], [-85.640146998, 34.989497886], [-85.641257529, 34.988565755], [-85.643152836, 34.988474369], [-85.643614909, 34.987541703], [-85.645016123, 34.987020911], [-85.645706692, 34.985322442], [-85.647445173, 34.984926305], [-85.64791843, 34.983910323], [-85.649499514, 34.983059805], [-85.651508633, 34.982394647], [-85.650908792, 34.981437548], [-85.651993458, 34.980425071], [-85.652829666, 34.980056512], [-85.653547712, 34.97938669], [-85.654531855, 34.979349407], [-85.654586565, 34.98004333], [-85.654883914, 34.980579593], [-85.655230767, 34.981520617]]]}, "properties": {"arm": "198", "name": "Graham Branch", "comid": 19696133, "kind": "aboveHead"}}