{"type": "Feature", "geometry": {"type": "Polygon", "coordinates": [[[-85.769481946, 34.960253154], [-85.771434509, 34.96171346], [-85.773166101, 34.962001851], [-85.773824799, 34.962059449], [-85.773948877, 34.962222005], [-85.77567283, 34.96297745], [-85.776872491, 34.96294115], [-85.777525788, 34.963078321], [-85.77836459, 34.962995714], [-85.778892059, 34.963783487], [-85.779838309, 34.96369551], [-85.780198501, 34.964234778], [-85.780308502, 34.964893352], [-85.780350082, 34.965596516], [-85.780628621, 34.967118943], [-85.781516624, 34.96836592], [-85.782841437, 34.97065187], [-85.783716143, 34.973014365], [-85.78265976, 34.976640939], [-85.781916533, 34.977450421], [-85.781512582, 34.978253717], [-85.780643792, 34.979496797], [-85.780406242, 34.98016503], [-85.783012676, 34.981315557], [-85.785143346, 34.983086066], [-85.788712249, 34.983736853], [-85.790592825, 34.983751389], [-85.792117463, 34.98397503], [-85.79315738, 34.984514543], [-85.793899469, 34.985491592], [-85.794921012, 34.98628653], [-85.795440901, 34.987309496], [-85.797159883, 34.988479171], [-85.79750103, 34.988987194], [-85.797860579, 34.989239774], [-85.798119042, 34.989801684], [-85.798188833, 34.990998181], [-85.797183421, 34.992642402], [-85.797138935, 34.993934278], [-85.795378685, 34.995946687], [-85.795328044, 34.997421326], [-85.79486356, 34.999226474], [-85.794611134, 34.999948199], [-85.793791703, 35.001172482], [-85.793354373, 35.001639996], [-85.792990538, 35.002181341], [-85.792588729, 35.002382266], [-85.791646571, 35.003393567], [-85.790634777, 35.003442248], [-85.790033253, 35.004047125], [-85.789432925, 35.004955499], [-85.789966729, 35.005581474], [-85.791323726, 35.006753313], [-85.792526777, 35.007321772], [-85.793219528, 35.009061391], [-85.793053062, 35.009196462], [-85.79209903, 35.009690541], [-85.791482629, 35.010660727], [-85.791832081, 35.012298768], [-85.79057814, 35.012756144], [-85.789436721, 35.013033704], [-85.789468704, 35.014532389], [-85.78905084, 35.015966545], [-85.789643783, 35.016989549], [-85.790236263, 35.01782078], [-85.790646638, 35.019744342], [-85.792003247, 35.021468101], [-85.791205032, 35.023058702], [-85.789842869, 35.024541116], [-85.789871332, 35.025870927], [-85.787931475, 35.027328215], [-85.787527325, 35.028131491], [-85.786363991, 35.029079218], [-85.785026529, 35.030492106], [-85.784040479, 35.030852717], [-85.782498355, 35.030558007], [-85.781464383, 35.030809071], [-85.779568177, 35.031566351], [-85.776185432, 35.031612288], [-85.774800734, 35.03103626], [-85.773644807, 35.030815195], [-85.773114158, 35.030886824], [-85.772384781, 35.031665862], [-85.771417624, 35.032508397], [-85.769599534, 35.032231543], [-85.769021523, 35.031877635], [-85.766534142, 35.031306261], [-85.764967229, 35.030865879], [-85.765074148, 35.030066171], [-85.764744511, 35.03003735], [-85.765793356, 35.026576781], [-85.764722266, 35.023636669], [-85.765019112, 35.022215162], [-85.764737682, 35.021280356], [-85.764744659, 35.020058941], [-85.763157036, 35.019677799], [-85.761530405, 35.017757255], [-85.759965982, 35.015138394], [-85.759818991, 35.014503979], [-85.759774718, 35.0138027], [-85.759296347, 35.012471378], [-85.760104185, 35.012371399], [-85.76032084, 35.011939464], [-85.761473256, 35.010723434], [-85.76296966, 35.009505881], [-85.762783069, 35.008680483], [-85.761386321, 35.007555371], [-85.761162233, 35.005841755], [-85.760613935, 35.00485828], [-85.760494433, 35.003356079], [-85.760231903, 35.002553521], [-85.76014058, 35.002126238], [-85.759017924, 35.001640305], [-85.758146331, 35.000990918], [-85.757477318, 35.000696376], [-85.757388865, 35.000267233], [-85.758377386, 35.000353758], [-85.758626922, 34.998487728], [-85.75798502, 34.997932183], [-85.757318871, 34.997149062], [-85.756996503, 34.996872215], [-85.756766843, 34.996291645], [-85.755598642, 34.994861951], [-85.755023985, 34.993901403], [-85.75369587, 34.992752661], [-85.751839911, 34.990099598], [-85.751459654, 34.989769197], [-85.746364311, 34.992953182], [-85.74443767, 34.995439195], [-85.741551262, 34.995776134], [-85.739968556, 34.995226482], [-85.737571165, 34.994207119], [-85.735553761, 34.992820693], [-85.734709099, 34.992885654], [-85.734379633, 34.992856746], [-85.733018514, 34.992539247], [-85.731250528, 34.991235727], [-85.729158344, 34.991262785], [-85.726151547, 34.988478696], [-85.725159029, 34.988151321], [-85.724159085, 34.987549361], [-85.721818232, 34.987101408], [-85.720517247, 34.988995181], [-85.71926013, 34.989455746], [-85.716731163, 34.987887031], [-85.716304109, 34.987343783], [-85.715803721, 34.986939477], [-85.71529633, 34.986296446], [-85.714962746, 34.986026906], [-85.714457249, 34.988395129], [-85.711736765, 34.98930009], [-85.710837737, 34.989440167], [-85.710424255, 34.989222587], [-85.710250473, 34.988849089], [-85.710286283, 34.988582525], [-85.709956844, 34.988553549], [-85.709992655, 34.988286985], [-85.709663217, 34.988258008], [-85.709558774, 34.987155215], [-85.708718586, 34.986683057], [-85.706324324, 34.98591612], [-85.705910016, 34.98510423], [-85.70567507, 34.984527266], [-85.703738584, 34.984055517], [-85.704473152, 34.98091517], [-85.70492866, 34.980160858], [-85.705182167, 34.975968823], [-85.70578243, 34.974970171], [-85.705818249, 34.974703605], [-85.705672981, 34.973692017], [-85.705640988, 34.971914953], [-85.705918696, 34.971475814], [-85.706463662, 34.9712372], [-85.706947375, 34.969787883], [-85.707527144, 34.968941243], [-85.71062956, 34.968579959], [-85.71158233, 34.969007246], [-85.711541376, 34.96830406], [-85.711431959, 34.967645424], [-85.713113094, 34.967243328], [-85.716208939, 34.965494808], [-85.717251091, 34.96533358], [-85.717718004, 34.964453798], [-85.7178647, 34.960062697], [-85.718732485, 34.959260299], [-85.719387837, 34.957499417], [-85.719472071, 34.956076045], [-85.720177133, 34.954603997], [-85.721438839, 34.953872034], [-85.721668408, 34.953441275], [-85.722069903, 34.951592741], [-85.723806738, 34.950946769], [-85.724816226, 34.950095678], [-85.726156023, 34.949789863], [-85.726662345, 34.949507737], [-85.727378682, 34.946784976], [-85.728555386, 34.945442824], [-85.728026719, 34.944435502], [-85.728072852, 34.942945556], [-85.730590441, 34.942958105], [-85.732158234, 34.942250821], [-85.732888503, 34.940471166], [-85.731729538, 34.939467504], [-85.731456017, 34.938284524], [-85.732248872, 34.937844219], [-85.732686997, 34.937001891], [-85.733988806, 34.935811862], [-85.73326338, 34.935185535], [-85.733176906, 34.93353854], [-85.732464598, 34.932542488], [-85.732638297, 34.932100481], [-85.733573544, 34.930926727], [-85.735188939, 34.930444855], [-85.736407138, 34.93046121], [-85.736519684, 34.930631239], [-85.737383572, 34.931233884], [-85.738456253, 34.931559842], [-85.739304088, 34.932224276], [-85.740870113, 34.93261669], [-85.741136637, 34.933463988], [-85.741317614, 34.933589444], [-85.741452981, 34.933744611], [-85.741365403, 34.93523513], [-85.743824175, 34.936093553], [-85.744426728, 34.936432988], [-85.745785719, 34.936486874], [-85.746714703, 34.937537648], [-85.744918893, 34.942888248], [-85.745828307, 34.945389124], [-85.746749086, 34.946599301], [-85.747657013, 34.947886305], [-85.747115078, 34.950011241], [-85.7472847, 34.950144113], [-85.747835278, 34.950872991], [-85.749964539, 34.951805579], [-85.750352933, 34.952891077], [-85.751796271, 34.953776141], [-85.752792491, 34.954520863], [-85.753112019, 34.956082836], [-85.753566287, 34.957435365], [-85.754020111, 34.958168364], [-85.755192865, 34.958138361], [-85.76054738, 34.958312325], [-85.762357366, 34.958500289], [-85.766935184, 34.958759778], [-85.767247069, 34.959172661], [-85.768021667, 34.959512246], [-85.76859913, 34.959866185], [-85.769481946, 34.960253154]]]}, "properties": {"arm": "200", "name": "Jones Creek", "comid": 19644436, "kind": "aboveHead"}}