{"type": "Feature", "geometry": {"type": "Polygon", "coordinates": [[[-86.358753244, 34.389741479], [-86.360028464, 34.390117096], [-86.36004779, 34.391224873], [-86.360785981, 34.392428168], [-86.360986811, 34.394130434], [-86.361309321, 34.39465025], [-86.361374749, 34.396320196], [-86.361813226, 34.39700766], [-86.361270574, 34.397093234], [-86.359348057, 34.40031106], [-86.358754863, 34.40175353], [-86.35823596, 34.401834743], [-86.356922763, 34.401555], [-86.355418357, 34.401958872], [-86.352872534, 34.404332596], [-86.351675969, 34.409074978], [-86.350423556, 34.410230856], [-86.349712831, 34.410420404], [-86.348729436, 34.410766373], [-86.346546485, 34.410728159], [-86.345734967, 34.410608006], [-86.345075331, 34.410595291], [-86.343085026, 34.410297017], [-86.339619987, 34.410617666], [-86.339168998, 34.409762626], [-86.33942411, 34.408631328], [-86.339445829, 34.407796658], [-86.340270788, 34.404359254], [-86.343268996, 34.404237865], [-86.345611717, 34.402251979], [-86.346265897, 34.400964225], [-86.347992083, 34.398206428], [-86.348023819, 34.396980684], [-86.34879366, 34.395386481], [-86.34977302, 34.394264807], [-86.350228249, 34.393617876], [-86.353738163, 34.39162774], [-86.354921149, 34.390383889], [-86.356023983, 34.389533697], [-86.358191142, 34.389859131], [-86.358753244, 34.389741479]]]}, "properties": {"arm": "202", "name": "Dripping Spring Branch", "comid": 19649042, "kind": "aboveHead"}}