{"type": "Feature", "geometry": {"type": "Polygon", "coordinates": [[[-86.360028464, 34.390117096], [-86.36004779, 34.391224873], [-86.360785981, 34.392428168], [-86.360986811, 34.394130434], [-86.361309321, 34.39465025], [-86.361374749, 34.396320196], [-86.361813226, 34.39700766], [-86.361270574, 34.397093234], [-86.359348057, 34.40031106], [-86.358754863, 34.40175353], [-86.35823596, 34.401834743], [-86.357886516, 34.402399885], [-86.35793724, 34.404331973], [-86.356785632, 34.406688825], [-86.356072321, 34.409216919], [-86.356598859, 34.410792411], [-86.35667615, 34.411683751], [-86.356261237, 34.413497081], [-86.35387596, 34.414706376], [-86.352837314, 34.415949565], [-86.350833877, 34.416065418], [-86.349952674, 34.41786737], [-86.347924568, 34.419441244], [-86.34745351, 34.420771604], [-86.347036582, 34.421255253], [-86.346571077, 34.422168895], [-86.345821289, 34.423042043], [-86.345450261, 34.423571643], [-86.344864469, 34.424186626], [-86.340687042, 34.422741482], [-86.338260463, 34.421178501], [-86.336205735, 34.418812043], [-86.337155938, 34.417679611], [-86.335983629, 34.417118508], [-86.33538509, 34.416782138], [-86.334741477, 34.416475725], [-86.333984763, 34.41599976], [-86.334289374, 34.415051689], [-86.334240465, 34.411809164], [-86.332301449, 34.409532282], [-86.332202037, 34.409108922], [-86.333233339, 34.408339353], [-86.335035196, 34.40727363], [-86.336382681, 34.405999392], [-86.335778596, 34.404840816], [-86.335262524, 34.404382771], [-86.33515352, 34.402673332], [-86.334075516, 34.401711268], [-86.335767819, 34.400941935], [-86.337755082, 34.400808167], [-86.338245041, 34.400442294], [-86.339460044, 34.399751177], [-86.340283263, 34.398578651], [-86.341060636, 34.397855315], [-86.341531665, 34.396524946], [-86.342417385, 34.395698944], [-86.343073785, 34.394765364], [-86.343991492, 34.393910407], [-86.345405269, 34.393631892], [-86.347063622, 34.394578912], [-86.34879366, 34.395386481], [-86.34977302, 34.394264807], [-86.350228249, 34.393617876], [-86.353738163, 34.39162774], [-86.354921149, 34.390383889], [-86.356023983, 34.389533697], [-86.358191142, 34.389859131], [-86.358753244, 34.389741479], [-86.360028464, 34.390117096]]]}, "properties": {"arm": "202", "name": "Dripping Spring Branch", "comid": 19650322, "kind": "atMouth"}}