{"type": "Feature", "geometry": {"type": "Polygon", "coordinates": [[[-85.738460478, 34.863916972], [-85.737143301, 34.865251082], [-85.741718997, 34.870055277], [-85.74696419, 34.87512661], [-85.747223698, 34.875714143], [-85.748145053, 34.876330263], [-85.748717508, 34.876930506], [-85.749470831, 34.877656195], [-85.749755644, 34.877957242], [-85.750222678, 34.878198415], [-85.750796216, 34.878031689], [-85.751696005, 34.878751246], [-85.752260684, 34.879974536], [-85.752467191, 34.880083264], [-85.752089574, 34.880437876], [-85.751199176, 34.880621062], [-85.74983444, 34.88118197], [-85.747622808, 34.881386164], [-85.747354202, 34.880983279], [-85.746826853, 34.881057109], [-85.745039334, 34.881979132], [-85.744706782, 34.882249173], [-85.742253148, 34.883348694], [-85.741920235, 34.884282492], [-85.741390567, 34.884353989], [-85.740039953, 34.884652621], [-85.738702758, 34.884695328], [-85.736460977, 34.884190728], [-85.735304515, 34.88397111], [-85.734154619, 34.884188269], [-85.727666158, 34.883839168], [-85.7236789, 34.883338864], [-85.722068878, 34.882215202], [-85.720783556, 34.881754396], [-85.720385089, 34.881040767], [-85.720292974, 34.879399466], [-85.721958762, 34.878087764], [-85.722371973, 34.877293826], [-85.722830996, 34.876546065], [-85.723811832, 34.8738633], [-85.727332744, 34.87112368], [-85.727734815, 34.870897731], [-85.728264685, 34.870105606], [-85.727985183, 34.867571166], [-85.727976978, 34.866603167], [-85.729697654, 34.865713457], [-85.730437947, 34.864242292], [-85.731070834, 34.863554045], [-85.733385307, 34.863432998], [-85.73504455, 34.862826525], [-85.737662551, 34.862748934], [-85.737828797, 34.862613921], [-85.73881553, 34.862700623], [-85.738460478, 34.863916972]]]}, "properties": {"arm": "214", "name": "Crooked Branch", "comid": 19646346, "kind": "atMouth"}}