{"type": "Feature", "geometry": {"type": "Polygon", "coordinates": [[[-86.084417203, 34.442637377], [-86.086485062, 34.442676933], [-86.088454123, 34.443043112], [-86.088913399, 34.443472194], [-86.089525843, 34.444137739], [-86.090481015, 34.446986364], [-86.090135411, 34.448933682], [-86.090664511, 34.450007271], [-86.097846488, 34.451772592], [-86.101730993, 34.452685358], [-86.103110362, 34.454185375], [-86.104014497, 34.458525719], [-86.104504191, 34.459787629], [-86.104628158, 34.459949923], [-86.105293816, 34.460242656], [-86.105869094, 34.460595125], [-86.108310516, 34.461051723], [-86.110203421, 34.462218124], [-86.111601308, 34.462667987], [-86.113845492, 34.463615549], [-86.115155293, 34.464470913], [-86.115222241, 34.465159399], [-86.115080212, 34.467802598], [-86.115421141, 34.468935865], [-86.115555051, 34.470312828], [-86.116423112, 34.471448787], [-86.116782367, 34.472318075], [-86.117853695, 34.474411183], [-86.116327158, 34.475731185], [-86.115491992, 34.475953057], [-86.113629629, 34.477895627], [-86.113016357, 34.478585228], [-86.112606644, 34.47877585], [-86.11213754, 34.479207975], [-86.111398111, 34.479368426], [-86.111052702, 34.479924871], [-86.108856511, 34.481565007], [-86.109012968, 34.482967065], [-86.108147642, 34.484956492], [-86.107836432, 34.485427331], [-86.106117891, 34.485135612], [-86.105452022, 34.484560508], [-86.104946483, 34.483965334], [-86.102861082, 34.483469518], [-86.101251195, 34.480516947], [-86.100105891, 34.479789265], [-86.099582012, 34.478914323], [-86.098800707, 34.478453666], [-86.098478116, 34.476957332], [-86.098361449, 34.47556916], [-86.098003924, 34.474929655], [-86.098271149, 34.473995675], [-86.097715735, 34.473004226], [-86.097496963, 34.471988782], [-86.096905363, 34.471158617], [-86.097120952, 34.468329894], [-86.097223663, 34.467529405], [-86.097311204, 34.465315657], [-86.094684829, 34.464748232], [-86.093536789, 34.464104512], [-86.092781989, 34.463740886], [-86.090673332, 34.461356649], [-86.08894843, 34.459810147], [-86.088293773, 34.459754287], [-86.087395798, 34.4595196], [-86.086237664, 34.459458695], [-86.085557249, 34.45912033], [-86.085012601, 34.458530116], [-86.083368823, 34.458124252], [-86.082600635, 34.457704611], [-86.081064978, 34.458207831], [-86.08036923, 34.457828081], [-86.078579386, 34.457734221], [-86.076480733, 34.45724725], [-86.07465255, 34.457150053], [-86.073934901, 34.456759959], [-86.071923005, 34.457146493], [-86.070368556, 34.45731288], [-86.069446322, 34.458553328], [-86.065278336, 34.458597336], [-86.062606977, 34.45814121], [-86.061028336, 34.457009284], [-86.059902872, 34.456293361], [-86.059236311, 34.455507111], [-86.056828559, 34.454932195], [-86.053845134, 34.45487275], [-86.051046132, 34.454445453], [-86.049553493, 34.454753847], [-86.048318727, 34.454565861], [-86.047121076, 34.455694048], [-86.046338406, 34.455869346], [-86.045210168, 34.455376431], [-86.044635953, 34.454616966], [-86.041158818, 34.454797289], [-86.039238863, 34.455231198], [-86.03816034, 34.454774087], [-86.036370199, 34.454302286], [-86.03609646, 34.453939482], [-86.036130901, 34.453672666], [-86.035803617, 34.453644588], [-86.036039642, 34.453177985], [-86.037412445, 34.45119449], [-86.039889013, 34.449130718], [-86.040648554, 34.448272734], [-86.041385853, 34.447206294], [-86.042232946, 34.446250429], [-86.042808063, 34.44411628], [-86.043433098, 34.443238316], [-86.044541423, 34.442260574], [-86.045245376, 34.441191253], [-86.047376041, 34.439179886], [-86.048580561, 34.438718284], [-86.049322435, 34.438617468], [-86.050137431, 34.438811653], [-86.051405528, 34.439320745], [-86.055206621, 34.44013108], [-86.056751765, 34.43959319], [-86.058152475, 34.440598298], [-86.05956525, 34.440967935], [-86.060942482, 34.440489382], [-86.062537133, 34.440731235], [-86.065716004, 34.440653374], [-86.068142808, 34.440152825], [-86.070861801, 34.442102983], [-86.075182019, 34.443300544], [-86.075945056, 34.443738784], [-86.077294055, 34.444102743], [-86.07838939, 34.442558792], [-86.079981294, 34.441655786], [-86.082080401, 34.441150141], [-86.084417203, 34.442637377]]]}, "properties": {"arm": "217", "name": "Berry Branch", "comid": 19648840, "kind": "aboveHead"}}