{"type": "Feature", "geometry": {"type": "Polygon", "coordinates": [[[-85.662258735, 35.03925358], [-85.663097386, 35.040414921], [-85.663165344, 35.041339635], [-85.663129346, 35.041606171], [-85.663788643, 35.041664381], [-85.663614997, 35.041792336], [-85.663261285, 35.04346578], [-85.663885315, 35.045560579], [-85.664368794, 35.046515648], [-85.666563228, 35.04757748], [-85.669473765, 35.050131071], [-85.671859899, 35.051820757], [-85.672007694, 35.054452912], [-85.67165802, 35.055035234], [-85.671302098, 35.056107955], [-85.671495391, 35.057572574], [-85.67161666, 35.058952875], [-85.672781641, 35.061175342], [-85.672140972, 35.062484226], [-85.671461491, 35.064080461], [-85.670349724, 35.064920051], [-85.669961036, 35.065134402], [-85.667741715, 35.066936131], [-85.666760256, 35.067968397], [-85.665818653, 35.068801893], [-85.66508194, 35.069874707], [-85.663613341, 35.071173703], [-85.663810612, 35.072550177], [-85.66329781, 35.073566886], [-85.662820084, 35.07490275], [-85.661510423, 35.0769153], [-85.661307558, 35.077316701], [-85.660571388, 35.076821877], [-85.660060406, 35.076667202], [-85.659443138, 35.075967943], [-85.658503749, 35.075838651], [-85.657391107, 35.075795192], [-85.656419315, 35.074362948], [-85.657475067, 35.072165774], [-85.65761072, 35.071528769], [-85.657135032, 35.070380539], [-85.6561633, 35.069835373], [-85.653569563, 35.068580104], [-85.649884096, 35.064411069], [-85.648145643, 35.064986477], [-85.646681406, 35.063843506], [-85.64581766, 35.063541676], [-85.646122127, 35.062717313], [-85.647407078, 35.061254777], [-85.646754832, 35.060006579], [-85.647059716, 35.05871657], [-85.646370383, 35.058320587], [-85.645292222, 35.057812251], [-85.645637976, 35.056355177], [-85.644567378, 35.054385133], [-85.644406277, 35.054246563], [-85.643215955, 35.054259285], [-85.642635218, 35.055430071], [-85.641170379, 35.055121382], [-85.640022668, 35.055550848], [-85.638862884, 35.054683325], [-85.636243282, 35.053547513], [-85.634090487, 35.052141099], [-85.632548292, 35.05173062], [-85.632301299, 35.05051397], [-85.630848267, 35.04942652], [-85.629746211, 35.04917298], [-85.629402864, 35.048417689], [-85.62987633, 35.046577889], [-85.630545374, 35.045737369], [-85.631432848, 35.045419814], [-85.633584528, 35.044466141], [-85.637296869, 35.041379021], [-85.638618568, 35.039932463], [-85.638729978, 35.038146985], [-85.638086319, 35.036876261], [-85.6364599, 35.036551065], [-85.636916103, 35.035645312], [-85.638607751, 35.034275757], [-85.641493832, 35.035228667], [-85.642744726, 35.036152731], [-85.645304976, 35.036644732], [-85.646688804, 35.037222282], [-85.649883923, 35.037182421], [-85.653615385, 35.037897887], [-85.656476166, 35.037632329], [-85.658323193, 35.037675403], [-85.658592492, 35.037340976], [-85.659054474, 35.037200571], [-85.661743882, 35.037566645], [-85.662258735, 35.03925358]]]}, "properties": {"arm": "218", "name": "Glover Branch", "comid": 19643308, "kind": "aboveHead"}}