{"type": "Feature", "geometry": {"type": "Polygon", "coordinates": [[[-86.192852413, 34.355608435], [-86.192976399, 34.355770655], [-86.194026579, 34.356588618], [-86.19514074, 34.357268671], [-86.196308709, 34.35821669], [-86.196335546, 34.359409664], [-86.196510258, 34.359782695], [-86.196921742, 34.359998708], [-86.196624276, 34.361204315], [-86.196324011, 34.362106213], [-86.196222463, 34.362906886], [-86.195962114, 34.363555049], [-86.195888652, 34.36614941], [-86.196236174, 34.366808899], [-86.196467258, 34.367389001], [-86.197634125, 34.368815271], [-86.197732751, 34.369238765], [-86.196521495, 34.369526294], [-86.194819616, 34.370160113], [-86.19385325, 34.370959341], [-86.191932019, 34.371835902], [-86.191767618, 34.371971631], [-86.189579891, 34.372180755], [-86.187951011, 34.372401275], [-86.186794947, 34.37209065], [-86.186239425, 34.372134283], [-86.183549828, 34.372960472], [-86.182708387, 34.372531012], [-86.181227283, 34.373417252], [-86.180671748, 34.373460857], [-86.180468836, 34.373858851], [-86.179236679, 34.374898906], [-86.178251308, 34.376292817], [-86.173753677, 34.378095327], [-86.170868209, 34.379423092], [-86.170497639, 34.380691999], [-86.170824664, 34.380719701], [-86.170722828, 34.381520335], [-86.170524023, 34.381621511], [-86.170165735, 34.382164386], [-86.167403074, 34.384189509], [-86.166165759, 34.386261654], [-86.166637533, 34.387648289], [-86.165847569, 34.388660358], [-86.165615154, 34.389329796], [-86.165188102, 34.389803606], [-86.164791189, 34.390608729], [-86.164364126, 34.391082536], [-86.163760421, 34.393025005], [-86.162776734, 34.394604395], [-86.162578254, 34.395006951], [-86.160999977, 34.396731918], [-86.160306382, 34.398141997], [-86.158334483, 34.399772445], [-86.157640812, 34.401182503], [-86.156537456, 34.401651619], [-86.154986694, 34.401800381], [-86.154008648, 34.401144195], [-86.151176912, 34.401007208], [-86.149118131, 34.401371999], [-86.146555478, 34.400947942], [-86.145321357, 34.400497541], [-86.144127526, 34.400845061], [-86.14437038, 34.401674947], [-86.143433043, 34.403291856], [-86.142370848, 34.403943475], [-86.14373084, 34.405209638], [-86.143880534, 34.406628018], [-86.1441168, 34.407448909], [-86.144176244, 34.410830077], [-86.143920973, 34.411777824], [-86.14323922, 34.412463862], [-86.140930418, 34.411829451], [-86.139771728, 34.412932279], [-86.139330341, 34.413657681], [-86.138618169, 34.413974417], [-86.138465034, 34.414121574], [-86.136928519, 34.413771863], [-86.135262969, 34.411843221], [-86.135105125, 34.409842474], [-86.133427173, 34.408416416], [-86.132539141, 34.408026917], [-86.132074024, 34.406733431], [-86.13163627, 34.40664142], [-86.130976366, 34.406893007], [-86.129796083, 34.406910668], [-86.128400941, 34.406648717], [-86.126999715, 34.404797184], [-86.125316173, 34.404447435], [-86.124522187, 34.404474721], [-86.123197088, 34.4034431], [-86.122784202, 34.402267804], [-86.122180591, 34.401291239], [-86.121613861, 34.399622326], [-86.121524078, 34.399193181], [-86.121856112, 34.398374219], [-86.121568222, 34.39745402], [-86.121439974, 34.396073213], [-86.119954139, 34.393997264], [-86.120030812, 34.3913778], [-86.120243828, 34.390439112], [-86.120306605, 34.388029209], [-86.120569866, 34.387303443], [-86.12181219, 34.385828543], [-86.121904908, 34.384133534], [-86.122570805, 34.381874016], [-86.124273201, 34.380273865], [-86.125176004, 34.37981749], [-86.12655397, 34.377723928], [-86.129191054, 34.37642665], [-86.129464876, 34.375859829], [-86.130486281, 34.375384001], [-86.131233577, 34.373434851], [-86.130587516, 34.371639048], [-86.131093355, 34.370872774], [-86.131715009, 34.370594765], [-86.132484892, 34.36986359], [-86.13331222, 34.369491367], [-86.133952917, 34.368881972], [-86.133867577, 34.368276166], [-86.134118561, 34.367665241], [-86.134908082, 34.366880925], [-86.136096908, 34.366872419], [-86.137090961, 34.366366818], [-86.138370977, 34.365906595], [-86.139332047, 34.364991414], [-86.14065371, 34.364831873], [-86.14113369, 34.364712491], [-86.141628827, 34.363705006], [-86.143435695, 34.362210434], [-86.145731896, 34.360907044], [-86.14859712, 34.358703541], [-86.150552589, 34.358228902], [-86.150517919, 34.356900307], [-86.152103507, 34.35628886], [-86.152493187, 34.355965766], [-86.153663536, 34.355938667], [-86.155898276, 34.355175735], [-86.158787774, 34.35565697], [-86.159663316, 34.355349786], [-86.161752934, 34.355219341], [-86.162649626, 34.355354403], [-86.163308762, 34.355368152], [-86.164018052, 34.355474666], [-86.164672143, 34.357110773], [-86.166133733, 34.356438049], [-86.168523952, 34.355567937], [-86.170745265, 34.355355763], [-86.171334608, 34.355045318], [-86.174190935, 34.352680324], [-86.177646347, 34.35096243], [-86.178942552, 34.350654905], [-86.179074957, 34.350811534], [-86.18075815, 34.351603152], [-86.181330716, 34.353029924], [-86.184049141, 34.354309535], [-86.186181505, 34.354898817], [-86.187553868, 34.355699848], [-86.187924275, 34.355425598], [-86.191871635, 34.355525509], [-86.192198561, 34.355553152], [-86.1921647, 34.355820044], [-86.192852413, 34.355608435]]]}, "properties": {"arm": "224", "name": "Dry Creek", "comid": 19650362, "kind": "atMouth"}}