{"type": "Feature", "geometry": {"type": "Polygon", "coordinates": [[[-86.351115884, 34.428842137], [-86.351946083, 34.429269289], [-86.35247952, 34.429404203], [-86.352728395, 34.429728274], [-86.354405748, 34.431026404], [-86.353881695, 34.431829854], [-86.352767372, 34.432394648], [-86.35258558, 34.435194371], [-86.356148602, 34.43579368], [-86.357865093, 34.436593546], [-86.357931356, 34.437283785], [-86.358539623, 34.438434073], [-86.357928036, 34.439959248], [-86.357248632, 34.442648105], [-86.357881031, 34.443191504], [-86.358135684, 34.443593987], [-86.357361453, 34.444496769], [-86.35683362, 34.445247239], [-86.358042289, 34.446287236], [-86.358385793, 34.446888815], [-86.357549557, 34.448287883], [-86.357314025, 34.44895306], [-86.356809257, 34.449208225], [-86.35558615, 34.451076595], [-86.35282469, 34.450468062], [-86.352700219, 34.450306031], [-86.35049688, 34.449078016], [-86.349274407, 34.448169526], [-86.346970041, 34.448515309], [-86.345789176, 34.448535158], [-86.344705735, 34.449759803], [-86.342711282, 34.450561071], [-86.341581103, 34.451084426], [-86.341546947, 34.452307794], [-86.341034483, 34.453388154], [-86.340504969, 34.455059129], [-86.339427671, 34.456315844], [-86.338259212, 34.458218103], [-86.337432707, 34.458688725], [-86.334229734, 34.458818378], [-86.333027934, 34.460077326], [-86.332524923, 34.460791842], [-86.330249324, 34.462719886], [-86.329162069, 34.464260119], [-86.329616869, 34.465705371], [-86.329478938, 34.466311206], [-86.328355879, 34.467620908], [-86.326708156, 34.469156603], [-86.326662305, 34.470945737], [-86.326168372, 34.473133686], [-86.326404379, 34.473890738], [-86.325219398, 34.475136265], [-86.325668343, 34.476566279], [-86.323249236, 34.4779429], [-86.322631427, 34.478829007], [-86.322442333, 34.482481302], [-86.323107287, 34.485838107], [-86.322799907, 34.486804837], [-86.322174085, 34.487981016], [-86.321520954, 34.48931293], [-86.321549691, 34.490341354], [-86.321363126, 34.49100422], [-86.320459289, 34.492273114], [-86.320568846, 34.492842656], [-86.321876005, 34.493615157], [-86.321289262, 34.495180131], [-86.321040223, 34.495557584], [-86.321122138, 34.496512477], [-86.322504088, 34.498256112], [-86.322670884, 34.498390087], [-86.322339071, 34.499860408], [-86.321551309, 34.500574342], [-86.320659595, 34.502054924], [-86.316131474, 34.502137083], [-86.313336145, 34.502856469], [-86.311746198, 34.502214117], [-86.310747988, 34.501616851], [-86.309974807, 34.501472342], [-86.309171869, 34.501894194], [-86.308217395, 34.503481129], [-86.307299874, 34.503497331], [-86.304987981, 34.503064361], [-86.303292608, 34.503487589], [-86.301276778, 34.504238009], [-86.299902869, 34.503626156], [-86.298781949, 34.501701754], [-86.297954162, 34.501333493], [-86.297826902, 34.501173284], [-86.295502507, 34.501107774], [-86.294153043, 34.502604757], [-86.293564431, 34.503480526], [-86.292109183, 34.50320731], [-86.290745698, 34.503232488], [-86.28890749, 34.50263228], [-86.287208823, 34.503265694], [-86.285878877, 34.502716331], [-86.285206123, 34.502965608], [-86.283657185, 34.503190108], [-86.283074039, 34.503836639], [-86.282558599, 34.5046026], [-86.282020379, 34.504317421], [-86.280888718, 34.503487504], [-86.278548575, 34.504716089], [-86.276576454, 34.506348338], [-86.274806224, 34.507281099], [-86.273143039, 34.508656815], [-86.271523551, 34.508803627], [-86.2705313, 34.509021876], [-86.269624051, 34.508853238], [-86.266289024, 34.509682287], [-86.264362732, 34.510599729], [-86.262923446, 34.509543715], [-86.261295226, 34.509984626], [-86.260784094, 34.510837252], [-86.261525296, 34.512239347], [-86.261383065, 34.512874257], [-86.260441128, 34.51273425], [-86.259667259, 34.513004417], [-86.259597588, 34.515522672], [-86.253958832, 34.519472564], [-86.25246238, 34.521161177], [-86.251876655, 34.521988552], [-86.251830549, 34.523642831], [-86.250990771, 34.524617455], [-86.250618607, 34.525146691], [-86.249839111, 34.525869318], [-86.249274749, 34.526506742], [-86.248935644, 34.526242331], [-86.248176675, 34.525247424], [-86.245655269, 34.523337749], [-86.245203273, 34.523352503], [-86.244608128, 34.523230936], [-86.243657482, 34.522647615], [-86.241332074, 34.521725573], [-86.239310358, 34.522185851], [-86.238471912, 34.522903462], [-86.237851313, 34.522472108], [-86.23733477, 34.520380777], [-86.237947706, 34.518889948], [-86.237588697, 34.518354133], [-86.236519655, 34.518032599], [-86.235656504, 34.517433369], [-86.235497988, 34.516560413], [-86.23516163, 34.515661983], [-86.235722376, 34.514297406], [-86.235112993, 34.513022069], [-86.232855083, 34.511488137], [-86.232389214, 34.510795829], [-86.23170826, 34.50977993], [-86.230456892, 34.508775085], [-86.229479254, 34.507100024], [-86.228143299, 34.506273452], [-86.226680181, 34.505042158], [-86.225439229, 34.504486913], [-86.225422548, 34.503842868], [-86.226493641, 34.502656074], [-86.22643313, 34.500316399], [-86.227112233, 34.499794066], [-86.22920767, 34.498604876], [-86.229244984, 34.497227908], [-86.2315079, 34.49512356], [-86.231276046, 34.493441623], [-86.233579249, 34.492141299], [-86.238522282, 34.490352618], [-86.239292168, 34.488845437], [-86.239848705, 34.487920837], [-86.238519674, 34.485712713], [-86.239133787, 34.483004072], [-86.238977033, 34.480502483], [-86.241737058, 34.47836597], [-86.24224538, 34.477371988], [-86.242057743, 34.476279528], [-86.243204341, 34.475124222], [-86.242683996, 34.473902684], [-86.243373146, 34.473686635], [-86.244557338, 34.47217206], [-86.246139447, 34.471272427], [-86.247514049, 34.469723241], [-86.247347445, 34.469589154], [-86.24631379, 34.46766292], [-86.24531741, 34.466403525], [-86.242117078, 34.464440686], [-86.241640339, 34.463835945], [-86.241860849, 34.463154915], [-86.242584047, 34.462075724], [-86.24295987, 34.461249705], [-86.243920946, 34.460108309], [-86.246746156, 34.457960317], [-86.247100655, 34.457282099], [-86.247334166, 34.456313479], [-86.247825319, 34.455903796], [-86.248224888, 34.454500304], [-86.248487312, 34.454162022], [-86.250500002, 34.454638599], [-86.252379923, 34.455982651], [-86.255548529, 34.457847756], [-86.25887589, 34.45839441], [-86.260946117, 34.457965368], [-86.262429448, 34.456410392], [-86.263290293, 34.456573152], [-86.264120305, 34.457000916], [-86.26530854, 34.457191098], [-86.268130537, 34.455944185], [-86.270431849, 34.453536867], [-86.273216423, 34.452790292], [-86.273835833, 34.451915059], [-86.275561995, 34.450932314], [-86.276307558, 34.449875891], [-86.278168912, 34.448434559], [-86.279115889, 34.447091564], [-86.281292646, 34.445853576], [-86.28147228, 34.445432449], [-86.282261384, 34.444316425], [-86.281922302, 34.443478951], [-86.282448448, 34.443404978], [-86.284212272, 34.442551694], [-86.286087573, 34.443174205], [-86.286663941, 34.443152876], [-86.288231256, 34.441806911], [-86.289297148, 34.441550481], [-86.289459231, 34.441412326], [-86.290464888, 34.441860918], [-86.29192459, 34.441719559], [-86.2926801, 34.442842538], [-86.294054757, 34.44325451], [-86.29449515, 34.443451443], [-86.29515011, 34.442558015], [-86.294624154, 34.441726043], [-86.296233932, 34.441007208], [-86.295980271, 34.439530065], [-86.297191359, 34.438940147], [-86.298678275, 34.438828374], [-86.299487741, 34.439892603], [-86.300505232, 34.440679215], [-86.302560175, 34.439809951], [-86.304566781, 34.438213917], [-86.306444288, 34.437460412], [-86.307642069, 34.432878618], [-86.307560039, 34.43159703], [-86.307981238, 34.4312466], [-86.309165442, 34.430951416], [-86.310149329, 34.430584723], [-86.310869517, 34.430404615], [-86.312443405, 34.429577234], [-86.315156262, 34.429618098], [-86.314691309, 34.428133917], [-86.317593108, 34.42648171], [-86.319649272, 34.426278091], [-86.319818155, 34.426146787], [-86.321601787, 34.426674719], [-86.323284368, 34.427514463], [-86.323417196, 34.427670913], [-86.325288328, 34.428305103], [-86.32727156, 34.430004189], [-86.327730994, 34.429863364], [-86.328614137, 34.429846317], [-86.329593948, 34.430130182], [-86.33108431, 34.42988556], [-86.331419109, 34.429976644], [-86.332421763, 34.429727218], [-86.333176212, 34.429933295], [-86.333917579, 34.429748492], [-86.334252881, 34.428617574], [-86.341142531, 34.428870565], [-86.342727546, 34.428054263], [-86.351115884, 34.428842137]]]}, "properties": {"arm": "225", "name": "Honeycomb Creek", "comid": 19650230, "kind": "atMouth"}}