{"type": "Feature", "geometry": {"type": "Polygon", "coordinates": [[[-86.248487312, 34.454162022], [-86.250500002, 34.454638599], [-86.252379923, 34.455982651], [-86.255548529, 34.457847756], [-86.25887589, 34.45839441], [-86.260946117, 34.457965368], [-86.262429448, 34.456410392], [-86.263290293, 34.456573152], [-86.264120305, 34.457000916], [-86.26530854, 34.457191098], [-86.265150087, 34.460005471], [-86.265752261, 34.461543497], [-86.265149485, 34.462141956], [-86.264207055, 34.463301919], [-86.263746953, 34.463096906], [-86.263396311, 34.463130731], [-86.26213848, 34.462692396], [-86.261272372, 34.462775717], [-86.260018141, 34.462411405], [-86.259250328, 34.462186895], [-86.258414817, 34.462007272], [-86.258448496, 34.461740394], [-86.258121099, 34.46171294], [-86.257372876, 34.461230891], [-86.256384884, 34.460907827], [-86.255635026, 34.460459341], [-86.253854985, 34.460124599], [-86.253238348, 34.460136077], [-86.252596768, 34.459751437], [-86.250146421, 34.45899376], [-86.247594608, 34.457443672], [-86.247100655, 34.457282099], [-86.247334166, 34.456313479], [-86.247825319, 34.455903796], [-86.248224888, 34.454500304], [-86.248487312, 34.454162022]]]}, "properties": {"arm": "225", "name": "Honeycomb Creek", "comid": 19648852, "kind": "aboveHead"}}