{"type": "Feature", "geometry": {"type": "Polygon", "coordinates": [[[-86.256852011, 34.434186978], [-86.258576007, 34.434510711], [-86.258835959, 34.435071938], [-86.2596599, 34.435259046], [-86.26175838, 34.435953381], [-86.264429447, 34.43585705], [-86.265405043, 34.436583603], [-86.266071106, 34.436875426], [-86.266195375, 34.437037552], [-86.26767113, 34.437281336], [-86.268252614, 34.437629271], [-86.269240359, 34.437952243], [-86.270409207, 34.438888789], [-86.27106967, 34.439184324], [-86.271651184, 34.439532241], [-86.273989331, 34.440294871], [-86.274395285, 34.441380291], [-86.275055784, 34.441675804], [-86.275637335, 34.442023699], [-86.27729004, 34.442402267], [-86.279144348, 34.441897972], [-86.281834646, 34.443292518], [-86.281922302, 34.443478951], [-86.282261384, 34.444316425], [-86.28147228, 34.445432449], [-86.281292646, 34.445853576], [-86.279115889, 34.447091564], [-86.278168912, 34.448434559], [-86.276307558, 34.449875891], [-86.275561995, 34.450932314], [-86.273835833, 34.451915059], [-86.273216423, 34.452790292], [-86.270431849, 34.453536867], [-86.268130537, 34.455944185], [-86.26530854, 34.457191098], [-86.264120305, 34.457000916], [-86.263290293, 34.456573152], [-86.262429448, 34.456410392], [-86.260946117, 34.457965368], [-86.25887589, 34.45839441], [-86.255548529, 34.457847756], [-86.252379923, 34.455982651], [-86.250500002, 34.454638599], [-86.248487312, 34.454162022], [-86.248054127, 34.453826449], [-86.249494392, 34.452061505], [-86.251219963, 34.451188613], [-86.251544305, 34.450912413], [-86.25027634, 34.449307845], [-86.24880238, 34.447595358], [-86.247129156, 34.445476294], [-86.245764629, 34.444657929], [-86.24459064, 34.444274866], [-86.24384267, 34.443792721], [-86.245061896, 34.442713032], [-86.245387948, 34.442034529], [-86.245954714, 34.44170074], [-86.248527168, 34.439788562], [-86.250148475, 34.438388588], [-86.252828977, 34.436744573], [-86.250212694, 34.434318788], [-86.253002244, 34.432608071], [-86.255035769, 34.432464773], [-86.255387543, 34.432216151], [-86.255572604, 34.432101038], [-86.255665988, 34.432528192], [-86.256852011, 34.434186978]]]}, "properties": {"arm": "227", "name": "McCorkle Branch", "comid": 19650202, "kind": "atMouth"}}