{"type": "Feature", "geometry": {"type": "Polygon", "coordinates": [[[-86.2596599, 34.435259046], [-86.26175838, 34.435953381], [-86.264429447, 34.43585705], [-86.265405043, 34.436583603], [-86.266071106, 34.436875426], [-86.266195375, 34.437037552], [-86.26767113, 34.437281336], [-86.268252614, 34.437629271], [-86.269240359, 34.437952243], [-86.270409207, 34.438888789], [-86.27106967, 34.439184324], [-86.271651184, 34.439532241], [-86.273989331, 34.440294871], [-86.274395285, 34.441380291], [-86.275055784, 34.441675804], [-86.275637335, 34.442023699], [-86.27729004, 34.442402267], [-86.279144348, 34.441897972], [-86.281834646, 34.443292518], [-86.281922302, 34.443478951], [-86.282261384, 34.444316425], [-86.28147228, 34.445432449], [-86.281292646, 34.445853576], [-86.279115889, 34.447091564], [-86.278168912, 34.448434559], [-86.276307558, 34.449875891], [-86.275561995, 34.450932314], [-86.273835833, 34.451915059], [-86.273216423, 34.452790292], [-86.270431849, 34.453536867], [-86.268130537, 34.455944185], [-86.26530854, 34.457191098], [-86.264120305, 34.457000916], [-86.263290293, 34.456573152], [-86.262429448, 34.456410392], [-86.260946117, 34.457965368], [-86.25887589, 34.45839441], [-86.255548529, 34.457847756], [-86.252379923, 34.455982651], [-86.250500002, 34.454638599], [-86.248487312, 34.454162022], [-86.248054127, 34.453826449], [-86.249494392, 34.452061505], [-86.251219963, 34.451188613], [-86.251544305, 34.450912413], [-86.252397162, 34.450564675], [-86.253445017, 34.450412396], [-86.255457353, 34.449662542], [-86.257186066, 34.44814928], [-86.256703729, 34.447896005], [-86.256578502, 34.446840383], [-86.255712544, 34.44583851], [-86.256860431, 34.438503058], [-86.257385093, 34.437826441], [-86.257825295, 34.436283034], [-86.258602656, 34.436040604], [-86.258835959, 34.435071938], [-86.2596599, 34.435259046]]]}, "properties": {"arm": "227", "name": "McCorkle Branch", "comid": 19648890, "kind": "aboveHead"}}