{"type": "Feature", "geometry": {"type": "Polygon", "coordinates": [[[-85.798576167, 34.802758269], [-85.80046661, 34.803819131], [-85.801603455, 34.805684423], [-85.805758323, 34.808024099], [-85.807302197, 34.809231564], [-85.808240304, 34.809836101], [-85.809066167, 34.81236321], [-85.810145855, 34.814191773], [-85.811183608, 34.814731221], [-85.811718757, 34.81486855], [-85.811851212, 34.815025514], [-85.81332401, 34.816300421], [-85.812621964, 34.816696423], [-85.812750697, 34.817116469], [-85.812513927, 34.817784878], [-85.811112444, 34.818126144], [-85.810622509, 34.819507887], [-85.809296578, 34.820591165], [-85.809261188, 34.820857805], [-85.808932429, 34.820829102], [-85.808721249, 34.821284799], [-85.807978762, 34.821984907], [-85.807769179, 34.822076185], [-85.807306135, 34.823019845], [-85.805703015, 34.82442869], [-85.805371757, 34.825103587], [-85.804448575, 34.825383299], [-85.804208385, 34.826350628], [-85.803670005, 34.826413181], [-85.802537612, 34.827504869], [-85.801201463, 34.827137375], [-85.800153824, 34.828314417], [-85.799734606, 34.828496943], [-85.799425395, 34.828790229], [-85.799215784, 34.828881491], [-85.799025749, 34.829294768], [-85.797652593, 34.830633], [-85.798091352, 34.831320384], [-85.798461825, 34.832052372], [-85.798288875, 34.832180552], [-85.79749784, 34.83263824], [-85.793998906, 34.83524676], [-85.792718717, 34.836548817], [-85.791372748, 34.837680744], [-85.790843522, 34.837986381], [-85.787826208, 34.840194329], [-85.78691746, 34.840070586], [-85.786558151, 34.840056013], [-85.786510178, 34.840846259], [-85.783616688, 34.842375864], [-85.782634924, 34.841824245], [-85.780235319, 34.841732236], [-85.779838079, 34.842021987], [-85.778469879, 34.840996078], [-85.775752573, 34.840265043], [-85.775017853, 34.839673873], [-85.77476963, 34.839000976], [-85.772125641, 34.836101515], [-85.771937145, 34.835214677], [-85.77113448, 34.833827273], [-85.767024575, 34.829450494], [-85.765760484, 34.827841349], [-85.766072109, 34.827550459], [-85.766729233, 34.827260355], [-85.767462912, 34.826532307], [-85.768149836, 34.825043617], [-85.769097767, 34.824247939], [-85.769465594, 34.822501571], [-85.769723921, 34.821771886], [-85.772291035, 34.820445845], [-85.774020961, 34.818557501], [-85.775047504, 34.816936264], [-85.775660275, 34.815436824], [-85.777597101, 34.815271411], [-85.779533649, 34.814366263], [-85.780206193, 34.81427132], [-85.781422461, 34.813077583], [-85.782195575, 34.811406708], [-85.783451759, 34.810888693], [-85.783990047, 34.810826232], [-85.784260686, 34.810373662], [-85.784315296, 34.809455423], [-85.787480328, 34.807085608], [-85.78861155, 34.806080348], [-85.7896726, 34.803570614], [-85.790941444, 34.802408788], [-85.791682209, 34.801643298], [-85.793367582, 34.800317689], [-85.793854242, 34.800486697], [-85.795080849, 34.80097119], [-85.796328305, 34.801670332], [-85.798576167, 34.802758269]]]}, "properties": {"arm": "232", "name": "Marshall Branch", "comid": 19645118, "kind": "aboveHead"}}