{"type": "Feature", "geometry": {"type": "Polygon", "coordinates": [[[-86.396583965, 34.318281525], [-86.397416349, 34.318828771], [-86.39844561, 34.319244816], [-86.398789523, 34.319757923], [-86.400538236, 34.320945708], [-86.4032208, 34.320179536], [-86.404930481, 34.320101885], [-86.405835496, 34.321769709], [-86.40733254, 34.32213798], [-86.408179425, 34.32279801], [-86.410088421, 34.323859822], [-86.410595774, 34.324616067], [-86.411103283, 34.324767599], [-86.411317694, 34.324682083], [-86.41170808, 34.323572345], [-86.412908129, 34.323444004], [-86.413507852, 34.322372639], [-86.414702847, 34.322368178], [-86.415111463, 34.3220269], [-86.415866423, 34.322013447], [-86.416940244, 34.322799622], [-86.417808538, 34.322475253], [-86.42048867, 34.322456488], [-86.422156982, 34.322025398], [-86.423202767, 34.32187157], [-86.423925125, 34.321600423], [-86.425074866, 34.321815464], [-86.425949865, 34.321019618], [-86.426736648, 34.319706586], [-86.427164527, 34.319229904], [-86.427757207, 34.3171086], [-86.427746451, 34.316736876], [-86.428395791, 34.315408271], [-86.430338892, 34.31460996], [-86.431384561, 34.314456057], [-86.432954813, 34.313626937], [-86.435176644, 34.314349638], [-86.43757948, 34.31471428], [-86.43847803, 34.31435223], [-86.438841053, 34.314002904], [-86.440652716, 34.314371408], [-86.442716539, 34.315350626], [-86.444175834, 34.315251771], [-86.445378949, 34.314950589], [-86.4467843, 34.31587336], [-86.447814929, 34.31469197], [-86.448022384, 34.314599497], [-86.450377565, 34.314932553], [-86.453317506, 34.317445958], [-86.454401108, 34.317946024], [-86.457531414, 34.317809669], [-86.457264203, 34.318742129], [-86.456629875, 34.319806611], [-86.455975374, 34.320574456], [-86.455933501, 34.322210217], [-86.452757949, 34.325094497], [-86.450695931, 34.326271062], [-86.448265331, 34.328154669], [-86.445690762, 34.329364788], [-86.443971099, 34.330253406], [-86.44359092, 34.33176437], [-86.44330648, 34.332604783], [-86.442279898, 34.332853086], [-86.441269897, 34.333342941], [-86.43894377, 34.334168866], [-86.437609323, 34.335320919], [-86.437954525, 34.336327006], [-86.43943834, 34.337473302], [-86.43981813, 34.337970242], [-86.438117098, 34.339311207], [-86.437466004, 34.341238059], [-86.437666062, 34.342520822], [-86.437036568, 34.343208462], [-86.436448948, 34.34412078], [-86.434218264, 34.344088547], [-86.433767197, 34.344439026], [-86.431311801, 34.34411641], [-86.42943349, 34.342613], [-86.427447618, 34.342750427], [-86.425626216, 34.343497666], [-86.424921149, 34.344065236], [-86.423670721, 34.344389725], [-86.422305305, 34.345100817], [-86.423397034, 34.34709986], [-86.423001734, 34.348666406], [-86.424015788, 34.34995951], [-86.42437368, 34.350945607], [-86.424420771, 34.351649], [-86.424535373, 34.352307398], [-86.424844739, 34.354060624], [-86.424825717, 34.355297933], [-86.424629608, 34.355401842], [-86.422970764, 34.357376068], [-86.423002148, 34.358539578], [-86.423776288, 34.359916094], [-86.423877421, 34.361475137], [-86.421871581, 34.363144699], [-86.420991628, 34.363267999], [-86.417724465, 34.364867069], [-86.41552537, 34.365199528], [-86.414018746, 34.365193055], [-86.412809885, 34.364284112], [-86.411828765, 34.36420304], [-86.411861873, 34.363936088], [-86.406775598, 34.363406101], [-86.405484583, 34.362328043], [-86.403277202, 34.362581627], [-86.401946242, 34.362220803], [-86.400623299, 34.362897256], [-86.399728448, 34.363202472], [-86.399046599, 34.362187378], [-86.396974123, 34.359567547], [-86.396528213, 34.358232732], [-86.396434143, 34.357805654], [-86.396235901, 34.357635433], [-86.394438335, 34.355442827], [-86.394154126, 34.352536909], [-86.392634625, 34.350683325], [-86.391746438, 34.349004211], [-86.39170916, 34.347975001], [-86.391441394, 34.347409209], [-86.39036197, 34.346854137], [-86.389388079, 34.34715272], [-86.38883285, 34.34719732], [-86.389121445, 34.346536444], [-86.388784919, 34.346004979], [-86.388604267, 34.3450292], [-86.388150614, 34.344713479], [-86.387572452, 34.344735101], [-86.386667523, 34.345330147], [-86.385108503, 34.345270463], [-86.384364033, 34.345425777], [-86.382461317, 34.345141609], [-86.378712553, 34.347270703], [-86.377827953, 34.348531096], [-86.376932018, 34.348513666], [-86.375872926, 34.347277451], [-86.374868252, 34.346703144], [-86.372551687, 34.346156909], [-86.37140474, 34.345336873], [-86.370916872, 34.345172057], [-86.371209387, 34.34479178], [-86.371016594, 34.344371215], [-86.371318169, 34.343172034], [-86.371734526, 34.342688253], [-86.372470566, 34.339222083], [-86.372953358, 34.338204396], [-86.373722648, 34.336336041], [-86.37574552, 34.333973299], [-86.376271173, 34.332942299], [-86.377019748, 34.332068862], [-86.377254757, 34.331403554], [-86.374512713, 34.331439389], [-86.371822317, 34.330687173], [-86.370100269, 34.329431631], [-86.367732073, 34.327315357], [-86.366998462, 34.32612078], [-86.365452626, 34.325688929], [-86.36618572, 34.324670978], [-86.367450026, 34.323157722], [-86.367201992, 34.320716005], [-86.366666055, 34.319674797], [-86.366520681, 34.31823196], [-86.366194866, 34.31759592], [-86.365908457, 34.316436362], [-86.366356031, 34.316115333], [-86.367130854, 34.315859419], [-86.369854297, 34.315284932], [-86.374894515, 34.313878659], [-86.378290471, 34.313827597], [-86.379338401, 34.313075914], [-86.380679352, 34.312249498], [-86.382679453, 34.310415748], [-86.382720034, 34.309881793], [-86.38395557, 34.309944241], [-86.385245724, 34.310438954], [-86.385790342, 34.309771906], [-86.385924352, 34.307987737], [-86.386125278, 34.307865327], [-86.386495405, 34.308353269], [-86.387625015, 34.309226572], [-86.388477254, 34.31071322], [-86.390340828, 34.312157256], [-86.391083994, 34.313131231], [-86.391183605, 34.313554588], [-86.392403793, 34.315859741], [-86.393888102, 34.317139521], [-86.393626775, 34.317478185], [-86.393461812, 34.31791333], [-86.396583965, 34.318281525]]]}, "properties": {"arm": "234", "name": "Beech Creek", "comid": 19650430, "kind": "atMouth"}}