{"type": "Feature", "geometry": {"type": "Polygon", "coordinates": [[[-86.411317694, 34.324682083], [-86.41170808, 34.323572345], [-86.412908129, 34.323444004], [-86.413507852, 34.322372639], [-86.414702847, 34.322368178], [-86.415111463, 34.3220269], [-86.415866423, 34.322013447], [-86.416940244, 34.322799622], [-86.417808538, 34.322475253], [-86.42048867, 34.322456488], [-86.422156982, 34.322025398], [-86.423202767, 34.32187157], [-86.423925125, 34.321600423], [-86.425074866, 34.321815464], [-86.425949865, 34.321019618], [-86.426736648, 34.319706586], [-86.427164527, 34.319229904], [-86.427757207, 34.3171086], [-86.427746451, 34.316736876], [-86.428395791, 34.315408271], [-86.430338892, 34.31460996], [-86.431384561, 34.314456057], [-86.432954813, 34.313626937], [-86.435176644, 34.314349638], [-86.43757948, 34.31471428], [-86.43847803, 34.31435223], [-86.438841053, 34.314002904], [-86.440652716, 34.314371408], [-86.442716539, 34.315350626], [-86.444175834, 34.315251771], [-86.445378949, 34.314950589], [-86.4467843, 34.31587336], [-86.447814929, 34.31469197], [-86.448022384, 34.314599497], [-86.450377565, 34.314932553], [-86.453317506, 34.317445958], [-86.454401108, 34.317946024], [-86.457531414, 34.317809669], [-86.457264203, 34.318742129], [-86.456629875, 34.319806611], [-86.455975374, 34.320574456], [-86.455933501, 34.322210217], [-86.452757949, 34.325094497], [-86.450695931, 34.326271062], [-86.448265331, 34.328154669], [-86.445690762, 34.329364788], [-86.443971099, 34.330253406], [-86.44359092, 34.33176437], [-86.44330648, 34.332604783], [-86.442279898, 34.332853086], [-86.441269897, 34.333342941], [-86.43894377, 34.334168866], [-86.437609323, 34.335320919], [-86.437954525, 34.336327006], [-86.43943834, 34.337473302], [-86.43981813, 34.337970242], [-86.438117098, 34.339311207], [-86.437466004, 34.341238059], [-86.437666062, 34.342520822], [-86.437036568, 34.343208462], [-86.436448948, 34.34412078], [-86.434218264, 34.344088547], [-86.433767197, 34.344439026], [-86.431311801, 34.34411641], [-86.42943349, 34.342613], [-86.427447618, 34.342750427], [-86.425626216, 34.343497666], [-86.424921149, 34.344065236], [-86.423670721, 34.344389725], [-86.422305305, 34.345100817], [-86.423397034, 34.34709986], [-86.423001734, 34.348666406], [-86.424015788, 34.34995951], [-86.42437368, 34.350945607], [-86.424420771, 34.351649], [-86.424535373, 34.352307398], [-86.424844739, 34.354060624], [-86.424825717, 34.355297933], [-86.424629608, 34.355401842], [-86.422970764, 34.357376068], [-86.423002148, 34.358539578], [-86.423776288, 34.359916094], [-86.423877421, 34.361475137], [-86.421871581, 34.363144699], [-86.420991628, 34.363267999], [-86.417724465, 34.364867069], [-86.41552537, 34.365199528], [-86.414018746, 34.365193055], [-86.412809885, 34.364284112], [-86.411828765, 34.36420304], [-86.411861873, 34.363936088], [-86.406775598, 34.363406101], [-86.405484583, 34.362328043], [-86.403277202, 34.362581627], [-86.401946242, 34.362220803], [-86.400623299, 34.362897256], [-86.399728448, 34.363202472], [-86.399046599, 34.362187378], [-86.396974123, 34.359567547], [-86.396528213, 34.358232732], [-86.396434143, 34.357805654], [-86.396235901, 34.357635433], [-86.394438335, 34.355442827], [-86.394154126, 34.352536909], [-86.392634625, 34.350683325], [-86.391746438, 34.349004211], [-86.39170916, 34.347975001], [-86.391441394, 34.347409209], [-86.39036197, 34.346854137], [-86.389388079, 34.34715272], [-86.38883285, 34.34719732], [-86.389121445, 34.346536444], [-86.388784919, 34.346004979], [-86.388604267, 34.3450292], [-86.388150614, 34.344713479], [-86.387572452, 34.344735101], [-86.386667523, 34.345330147], [-86.385108503, 34.345270463], [-86.385061772, 34.344567049], [-86.384733685, 34.344051016], [-86.384540653, 34.343445039], [-86.384212573, 34.342929005], [-86.384019548, 34.342323026], [-86.383167117, 34.341209358], [-86.38366042, 34.33969103], [-86.38535077, 34.338008552], [-86.384012446, 34.336382617], [-86.383437575, 34.333576786], [-86.383828399, 34.332882248], [-86.384625178, 34.332139192], [-86.386504642, 34.330158422], [-86.386805923, 34.32895918], [-86.38764536, 34.328598916], [-86.388618096, 34.32839087], [-86.389019922, 34.328500027], [-86.390244664, 34.328194856], [-86.390941131, 34.328652912], [-86.391448628, 34.328804529], [-86.392762189, 34.3282412], [-86.393836285, 34.328193217], [-86.394233036, 34.327990089], [-86.395162827, 34.327192666], [-86.394990746, 34.324921736], [-86.393032405, 34.323406765], [-86.392873316, 34.321488777], [-86.392274081, 34.320663718], [-86.391697137, 34.31965929], [-86.391301831, 34.31935261], [-86.392269406, 34.318520412], [-86.393461812, 34.31791333], [-86.396583965, 34.318281525], [-86.397416349, 34.318828771], [-86.39844561, 34.319244816], [-86.398789523, 34.319757923], [-86.400538236, 34.320945708], [-86.4032208, 34.320179536], [-86.404930481, 34.320101885], [-86.405835496, 34.321769709], [-86.40733254, 34.32213798], [-86.408179425, 34.32279801], [-86.410088421, 34.323859822], [-86.410595774, 34.324616067], [-86.411103283, 34.324767599], [-86.411317694, 34.324682083]]]}, "properties": {"arm": "234", "name": "Beech Creek", "comid": 19649252, "kind": "aboveHead"}}