{"type": "Feature", "geometry": {"type": "Polygon", "coordinates": [[[-85.845582939, 34.795162905], [-85.846897593, 34.795277304], [-85.847357781, 34.795136124], [-85.848292187, 34.793961512], [-85.848752365, 34.793820326], [-85.849244792, 34.793985385], [-85.849917726, 34.794808848], [-85.85069837, 34.795190728], [-85.852505997, 34.794266937], [-85.85617998, 34.794923543], [-85.856593839, 34.795998374], [-85.857527138, 34.797329073], [-85.857175178, 34.798676591], [-85.858202708, 34.800139791], [-85.858753272, 34.801163269], [-85.861153628, 34.801180089], [-85.862426085, 34.801910148], [-85.862416036, 34.803639269], [-85.862458278, 34.804342521], [-85.863286762, 34.805661932], [-85.864071542, 34.806210529], [-85.864001155, 34.80674385], [-85.864658594, 34.806800948], [-85.86458821, 34.807334269], [-85.862982776, 34.807413979], [-85.861325291, 34.808281441], [-85.860467532, 34.808324924], [-85.859940789, 34.808399268], [-85.858891255, 34.808891762], [-85.857264708, 34.811274812], [-85.855184499, 34.812351999], [-85.85426203, 34.815264001], [-85.854284381, 34.816294242], [-85.853847367, 34.816770404], [-85.852929272, 34.818115039], [-85.851268934, 34.819473101], [-85.848908992, 34.819676682], [-85.848090567, 34.820345123], [-85.846640758, 34.820699457], [-85.846142861, 34.821104976], [-85.844940125, 34.821103598], [-85.843259492, 34.821395667], [-85.841972906, 34.820908632], [-85.840848987, 34.819938441], [-85.84000205, 34.819761472], [-85.839588258, 34.820100534], [-85.838903923, 34.820108394], [-85.83718239, 34.818883846], [-85.837603064, 34.817432786], [-85.83660193, 34.815967502], [-85.835048494, 34.815672075], [-85.832663544, 34.8160059], [-85.831053829, 34.815625442], [-85.830471472, 34.815275477], [-85.829809483, 34.814977571], [-85.829436415, 34.813969415], [-85.827957494, 34.812778483], [-85.828635677, 34.811345663], [-85.829053375, 34.810859469], [-85.829869055, 34.80956506], [-85.832248066, 34.806822214], [-85.832629041, 34.806299094], [-85.833219519, 34.805684649], [-85.833406105, 34.805570255], [-85.835285438, 34.804010239], [-85.835357032, 34.803135648], [-85.839823985, 34.799116308], [-85.841074715, 34.799086124], [-85.84192144, 34.798713101], [-85.842391541, 34.797691976], [-85.843434666, 34.796324566], [-85.843469926, 34.796057909], [-85.843624382, 34.795911203], [-85.844890358, 34.795372358], [-85.845582939, 34.795162905]]]}, "properties": {"arm": "235", "name": "Brogue Branch", "comid": 19645182, "kind": "atMouth"}}