{"type": "Feature", "geometry": {"type": "Polygon", "coordinates": [[[-85.858753272, 34.801163269], [-85.861153628, 34.801180089], [-85.862426085, 34.801910148], [-85.862416036, 34.803639269], [-85.862458278, 34.804342521], [-85.863286762, 34.805661932], [-85.864071542, 34.806210529], [-85.864001155, 34.80674385], [-85.864658594, 34.806800948], [-85.86458821, 34.807334269], [-85.862982776, 34.807413979], [-85.861325291, 34.808281441], [-85.860467532, 34.808324924], [-85.859940789, 34.808399268], [-85.858891255, 34.808891762], [-85.857264708, 34.811274812], [-85.855184499, 34.812351999], [-85.85426203, 34.815264001], [-85.854284381, 34.816294242], [-85.853847367, 34.816770404], [-85.852929272, 34.818115039], [-85.851268934, 34.819473101], [-85.848908992, 34.819676682], [-85.848090567, 34.820345123], [-85.846640758, 34.820699457], [-85.846142861, 34.821104976], [-85.844940125, 34.821103598], [-85.843259492, 34.821395667], [-85.841972906, 34.820908632], [-85.840848987, 34.819938441], [-85.84000205, 34.819761472], [-85.840634732, 34.818887268], [-85.841037231, 34.818083636], [-85.842772203, 34.816732199], [-85.843793881, 34.815116383], [-85.844266859, 34.813779433], [-85.84510654, 34.813028579], [-85.84509216, 34.812272951], [-85.846627146, 34.811017853], [-85.846475396, 34.809925765], [-85.844857585, 34.807073029], [-85.845218936, 34.806579777], [-85.846349947, 34.805569792], [-85.846194356, 34.804506863], [-85.84530947, 34.803380473], [-85.84521791, 34.80295317], [-85.845803604, 34.802865058], [-85.846704773, 34.802178548], [-85.8487516, 34.801372547], [-85.84981936, 34.801783615], [-85.851933176, 34.801099286], [-85.852988142, 34.80080119], [-85.854295766, 34.800379656], [-85.855865375, 34.80159289], [-85.858257856, 34.801512152], [-85.858753272, 34.801163269]]]}, "properties": {"arm": "235", "name": "Brogue Branch", "comid": 19645156, "kind": "aboveHead"}}