{"type": "Feature", "geometry": {"type": "Polygon", "coordinates": [[[-85.894272062, 34.793995467], [-85.894296557, 34.794954222], [-85.894814699, 34.795911477], [-85.895331517, 34.798221378], [-85.896606647, 34.800038542], [-85.894009918, 34.802186297], [-85.89357989, 34.803164682], [-85.894658324, 34.805154459], [-85.894468282, 34.80588813], [-85.891699543, 34.807110682], [-85.891026936, 34.807642413], [-85.890048524, 34.808168721], [-85.889333411, 34.810167517], [-85.888906921, 34.810644703], [-85.888500372, 34.811443893], [-85.886990919, 34.813635137], [-85.885491649, 34.813855002], [-85.88449398, 34.814211034], [-85.882693539, 34.814666045], [-85.882188989, 34.815064801], [-85.880806658, 34.814791148], [-85.880597844, 34.813182175], [-85.880407084, 34.811199697], [-85.878878752, 34.809472082], [-85.877777538, 34.809431365], [-85.876879283, 34.809309207], [-85.875257291, 34.810066148], [-85.874503926, 34.810618181], [-85.872571969, 34.809253701], [-85.872156095, 34.809196542], [-85.871220354, 34.809161693], [-85.870545588, 34.808782845], [-85.866389964, 34.807617159], [-85.86458821, 34.807334269], [-85.864658594, 34.806800948], [-85.864001155, 34.80674385], [-85.864071542, 34.806210529], [-85.865021087, 34.805353198], [-85.867771068, 34.800692825], [-85.869355376, 34.800181365], [-85.87028568, 34.800689879], [-85.871338613, 34.800229196], [-85.872404194, 34.799790675], [-85.873451416, 34.799333694], [-85.875779486, 34.798380976], [-85.877735693, 34.796997706], [-85.879110309, 34.796164505], [-85.880382062, 34.79463333], [-85.881054953, 34.793389463], [-85.881609622, 34.793279526], [-85.88232392, 34.793377286], [-85.883329643, 34.794515955], [-85.884030651, 34.794852766], [-85.885584934, 34.796066356], [-85.887528418, 34.794639695], [-85.889375632, 34.795364476], [-85.890395386, 34.794325514], [-85.891655144, 34.793593906], [-85.892111698, 34.792729497], [-85.893106094, 34.792514314], [-85.894272062, 34.793995467]]]}, "properties": {"arm": "244", "name": "Owen Branch", "comid": 19645190, "kind": "aboveHead"}}