{"type": "Feature", "geometry": {"type": "Polygon", "coordinates": [[[-85.905936586, 34.77100077], [-85.905367593, 34.771636355], [-85.904215059, 34.771812649], [-85.904126818, 34.774559053], [-85.903484228, 34.775299939], [-85.903449548, 34.776314687], [-85.90332702, 34.77685194], [-85.903821123, 34.77779445], [-85.90315426, 34.778166592], [-85.90272674, 34.779088338], [-85.903347294, 34.781103786], [-85.903968742, 34.782282773], [-85.904189016, 34.782938186], [-85.902620612, 34.784380694], [-85.902588381, 34.785376681], [-85.904792678, 34.786130029], [-85.906428361, 34.787495775], [-85.906393322, 34.787762453], [-85.906715352, 34.78803895], [-85.907158492, 34.78855981], [-85.908386142, 34.789137987], [-85.908880966, 34.7897202], [-85.909937564, 34.792984855], [-85.909437794, 34.795128795], [-85.910013766, 34.795627408], [-85.909745168, 34.796565012], [-85.909134415, 34.797517277], [-85.909190854, 34.798649445], [-85.911413527, 34.80037346], [-85.911633139, 34.802122346], [-85.911802718, 34.802255001], [-85.91186642, 34.803351966], [-85.910128304, 34.803810648], [-85.910552127, 34.805922744], [-85.912242427, 34.806500804], [-85.912922149, 34.807634149], [-85.91254173, 34.812982659], [-85.913828703, 34.814556159], [-85.915542634, 34.815648197], [-85.917472902, 34.817308823], [-85.917156424, 34.817997872], [-85.916066998, 34.818915132], [-85.914960594, 34.820218607], [-85.914751143, 34.820310076], [-85.914646068, 34.821110092], [-85.914016503, 34.821986999], [-85.913442249, 34.823372258], [-85.91343514, 34.824553677], [-85.911832226, 34.826787664], [-85.91181156, 34.830721763], [-85.912018277, 34.832905618], [-85.913289626, 34.835253084], [-85.91320185, 34.837167071], [-85.910846149, 34.836763374], [-85.908780067, 34.835579788], [-85.907457565, 34.835322201], [-85.906880037, 34.834694958], [-85.90156193, 34.829770321], [-85.898353034, 34.827539487], [-85.896425216, 34.826947034], [-85.894249895, 34.82632048], [-85.889963275, 34.824798866], [-85.888662074, 34.823986621], [-85.888520918, 34.823835328], [-85.885036833, 34.820956526], [-85.884628252, 34.81693872], [-85.883253528, 34.815443641], [-85.882188989, 34.815064801], [-85.880806658, 34.814791148], [-85.880597844, 34.813182175], [-85.880407084, 34.811199697], [-85.878878752, 34.809472082], [-85.877777538, 34.809431365], [-85.876879283, 34.809309207], [-85.875257291, 34.810066148], [-85.874503926, 34.810618181], [-85.872571969, 34.809253701], [-85.872156095, 34.809196542], [-85.871220354, 34.809161693], [-85.870545588, 34.808782845], [-85.866389964, 34.807617159], [-85.86458821, 34.807334269], [-85.864658594, 34.806800948], [-85.864001155, 34.80674385], [-85.864071542, 34.806210529], [-85.865021087, 34.805353198], [-85.867771068, 34.800692825], [-85.869355376, 34.800181365], [-85.87028568, 34.800689879], [-85.871338613, 34.800229196], [-85.872404194, 34.799790675], [-85.873451416, 34.799333694], [-85.875779486, 34.798380976], [-85.877735693, 34.796997706], [-85.879110309, 34.796164505], [-85.880382062, 34.79463333], [-85.881054953, 34.793389463], [-85.878852598, 34.791339935], [-85.879469422, 34.790285068], [-85.879039727, 34.789348036], [-85.879093187, 34.788094692], [-85.879946125, 34.78804646], [-85.880317511, 34.78751395], [-85.881707723, 34.787310016], [-85.882677817, 34.78747632], [-85.883564922, 34.786044511], [-85.884604794, 34.785483557], [-85.88524517, 34.78497857], [-85.884491141, 34.783585681], [-85.884379311, 34.782147323], [-85.886814829, 34.781201634], [-85.887507791, 34.778659346], [-85.89082159, 34.778358647], [-85.891650697, 34.777168297], [-85.892237503, 34.776852494], [-85.892956116, 34.776284713], [-85.892585268, 34.775116819], [-85.89249064, 34.774691401], [-85.893936374, 34.774201363], [-85.894570808, 34.772555839], [-85.895453774, 34.771330095], [-85.895785714, 34.76985222], [-85.897023938, 34.770347189], [-85.899240388, 34.769582483], [-85.900879847, 34.768091383], [-85.902515015, 34.767659796], [-85.902742716, 34.767487755], [-85.902895159, 34.767631595], [-85.905936586, 34.77100077]]]}, "properties": {"arm": "244", "name": "Owen Branch", "comid": 19646512, "kind": "atMouth"}}