{"type": "Feature", "geometry": {"type": "Polygon", "coordinates": [[[-86.109716262, 34.434605206], [-86.110043492, 34.434633077], [-86.110217958, 34.435006205], [-86.110835423, 34.435330654], [-86.110922659, 34.435517217], [-86.111419011, 34.435677504], [-86.113029442, 34.436421579], [-86.113857528, 34.436393032], [-86.115175399, 34.435263939], [-86.117441623, 34.435144931], [-86.118292618, 34.434795865], [-86.118224319, 34.435329557], [-86.119261694, 34.436109071], [-86.119927202, 34.436401729], [-86.121088574, 34.437343508], [-86.121967191, 34.437728042], [-86.123634996, 34.438974187], [-86.124550272, 34.440183706], [-86.123855624, 34.441593497], [-86.123423882, 34.442665276], [-86.122189709, 34.443685664], [-86.122218147, 34.444897734], [-86.121542515, 34.445592611], [-86.121508371, 34.445859455], [-86.12118109, 34.445831616], [-86.120982262, 34.446234077], [-86.119831756, 34.447185694], [-86.119147387, 34.449382393], [-86.119168553, 34.450267194], [-86.117976116, 34.45134378], [-86.117538141, 34.453614114], [-86.117822823, 34.453914404], [-86.118273854, 34.454348967], [-86.118618089, 34.454709113], [-86.118178215, 34.457579884], [-86.118069704, 34.458649632], [-86.115155293, 34.464470913], [-86.113845492, 34.463615549], [-86.111601308, 34.462667987], [-86.110203421, 34.462218124], [-86.108310516, 34.461051723], [-86.105869094, 34.460595125], [-86.105293816, 34.460242656], [-86.104628158, 34.459949923], [-86.104504191, 34.459787629], [-86.104014497, 34.458525719], [-86.103110362, 34.454185375], [-86.101730993, 34.452685358], [-86.097846488, 34.451772592], [-86.090664511, 34.450007271], [-86.090135411, 34.448933682], [-86.090481015, 34.446986364], [-86.089525843, 34.444137739], [-86.088913399, 34.443472194], [-86.088454123, 34.443043112], [-86.086485062, 34.442676933], [-86.084417203, 34.442637377], [-86.082080401, 34.441150141], [-86.082477457, 34.439447465], [-86.084940282, 34.43830265], [-86.086690618, 34.437351972], [-86.090149306, 34.435796806], [-86.091326988, 34.433507401], [-86.094212506, 34.432912709], [-86.094887895, 34.432926068], [-86.096651064, 34.433485315], [-86.099133475, 34.433534734], [-86.099895327, 34.434425826], [-86.102100738, 34.43476136], [-86.105530898, 34.434231784], [-86.10837316, 34.434760556], [-86.109682083, 34.43487205], [-86.109716262, 34.434605206]]]}, "properties": {"arm": "257", "name": "Mormon Hole Branch", "comid": 19650184, "kind": "atMouth"}}