{"type": "Feature", "geometry": {"type": "Polygon", "coordinates": [[[-86.189275565, 34.612884788], [-86.189761906, 34.613052183], [-86.190559785, 34.613498648], [-86.192012126, 34.617430176], [-86.193425977, 34.618206606], [-86.194618643, 34.619092904], [-86.19620247, 34.618330884], [-86.197818758, 34.617944483], [-86.200111189, 34.618921201], [-86.199451704, 34.61960518], [-86.199448566, 34.620403396], [-86.201742511, 34.621165305], [-86.203707205, 34.622805384], [-86.203861073, 34.624507976], [-86.204155205, 34.625046778], [-86.204180228, 34.627518034], [-86.207967953, 34.631569811], [-86.208064142, 34.631995039], [-86.207113645, 34.632848406], [-86.206393668, 34.634252057], [-86.208237403, 34.635420448], [-86.208938943, 34.63623997], [-86.208242663, 34.639290988], [-86.208213201, 34.640398765], [-86.209132046, 34.64213823], [-86.210132121, 34.645399247], [-86.209244817, 34.649300049], [-86.209332619, 34.650708396], [-86.209493889, 34.650846248], [-86.210794266, 34.653213933], [-86.211501392, 34.654969253], [-86.212165139, 34.655924586], [-86.212264211, 34.65634793], [-86.212094642, 34.656479044], [-86.211371697, 34.656885984], [-86.210857907, 34.657889837], [-86.210838867, 34.658528672], [-86.209853876, 34.659650926], [-86.209525657, 34.659623343], [-86.209491723, 34.659890147], [-86.209073565, 34.660956804], [-86.210586729, 34.662956812], [-86.21161437, 34.665331013], [-86.212440789, 34.666740288], [-86.21267461, 34.667653159], [-86.213250429, 34.668811742], [-86.216160263, 34.670551855], [-86.217874612, 34.670971772], [-86.221066039, 34.671945394], [-86.222726767, 34.673093842], [-86.224920402, 34.676271407], [-86.225887744, 34.677165708], [-86.228752891, 34.680262559], [-86.228711822, 34.684832539], [-86.229090773, 34.68682976], [-86.229182606, 34.687699053], [-86.229443196, 34.688260186], [-86.229769285, 34.688673028], [-86.230527539, 34.689010448], [-86.231110751, 34.689358469], [-86.23210156, 34.689681664], [-86.233635991, 34.690379031], [-86.234544733, 34.690695327], [-86.235054706, 34.689659495], [-86.236207404, 34.688707], [-86.23675989, 34.687887486], [-86.238724521, 34.685745366], [-86.239077, 34.685562125], [-86.240432738, 34.686625729], [-86.242521651, 34.686364586], [-86.245120573, 34.691589411], [-86.245335886, 34.692426875], [-86.245837463, 34.693439966], [-86.247323782, 34.693802382], [-86.247356937, 34.695340815], [-86.247157947, 34.696215225], [-86.247142564, 34.696704757], [-86.246386619, 34.698577397], [-86.245658825, 34.699409659], [-86.244231877, 34.699764206], [-86.243550671, 34.701455604], [-86.242149423, 34.701995547], [-86.24041189, 34.703857601], [-86.239957757, 34.704780153], [-86.239681307, 34.705405815], [-86.239171155, 34.707301097], [-86.237920024, 34.708291723], [-86.237991028, 34.708794806], [-86.237795704, 34.709271375], [-86.238485346, 34.710171729], [-86.2383693, 34.71045271], [-86.238783023, 34.711422642], [-86.237568854, 34.711917118], [-86.234475028, 34.712530101], [-86.232355697, 34.713637533], [-86.232102109, 34.714368314], [-86.23402638, 34.716023035], [-86.235195778, 34.718149546], [-86.235563039, 34.720609096], [-86.234800672, 34.721874447], [-86.233989119, 34.72256692], [-86.231803719, 34.723089534], [-86.230720972, 34.724262721], [-86.229185624, 34.724629102], [-86.227199142, 34.724218271], [-86.225771299, 34.724269216], [-86.225880193, 34.726290058], [-86.225342382, 34.726868501], [-86.225367919, 34.727361457], [-86.224333594, 34.728846201], [-86.223135966, 34.730064465], [-86.221824752, 34.730523279], [-86.220637368, 34.731538049], [-86.218413205, 34.731077659], [-86.215863681, 34.731971799], [-86.214329919, 34.733281853], [-86.213337463, 34.732865738], [-86.212181927, 34.732650791], [-86.212182059, 34.733872583], [-86.212433152, 34.734692028], [-86.211912516, 34.73599018], [-86.211201939, 34.738393052], [-86.210397338, 34.738986959], [-86.208762595, 34.739947218], [-86.207868207, 34.74391452], [-86.205881455, 34.744398611], [-86.205033811, 34.744453819], [-86.202566652, 34.744126525], [-86.201069311, 34.743640519], [-86.196954237, 34.742869192], [-86.195341764, 34.743489894], [-86.194764757, 34.743965913], [-86.193379019, 34.743988436], [-86.193171128, 34.743726598], [-86.192418534, 34.74389082], [-86.19074358, 34.743577223], [-86.190343338, 34.743907992], [-86.189403638, 34.744399825], [-86.187862294, 34.74604809], [-86.186527709, 34.746340264], [-86.184913093, 34.745675655], [-86.182377569, 34.746574517], [-86.1818116, 34.747714974], [-86.179703362, 34.74945235], [-86.17766393, 34.748233662], [-86.174537055, 34.750367571], [-86.174024272, 34.751638873], [-86.172187341, 34.751901215], [-86.171601382, 34.75254701], [-86.171006411, 34.753750285], [-86.169351434, 34.752426924], [-86.16833789, 34.752236169], [-86.166556721, 34.752265082], [-86.164932418, 34.751595168], [-86.164966546, 34.751328403], [-86.164637953, 34.751300695], [-86.164684633, 34.749678344], [-86.163605785, 34.747828359], [-86.162224325, 34.746174025], [-86.16173707, 34.743655552], [-86.159145785, 34.743123045], [-86.157530881, 34.741084487], [-86.157392477, 34.740442924], [-86.157067359, 34.739435901], [-86.158302368, 34.737631523], [-86.158951026, 34.735097209], [-86.158501965, 34.733700529], [-86.159108018, 34.732228573], [-86.160318472, 34.731932565], [-86.160419429, 34.730089344], [-86.16330018, 34.730018507], [-86.164463168, 34.729160196], [-86.165032392, 34.728826907], [-86.165773334, 34.728063598], [-86.168075638, 34.726713587], [-86.168986919, 34.726463896], [-86.170315544, 34.726013439], [-86.171325747, 34.72324411], [-86.171831841, 34.722389344], [-86.172278275, 34.721331524], [-86.174007659, 34.717662161], [-86.172072902, 34.71699138], [-86.170385673, 34.715094293], [-86.169393602, 34.713481206], [-86.169392175, 34.711523994], [-86.169033924, 34.711120902], [-86.160811251, 34.710827446], [-86.160128803, 34.710059889], [-86.158951044, 34.709494888], [-86.156960011, 34.707199016], [-86.156665773, 34.705992307], [-86.156244437, 34.705170923], [-86.155672785, 34.703801736], [-86.153338095, 34.703301166], [-86.15203439, 34.70238415], [-86.150749515, 34.702819121], [-86.150021808, 34.70084682], [-86.149375334, 34.699901036], [-86.150153052, 34.69747238], [-86.149957778, 34.696000116], [-86.150162919, 34.694985147], [-86.148157944, 34.694503881], [-86.147558075, 34.694166653], [-86.145065107, 34.693568232], [-86.144445521, 34.692555153], [-86.142844135, 34.690462525], [-86.144197069, 34.689312887], [-86.14425083, 34.68830618], [-86.144730415, 34.687739987], [-86.144771585, 34.686993455], [-86.145415923, 34.684816864], [-86.145967596, 34.68326236], [-86.146955719, 34.679675891], [-86.148223889, 34.678599104], [-86.148566676, 34.677136477], [-86.148759376, 34.677028468], [-86.149515508, 34.676447716], [-86.149536704, 34.675735305], [-86.149821202, 34.674484745], [-86.150776323, 34.674232614], [-86.151990762, 34.673675842], [-86.151283786, 34.672657491], [-86.151323916, 34.669953644], [-86.152690053, 34.667096419], [-86.152363319, 34.666813877], [-86.152747596, 34.665127202], [-86.15371468, 34.664233489], [-86.154078579, 34.663779678], [-86.152779373, 34.663339096], [-86.152903082, 34.662797567], [-86.151177366, 34.660768182], [-86.150568148, 34.660242637], [-86.150278723, 34.659000417], [-86.150784054, 34.656793047], [-86.149985359, 34.655682626], [-86.150950975, 34.655387152], [-86.150571799, 34.654562918], [-86.150601451, 34.652589206], [-86.149634617, 34.651517227], [-86.149785999, 34.649463207], [-86.149990809, 34.647862462], [-86.149559263, 34.647528897], [-86.149177052, 34.646445247], [-86.148914355, 34.645885777], [-86.148088613, 34.645453549], [-86.148001051, 34.645267058], [-86.147811599, 34.645147795], [-86.147485437, 34.64399092], [-86.145685397, 34.643619512], [-86.145252734, 34.643416459], [-86.145649156, 34.642910641], [-86.146254266, 34.642312922], [-86.146476127, 34.641632209], [-86.146629698, 34.64148508], [-86.147681906, 34.641017884], [-86.148240854, 34.6397884], [-86.149046049, 34.639692177], [-86.149961797, 34.638752013], [-86.149892906, 34.636009345], [-86.151674052, 34.634541905], [-86.152912799, 34.63423582], [-86.153077826, 34.634100186], [-86.153734007, 34.634155672], [-86.155413131, 34.633242092], [-86.157259354, 34.630574942], [-86.156847375, 34.627676859], [-86.157381821, 34.626373628], [-86.160461017, 34.626300992], [-86.162248168, 34.625695633], [-86.166528118, 34.625003737], [-86.168030202, 34.624702891], [-86.169066803, 34.624537596], [-86.173053658, 34.62315706], [-86.173481732, 34.62233991], [-86.173681152, 34.622238756], [-86.174617285, 34.621439198], [-86.17538781, 34.619846118], [-86.17786814, 34.618007524], [-86.178589518, 34.617225636], [-86.180207782, 34.615788316], [-86.182246653, 34.614871026], [-86.184892279, 34.613318025], [-86.187216712, 34.612841888], [-86.189275565, 34.612884788]]]}, "properties": {"arm": "26", "name": "North Sauty Creek", "comid": 19647238, "kind": "aboveHead"}}