{"type": "Feature", "geometry": {"type": "Polygon", "coordinates": [[[-86.103370908, 34.558953004], [-86.11222034, 34.559705576], [-86.111329718, 34.565437165], [-86.110709721, 34.567525316], [-86.109700941, 34.571190259], [-86.110265551, 34.572298141], [-86.111063159, 34.572679901], [-86.111283027, 34.573387618], [-86.109423247, 34.574967909], [-86.107433536, 34.576773124], [-86.106050516, 34.578672044], [-86.103044828, 34.581229432], [-86.104257039, 34.581810848], [-86.105622176, 34.58287514], [-86.105824684, 34.584927828], [-86.107218991, 34.585826003], [-86.10920587, 34.586384714], [-86.110822916, 34.587525122], [-86.11406096, 34.590482563], [-86.116021575, 34.591913342], [-86.116934286, 34.593923033], [-86.115311649, 34.596235738], [-86.114278513, 34.597909488], [-86.114767427, 34.598075331], [-86.116131672, 34.598281799], [-86.118540984, 34.599244916], [-86.120282327, 34.598813309], [-86.122962916, 34.598792193], [-86.125367624, 34.598296706], [-86.126263074, 34.598806723], [-86.127024656, 34.598542633], [-86.12790755, 34.596826552], [-86.130962216, 34.594470801], [-86.131819242, 34.594775245], [-86.134801467, 34.596846427], [-86.135840753, 34.596900804], [-86.140392741, 34.593567653], [-86.141892777, 34.592651757], [-86.144724549, 34.592539724], [-86.146059835, 34.593053121], [-86.147118157, 34.592148223], [-86.149415114, 34.591601006], [-86.151154356, 34.590635717], [-86.152605003, 34.589983104], [-86.153253257, 34.589429037], [-86.154052995, 34.589026844], [-86.154863862, 34.588334824], [-86.15566358, 34.587932619], [-86.155933962, 34.58739714], [-86.156684557, 34.586548307], [-86.157053068, 34.586014805], [-86.158797762, 34.58455895], [-86.159422761, 34.583273868], [-86.159933706, 34.581827435], [-86.164114899, 34.58075451], [-86.164950839, 34.580087724], [-86.165111883, 34.580225648], [-86.165899847, 34.581537468], [-86.167537812, 34.583898738], [-86.169545414, 34.586204811], [-86.168191858, 34.588452361], [-86.168550753, 34.588703911], [-86.169241021, 34.589727207], [-86.169989079, 34.589952631], [-86.169957438, 34.591195164], [-86.170297534, 34.592466986], [-86.169727129, 34.593000323], [-86.169376327, 34.59475527], [-86.17009916, 34.59540205], [-86.169207686, 34.59729463], [-86.168899691, 34.598490635], [-86.169914098, 34.599775155], [-86.172576077, 34.601908809], [-86.174029553, 34.602939595], [-86.177835421, 34.602826789], [-86.179836285, 34.602083327], [-86.181272814, 34.603999585], [-86.182423514, 34.604216736], [-86.183113463, 34.604005245], [-86.184592142, 34.604250034], [-86.185969109, 34.605354262], [-86.187163538, 34.607403812], [-86.187576089, 34.609532811], [-86.18822877, 34.610691819], [-86.188529427, 34.610934165], [-86.188583063, 34.611387446], [-86.189275565, 34.612884788], [-86.189761906, 34.613052183], [-86.190559785, 34.613498648], [-86.192012126, 34.617430176], [-86.193425977, 34.618206606], [-86.194618643, 34.619092904], [-86.19620247, 34.618330884], [-86.197818758, 34.617944483], [-86.200111189, 34.618921201], [-86.199451704, 34.61960518], [-86.199448566, 34.620403396], [-86.201742511, 34.621165305], [-86.203707205, 34.622805384], [-86.203861073, 34.624507976], [-86.204155205, 34.625046778], [-86.204180228, 34.627518034], [-86.207967953, 34.631569811], [-86.208064142, 34.631995039], [-86.207113645, 34.632848406], [-86.206393668, 34.634252057], [-86.208237403, 34.635420448], [-86.208938943, 34.63623997], [-86.208242663, 34.639290988], [-86.208213201, 34.640398765], [-86.209132046, 34.64213823], [-86.210132121, 34.645399247], [-86.209244817, 34.649300049], [-86.209332619, 34.650708396], [-86.209493889, 34.650846248], [-86.210794266, 34.653213933], [-86.211501392, 34.654969253], [-86.212165139, 34.655924586], [-86.212264211, 34.65634793], [-86.212094642, 34.656479044], [-86.211371697, 34.656885984], [-86.210857907, 34.657889837], [-86.210838867, 34.658528672], [-86.209853876, 34.659650926], [-86.209525657, 34.659623343], [-86.209491723, 34.659890147], [-86.209073565, 34.660956804], [-86.210586729, 34.662956812], [-86.21161437, 34.665331013], [-86.212440789, 34.666740288], [-86.21267461, 34.667653159], [-86.213250429, 34.668811742], [-86.216160263, 34.670551855], [-86.217874612, 34.670971772], [-86.221066039, 34.671945394], [-86.222726767, 34.673093842], [-86.224920402, 34.676271407], [-86.225887744, 34.677165708], [-86.228752891, 34.680262559], [-86.228711822, 34.684832539], [-86.229090773, 34.68682976], [-86.229182606, 34.687699053], [-86.229443196, 34.688260186], [-86.229769285, 34.688673028], [-86.230527539, 34.689010448], [-86.231110751, 34.689358469], [-86.23210156, 34.689681664], [-86.233635991, 34.690379031], [-86.234544733, 34.690695327], [-86.235054706, 34.689659495], [-86.236207404, 34.688707], [-86.23675989, 34.687887486], [-86.238724521, 34.685745366], [-86.239077, 34.685562125], [-86.240432738, 34.686625729], [-86.242521651, 34.686364586], [-86.245120573, 34.691589411], [-86.245335886, 34.692426875], [-86.245837463, 34.693439966], [-86.247323782, 34.693802382], [-86.247356937, 34.695340815], [-86.247157947, 34.696215225], [-86.247142564, 34.696704757], [-86.246386619, 34.698577397], [-86.245658825, 34.699409659], [-86.244231877, 34.699764206], [-86.243550671, 34.701455604], [-86.242149423, 34.701995547], [-86.24041189, 34.703857601], [-86.239957757, 34.704780153], [-86.239681307, 34.705405815], [-86.239171155, 34.707301097], [-86.237920024, 34.708291723], [-86.237991028, 34.708794806], [-86.237795704, 34.709271375], [-86.238485346, 34.710171729], [-86.2383693, 34.71045271], [-86.238783023, 34.711422642], [-86.237568854, 34.711917118], [-86.234475028, 34.712530101], [-86.232355697, 34.713637533], [-86.232102109, 34.714368314], [-86.23402638, 34.716023035], [-86.235195778, 34.718149546], [-86.235563039, 34.720609096], [-86.234800672, 34.721874447], [-86.233989119, 34.72256692], [-86.231803719, 34.723089534], [-86.230720972, 34.724262721], [-86.229185624, 34.724629102], [-86.227199142, 34.724218271], [-86.225771299, 34.724269216], [-86.225880193, 34.726290058], [-86.225342382, 34.726868501], [-86.225367919, 34.727361457], [-86.224333594, 34.728846201], [-86.223135966, 34.730064465], [-86.221824752, 34.730523279], [-86.220637368, 34.731538049], [-86.218413205, 34.731077659], [-86.215863681, 34.731971799], [-86.214329919, 34.733281853], [-86.213337463, 34.732865738], [-86.212181927, 34.732650791], [-86.212182059, 34.733872583], [-86.212433152, 34.734692028], [-86.211912516, 34.73599018], [-86.211201939, 34.738393052], [-86.210397338, 34.738986959], [-86.208762595, 34.739947218], [-86.207868207, 34.74391452], [-86.205881455, 34.744398611], [-86.205033811, 34.744453819], [-86.202566652, 34.744126525], [-86.201069311, 34.743640519], [-86.196954237, 34.742869192], [-86.195341764, 34.743489894], [-86.194764757, 34.743965913], [-86.193379019, 34.743988436], [-86.193171128, 34.743726598], [-86.192418534, 34.74389082], [-86.19074358, 34.743577223], [-86.190343338, 34.743907992], [-86.189403638, 34.744399825], [-86.187862294, 34.74604809], [-86.186527709, 34.746340264], [-86.184913093, 34.745675655], [-86.182377569, 34.746574517], [-86.1818116, 34.747714974], [-86.179703362, 34.74945235], [-86.17766393, 34.748233662], [-86.174537055, 34.750367571], [-86.174024272, 34.751638873], [-86.172187341, 34.751901215], [-86.171601382, 34.75254701], [-86.171006411, 34.753750285], [-86.169351434, 34.752426924], [-86.16833789, 34.752236169], [-86.166556721, 34.752265082], [-86.164932418, 34.751595168], [-86.164966546, 34.751328403], [-86.164637953, 34.751300695], [-86.164684633, 34.749678344], [-86.163605785, 34.747828359], [-86.162224325, 34.746174025], [-86.16173707, 34.743655552], [-86.159145785, 34.743123045], [-86.157530881, 34.741084487], [-86.157392477, 34.740442924], [-86.157067359, 34.739435901], [-86.158302368, 34.737631523], [-86.158951026, 34.735097209], [-86.158501965, 34.733700529], [-86.159108018, 34.732228573], [-86.158287408, 34.730735224], [-86.155918028, 34.730174982], [-86.15506534, 34.729439396], [-86.154299547, 34.72709322], [-86.154138216, 34.726955303], [-86.154080151, 34.726010826], [-86.154140501, 34.725742055], [-86.154148993, 34.725473118], [-86.154274393, 34.72491912], [-86.153627325, 34.724360982], [-86.15310118, 34.723486518], [-86.151534016, 34.722355586], [-86.150884136, 34.720280375], [-86.150536488, 34.717931537], [-86.148884697, 34.715194411], [-86.146968584, 34.714339373], [-86.145121036, 34.713900906], [-86.14331756, 34.712349571], [-86.142115344, 34.710943848], [-86.140669549, 34.709698686], [-86.139869071, 34.708760896], [-86.13765019, 34.706870934], [-86.134491988, 34.706098059], [-86.133381481, 34.704626241], [-86.132887655, 34.702673599], [-86.130451383, 34.700802977], [-86.129083087, 34.700128807], [-86.129633408, 34.697032084], [-86.126978843, 34.694055757], [-86.125946456, 34.69262415], [-86.123900968, 34.692176939], [-86.119239693, 34.689908857], [-86.115578958, 34.690854092], [-86.113145146, 34.690725589], [-86.112959253, 34.690840442], [-86.111520711, 34.691118688], [-86.109525327, 34.690161394], [-86.105877795, 34.687776504], [-86.104169963, 34.68522965], [-86.104415961, 34.683841038], [-86.104031235, 34.682316692], [-86.102997648, 34.680556037], [-86.10022574, 34.682050323], [-86.099326925, 34.682003452], [-86.098673326, 34.681924739], [-86.097668827, 34.681873089], [-86.095951099, 34.680937008], [-86.09454667, 34.680507908], [-86.088196198, 34.67967079], [-86.086187109, 34.675785334], [-86.08561135, 34.675163253], [-86.084690085, 34.674305283], [-86.083288777, 34.672787], [-86.082520156, 34.67207263], [-86.084238528, 34.670647106], [-86.086748847, 34.666876484], [-86.088167082, 34.665686632], [-86.089797828, 34.663792157], [-86.093584113, 34.660877921], [-86.092653293, 34.658544306], [-86.092896024, 34.657484077], [-86.091982584, 34.655036037], [-86.091827801, 34.652513458], [-86.092004084, 34.649955826], [-86.0924282, 34.648472766], [-86.092347425, 34.647288086], [-86.09223451, 34.647118349], [-86.091152099, 34.646366771], [-86.090584717, 34.645519943], [-86.09032528, 34.644958475], [-86.089502345, 34.644768348], [-86.088920108, 34.644419605], [-86.086411518, 34.64341385], [-86.084823297, 34.641399175], [-86.084542921, 34.639491621], [-86.084415876, 34.639331204], [-86.084243905, 34.638956259], [-86.084137819, 34.638049629], [-86.083965851, 34.637674683], [-86.081719546, 34.63694819], [-86.077018353, 34.636149437], [-86.076096841, 34.635780131], [-86.075607771, 34.635614133], [-86.075146657, 34.635753932], [-86.074589177, 34.635797018], [-86.07211916, 34.635460029], [-86.068818629, 34.633908012], [-86.06638032, 34.631196802], [-86.065570945, 34.629718102], [-86.064094082, 34.628553281], [-86.063444121, 34.628249175], [-86.062614174, 34.627773777], [-86.059174391, 34.627705598], [-86.05750414, 34.627036198], [-86.055870146, 34.626648009], [-86.055904595, 34.626381239], [-86.056528988, 34.625237719], [-86.057422382, 34.624378453], [-86.061178782, 34.620225765], [-86.061917072, 34.619262621], [-86.06418941, 34.617372635], [-86.067898413, 34.614345134], [-86.067943459, 34.614056086], [-86.067713032, 34.613231503], [-86.067603483, 34.612815479], [-86.067231958, 34.612482458], [-86.066626372, 34.611292929], [-86.066741016, 34.610725357], [-86.065329945, 34.608048967], [-86.064199156, 34.607035837], [-86.064202479, 34.604560213], [-86.062686972, 34.60257442], [-86.061626017, 34.598290555], [-86.061865571, 34.59711624], [-86.060752325, 34.596330013], [-86.059228907, 34.5957321], [-86.057877988, 34.595684128], [-86.056501008, 34.595496947], [-86.054288675, 34.596243495], [-86.052538419, 34.595697749], [-86.051479145, 34.596319437], [-86.050660373, 34.596923748], [-86.049889906, 34.597133921], [-86.049217995, 34.597363053], [-86.048181503, 34.59752729], [-86.046631487, 34.597837249], [-86.045273567, 34.597181657], [-86.04531054, 34.596514723], [-86.045783501, 34.595720719], [-86.045989981, 34.595325365], [-86.046831518, 34.595266694], [-86.047569612, 34.595026379], [-86.048452935, 34.592899873], [-86.047975374, 34.591263864], [-86.048157985, 34.590251154], [-86.048237465, 34.58925491], [-86.047402091, 34.588003413], [-86.047543895, 34.587206362], [-86.048971541, 34.586799544], [-86.049568204, 34.586871641], [-86.051543666, 34.586975227], [-86.054094267, 34.587277553], [-86.055278877, 34.587047966], [-86.056396966, 34.585287056], [-86.057229799, 34.584492156], [-86.059235447, 34.583919672], [-86.060727016, 34.583176811], [-86.062158714, 34.581733439], [-86.063091969, 34.580841718], [-86.06381408, 34.579177576], [-86.064415766, 34.57844718], [-86.070029865, 34.574063014], [-86.072130686, 34.573713392], [-86.072857572, 34.573195934], [-86.073658592, 34.57270587], [-86.075259715, 34.571089271], [-86.076534148, 34.570561608], [-86.078491835, 34.568808915], [-86.082519435, 34.565877741], [-86.086047865, 34.564570703], [-86.089433857, 34.562880563], [-86.091807939, 34.561751056], [-86.09393376, 34.561525421], [-86.09526992, 34.561361051], [-86.098985003, 34.561196885], [-86.101395019, 34.560995306], [-86.103370908, 34.558953004]]]}, "properties": {"arm": "26", "name": "North Sauty Creek", "comid": 19647518, "kind": "atMouth"}}