{"type": "Feature", "geometry": {"type": "Polygon", "coordinates": [[[-85.838264987, 34.851830896], [-85.839020065, 34.852311702], [-85.839318115, 34.854065476], [-85.839148363, 34.856368536], [-85.838868117, 34.856993145], [-85.83864292, 34.857673113], [-85.838050273, 34.858576069], [-85.839190772, 34.859994351], [-85.839397881, 34.860589717], [-85.840025486, 34.861445014], [-85.838892092, 34.861700407], [-85.837916528, 34.862079091], [-85.83586625, 34.862132462], [-85.834850066, 34.862621372], [-85.83431834, 34.862690983], [-85.834177049, 34.863757527], [-85.833985735, 34.863867302], [-85.833427854, 34.86572357], [-85.831917007, 34.866923745], [-85.831367595, 34.868205501], [-85.834278815, 34.870818859], [-85.834626213, 34.872258738], [-85.834815596, 34.875480099], [-85.835635865, 34.876687192], [-85.836326411, 34.878363402], [-85.837581449, 34.879488194], [-85.838866516, 34.879934999], [-85.840641342, 34.881454732], [-85.841128619, 34.881623529], [-85.840728971, 34.882128182], [-85.838051047, 34.884756664], [-85.837038725, 34.886274185], [-85.83683818, 34.886374735], [-85.83684491, 34.887344566], [-85.836955286, 34.888003139], [-85.83743574, 34.888419986], [-85.838433035, 34.889587641], [-85.838916781, 34.892944086], [-85.840077583, 34.8946253], [-85.840681971, 34.897680361], [-85.841136857, 34.899154788], [-85.843457653, 34.899520872], [-85.845245171, 34.900221936], [-85.847010027, 34.9002889], [-85.848127265, 34.900729405], [-85.849079536, 34.900765774], [-85.853420214, 34.901355552], [-85.854124912, 34.901631649], [-85.854189907, 34.902319954], [-85.854435993, 34.903133542], [-85.854645429, 34.904519151], [-85.858189172, 34.906554449], [-85.858994976, 34.907462943], [-85.860034254, 34.908395899], [-85.860155229, 34.908897315], [-85.859190576, 34.909740677], [-85.858827639, 34.910282276], [-85.858391221, 34.910750075], [-85.858156854, 34.911420818], [-85.857950859, 34.911818012], [-85.856612526, 34.917255783], [-85.857107234, 34.918196269], [-85.857231612, 34.91957657], [-85.857597744, 34.920269917], [-85.857945413, 34.920571877], [-85.858102125, 34.921078495], [-85.856260633, 34.921803619], [-85.855164679, 34.923598428], [-85.856530409, 34.925545757], [-85.858194839, 34.926985923], [-85.85741027, 34.928491722], [-85.856870762, 34.929108592], [-85.85731539, 34.929956223], [-85.856564488, 34.930813901], [-85.855999233, 34.931605514], [-85.855576457, 34.93208713], [-85.855105161, 34.932994344], [-85.852089491, 34.93462674], [-85.852113583, 34.935840306], [-85.851934024, 34.936528429], [-85.852229893, 34.937457973], [-85.852245283, 34.939896999], [-85.85487153, 34.941778814], [-85.855805926, 34.942917542], [-85.856463419, 34.94321898], [-85.857267477, 34.944458049], [-85.856267156, 34.944997019], [-85.855104359, 34.946212944], [-85.854648873, 34.946862376], [-85.853856801, 34.947577413], [-85.85342931, 34.948526341], [-85.854828051, 34.950836744], [-85.854315375, 34.951662405], [-85.854005664, 34.952861734], [-85.851536181, 34.952525257], [-85.850456689, 34.951892211], [-85.849598781, 34.952062147], [-85.848599154, 34.952417822], [-85.847425206, 34.952714111], [-85.846684391, 34.953296608], [-85.845390012, 34.952537405], [-85.84325492, 34.953546596], [-85.842873186, 34.952577979], [-85.842595149, 34.951416103], [-85.841054622, 34.951356025], [-85.840343929, 34.950552651], [-85.837713579, 34.948387839], [-85.832864193, 34.945629709], [-85.830049265, 34.944270341], [-85.82899443, 34.943080869], [-85.827829577, 34.942328487], [-85.826790875, 34.94115514], [-85.824693344, 34.939274402], [-85.82445934, 34.937724375], [-85.821746568, 34.933893728], [-85.820354434, 34.934168634], [-85.819833678, 34.934249709], [-85.818946875, 34.934971036], [-85.816743473, 34.9352806], [-85.815587941, 34.936966679], [-85.814498627, 34.936587339], [-85.813826134, 34.93573441], [-85.812584448, 34.935327024], [-85.812357038, 34.934257917], [-85.811577455, 34.932331594], [-85.811302882, 34.931049775], [-85.809856145, 34.928681802], [-85.809798557, 34.925943963], [-85.80960665, 34.924608229], [-85.809727759, 34.92258128], [-85.809217021, 34.922313407], [-85.809352861, 34.920390983], [-85.809595215, 34.920015987], [-85.809580321, 34.919736558], [-85.809894645, 34.918820004], [-85.809493909, 34.918351014], [-85.807019042, 34.916557028], [-85.805088669, 34.914894755], [-85.803371069, 34.912865409], [-85.803053802, 34.910673757], [-85.802702749, 34.909147096], [-85.801577315, 34.907517035], [-85.801508794, 34.90676093], [-85.801488911, 34.905541293], [-85.802687969, 34.903233302], [-85.802063616, 34.902040982], [-85.804055644, 34.898776016], [-85.803761856, 34.897484008], [-85.802865628, 34.89696752], [-85.800768399, 34.896251377], [-85.800636901, 34.893856743], [-85.798690636, 34.891556523], [-85.798593535, 34.891132939], [-85.796819846, 34.890586131], [-85.796231382, 34.89023974], [-85.793377669, 34.888936902], [-85.791908551, 34.887704399], [-85.791085023, 34.887326902], [-85.790089988, 34.886108401], [-85.78807124, 34.88629018], [-85.787287065, 34.886906464], [-85.785751049, 34.887583445], [-85.785340935, 34.887265228], [-85.785306785, 34.886564766], [-85.786139415, 34.884178485], [-85.789257051, 34.882343838], [-85.790784213, 34.881986336], [-85.790726153, 34.880742242], [-85.79118597, 34.880354669], [-85.791587146, 34.880153723], [-85.791751042, 34.880016329], [-85.792761214, 34.879967632], [-85.793847391, 34.878800337], [-85.795160943, 34.878308227], [-85.796305838, 34.877344116], [-85.797712136, 34.876643043], [-85.798110799, 34.875834993], [-85.798598734, 34.875078988], [-85.796816001, 34.873058432], [-85.796798389, 34.872096019], [-85.797728857, 34.871218526], [-85.799297936, 34.869937434], [-85.799285525, 34.869346339], [-85.79947694, 34.868688757], [-85.799462755, 34.86801322], [-85.799677814, 34.867275522], [-85.799429522, 34.865544908], [-85.799729284, 34.865069576], [-85.800088366, 34.864930254], [-85.80067673, 34.863906968], [-85.801145334, 34.863471665], [-85.801547486, 34.86277348], [-85.802057305, 34.86257567], [-85.805163374, 34.862716197], [-85.805725317, 34.861127967], [-85.806208622, 34.860601213], [-85.806796779, 34.860713657], [-85.807718646, 34.860701397], [-85.808388554, 34.858808608], [-85.810191578, 34.857876528], [-85.813231317, 34.857496919], [-85.815017452, 34.856573834], [-85.815646856, 34.856061895], [-85.815431243, 34.854572284], [-85.815760148, 34.854600968], [-85.815830913, 34.854067702], [-85.817968178, 34.854376287], [-85.820133225, 34.855357332], [-85.8208709, 34.855792494], [-85.820133466, 34.856981975], [-85.821153549, 34.857835787], [-85.821376661, 34.859446133], [-85.823103957, 34.860534342], [-85.824352706, 34.859958329], [-85.826327336, 34.860298929], [-85.826529728, 34.861203664], [-85.82672334, 34.861096208], [-85.827728609, 34.859689811], [-85.827571732, 34.859265256], [-85.828044298, 34.858798596], [-85.828459541, 34.857705337], [-85.82891419, 34.857256078], [-85.829294076, 34.85642945], [-85.82994267, 34.856144578], [-85.830186077, 34.855563134], [-85.829845252, 34.854153275], [-85.830620636, 34.853382157], [-85.831139707, 34.852544466], [-85.83159431, 34.852095194], [-85.831975084, 34.851477242], [-85.832859462, 34.850648173], [-85.833276429, 34.850463227], [-85.833241109, 34.850729866], [-85.833570004, 34.8507585], [-85.833873567, 34.851115749], [-85.838264987, 34.851830896]]]}, "properties": {"arm": "264", "name": "Bengis Creek", "comid": 25311907, "kind": "atMouth"}}