{"type": "Feature", "geometry": {"type": "Polygon", "coordinates": [[[-86.306685143, 34.292234798], [-86.3079546, 34.29218923], [-86.310568211, 34.29413789], [-86.311217882, 34.294346035], [-86.311825174, 34.29565488], [-86.312496514, 34.296431701], [-86.313103843, 34.297740536], [-86.314141335, 34.298518439], [-86.31463723, 34.298677886], [-86.313685112, 34.29952555], [-86.31318649, 34.300994834], [-86.312398221, 34.301851965], [-86.31243516, 34.302525181], [-86.316355612, 34.303413295], [-86.317398578, 34.304189505], [-86.318207233, 34.305601505], [-86.319105802, 34.306728088], [-86.318829524, 34.307389887], [-86.318909036, 34.307826415], [-86.32011665, 34.309225344], [-86.320242294, 34.31036534], [-86.320682735, 34.311051156], [-86.320415941, 34.311698996], [-86.320425512, 34.312034852], [-86.318163628, 34.313226253], [-86.316934664, 34.312719018], [-86.314747378, 34.31275758], [-86.313661893, 34.313659428], [-86.313285532, 34.314749062], [-86.312451484, 34.314569795], [-86.310522733, 34.314006124], [-86.310066043, 34.312585568], [-86.308758431, 34.312912481], [-86.30670926, 34.312960331], [-86.305032697, 34.313884334], [-86.304721978, 34.314572728], [-86.303143217, 34.313892794], [-86.302432568, 34.312914564], [-86.30221774, 34.312323403], [-86.30155261, 34.312031744], [-86.301562328, 34.310801881], [-86.301284259, 34.310447768], [-86.300033257, 34.309932174], [-86.298965571, 34.30995031], [-86.298023258, 34.309194999], [-86.297913905, 34.307063756], [-86.296113579, 34.306259791], [-86.293599712, 34.303988335], [-86.292449112, 34.304009998], [-86.290275842, 34.303383326], [-86.290232809, 34.302677967], [-86.289679578, 34.301824501], [-86.290214202, 34.300668082], [-86.291448121, 34.300352069], [-86.292311471, 34.300316901], [-86.293174515, 34.300551444], [-86.295006662, 34.299887198], [-86.29636183, 34.30068133], [-86.297454658, 34.301181637], [-86.298210419, 34.301181673], [-86.299239765, 34.300357444], [-86.298295752, 34.298834895], [-86.298818547, 34.297483577], [-86.299613467, 34.296224574], [-86.300070843, 34.294880419], [-86.301770364, 34.294017423], [-86.303022254, 34.292733413], [-86.303483297, 34.291770986], [-86.304331341, 34.291342486], [-86.304658037, 34.291369815], [-86.306685143, 34.292234798]]]}, "properties": {"arm": "266", "name": "Rocky Branch", "comid": 19649324, "kind": "aboveHead"}}