{"type": "Feature", "geometry": {"type": "Polygon", "coordinates": [[[-86.284908736, 34.423665376], [-86.285245882, 34.423634586], [-86.285770445, 34.423777505], [-86.286009976, 34.424132569], [-86.286051258, 34.425653119], [-86.286505028, 34.427016427], [-86.287930326, 34.428728586], [-86.289007035, 34.430295681], [-86.289131615, 34.430866576], [-86.28925967, 34.431389298], [-86.290023119, 34.43287961], [-86.288900133, 34.433940372], [-86.287821962, 34.435055441], [-86.287411344, 34.43665617], [-86.287572308, 34.436793947], [-86.287837851, 34.437106926], [-86.289882451, 34.438868703], [-86.288908033, 34.44049393], [-86.289459231, 34.441412326], [-86.289297148, 34.441550481], [-86.288231256, 34.441806911], [-86.286663941, 34.443152876], [-86.286087573, 34.443174205], [-86.284212272, 34.442551694], [-86.282448448, 34.443404978], [-86.281922302, 34.443478951], [-86.281834646, 34.443292518], [-86.279144348, 34.441897972], [-86.27729004, 34.442402267], [-86.275637335, 34.442023699], [-86.275055784, 34.441675804], [-86.274395285, 34.441380291], [-86.273989331, 34.440294871], [-86.271651184, 34.439532241], [-86.27106967, 34.439184324], [-86.270409207, 34.438888789], [-86.269240359, 34.437952243], [-86.268252614, 34.437629271], [-86.26767113, 34.437281336], [-86.266195375, 34.437037552], [-86.266071106, 34.436875426], [-86.265405043, 34.436583603], [-86.264429447, 34.43585705], [-86.26175838, 34.435953381], [-86.2596599, 34.435259046], [-86.258835959, 34.435071938], [-86.258576007, 34.434510711], [-86.258848939, 34.4343545], [-86.258891393, 34.432809329], [-86.259330878, 34.432561733], [-86.259736199, 34.431765525], [-86.261215007, 34.43153345], [-86.263808014, 34.429534196], [-86.264765335, 34.428990752], [-86.265783808, 34.428208001], [-86.266930719, 34.427554007], [-86.267439938, 34.427162622], [-86.268061554, 34.426883905], [-86.268675502, 34.426296903], [-86.269680256, 34.425848003], [-86.270586971, 34.425808089], [-86.271159701, 34.42468663], [-86.271908326, 34.424424857], [-86.27282135, 34.424560345], [-86.275403728, 34.424323619], [-86.275455195, 34.425166556], [-86.276344689, 34.425858425], [-86.278083588, 34.425652142], [-86.279140325, 34.424604889], [-86.280890058, 34.425400341], [-86.282761241, 34.424922713], [-86.283482929, 34.423704104], [-86.284113637, 34.423434496], [-86.284908736, 34.423665376]]]}, "properties": {"arm": "274", "name": "Seibold Branch", "comid": 19648894, "kind": "aboveHead"}}