{"type": "Feature", "geometry": {"type": "Polygon", "coordinates": [[[-86.24225469, 34.434088675], [-86.243291232, 34.43375855], [-86.245482438, 34.434924557], [-86.247268831, 34.433690201], [-86.247525089, 34.434259579], [-86.248114972, 34.435154079], [-86.248743166, 34.436563824], [-86.250148475, 34.438388588], [-86.248527168, 34.439788562], [-86.245954714, 34.44170074], [-86.245387948, 34.442034529], [-86.245061896, 34.442713032], [-86.24384267, 34.443792721], [-86.24459064, 34.444274866], [-86.245764629, 34.444657929], [-86.247129156, 34.445476294], [-86.24880238, 34.447595358], [-86.25027634, 34.449307845], [-86.251544305, 34.450912413], [-86.251219963, 34.451188613], [-86.249494392, 34.452061505], [-86.248054127, 34.453826449], [-86.248487312, 34.454162022], [-86.248224888, 34.454500304], [-86.247825319, 34.455903796], [-86.247334166, 34.456313479], [-86.247100655, 34.457282099], [-86.246746156, 34.457960317], [-86.243920946, 34.460108309], [-86.24295987, 34.461249705], [-86.242584047, 34.462075724], [-86.241860849, 34.463154915], [-86.241640339, 34.463835945], [-86.242117078, 34.464440686], [-86.24531741, 34.466403525], [-86.24631379, 34.46766292], [-86.247347445, 34.469589154], [-86.247514049, 34.469723241], [-86.246139447, 34.471272427], [-86.244557338, 34.47217206], [-86.243373146, 34.473686635], [-86.242683996, 34.473902684], [-86.243204341, 34.475124222], [-86.242057743, 34.476279528], [-86.24224538, 34.477371988], [-86.241737058, 34.47836597], [-86.238977033, 34.480502483], [-86.239133787, 34.483004072], [-86.238519674, 34.485712713], [-86.239848705, 34.487920837], [-86.239292168, 34.488845437], [-86.238522282, 34.490352618], [-86.233579249, 34.492141299], [-86.231276046, 34.493441623], [-86.2315079, 34.49512356], [-86.229244984, 34.497227908], [-86.22920767, 34.498604876], [-86.227112233, 34.499794066], [-86.22643313, 34.500316399], [-86.226493641, 34.502656074], [-86.225422548, 34.503842868], [-86.225439229, 34.504486913], [-86.226680181, 34.505042158], [-86.228143299, 34.506273452], [-86.229479254, 34.507100024], [-86.230456892, 34.508775085], [-86.23170826, 34.50977993], [-86.232389214, 34.510795829], [-86.232855083, 34.511488137], [-86.235112993, 34.513022069], [-86.235722376, 34.514297406], [-86.23516163, 34.515661983], [-86.235497988, 34.516560413], [-86.235656504, 34.517433369], [-86.236519655, 34.518032599], [-86.237588697, 34.518354133], [-86.237947706, 34.518889948], [-86.23733477, 34.520380777], [-86.237851313, 34.522472108], [-86.238471912, 34.522903462], [-86.238104619, 34.524640355], [-86.237640135, 34.52538725], [-86.237646259, 34.525665881], [-86.237496787, 34.526192709], [-86.237549127, 34.528211339], [-86.234554389, 34.529346246], [-86.231623337, 34.529609941], [-86.230855933, 34.530459889], [-86.230155135, 34.531498733], [-86.228833102, 34.532192509], [-86.226952188, 34.533825357], [-86.226104065, 34.534270281], [-86.22544868, 34.534215195], [-86.225417339, 34.533258111], [-86.224541338, 34.532126784], [-86.224309551, 34.531546847], [-86.224021283, 34.531004301], [-86.223989891, 34.528761957], [-86.222424318, 34.52692789], [-86.221405055, 34.526049954], [-86.221121823, 34.525345579], [-86.22053156, 34.52483872], [-86.220053877, 34.523648127], [-86.219034347, 34.523303208], [-86.21930905, 34.522095832], [-86.218852648, 34.521227281], [-86.219210239, 34.51965183], [-86.218985163, 34.518693172], [-86.21866314, 34.518417454], [-86.217723777, 34.517318629], [-86.216510378, 34.517136461], [-86.215841686, 34.517370956], [-86.21349156, 34.517421783], [-86.211806362, 34.518287074], [-86.209720375, 34.518478059], [-86.20917992, 34.517844686], [-86.205070045, 34.515924548], [-86.202696126, 34.515979471], [-86.20148628, 34.516909963], [-86.199104281, 34.517231731], [-86.198413102, 34.516421243], [-86.19763083, 34.515961268], [-86.19741557, 34.514927515], [-86.197020939, 34.514409615], [-86.196542987, 34.514038502], [-86.196446256, 34.512235123], [-86.197858697, 34.511521933], [-86.198297583, 34.510124024], [-86.197954143, 34.508592721], [-86.198839268, 34.507245077], [-86.199810386, 34.50619756], [-86.199325914, 34.504778683], [-86.200233868, 34.504431709], [-86.202582639, 34.504307319], [-86.203159325, 34.502250955], [-86.203426169, 34.501616036], [-86.203361228, 34.500925761], [-86.203173908, 34.499569867], [-86.203656216, 34.498765577], [-86.203106606, 34.497004081], [-86.203640958, 34.496115679], [-86.204411315, 34.494610823], [-86.206046325, 34.494015345], [-86.206322197, 34.493166255], [-86.207265956, 34.492230161], [-86.207129971, 34.491691929], [-86.204288725, 34.488609998], [-86.201401497, 34.487683891], [-86.201435389, 34.487233718], [-86.202981261, 34.485526643], [-86.203832071, 34.48471127], [-86.202853202, 34.482441553], [-86.201162266, 34.481605731], [-86.201122778, 34.48065419], [-86.201703257, 34.48003307], [-86.202745205, 34.477446968], [-86.205145135, 34.473571983], [-86.205240478, 34.473044806], [-86.205280073, 34.472508714], [-86.206323235, 34.467914563], [-86.207442989, 34.464875608], [-86.2080165, 34.464104264], [-86.208420766, 34.463607333], [-86.209895332, 34.461417944], [-86.211427664, 34.460097343], [-86.212299206, 34.457871863], [-86.213027951, 34.455895632], [-86.213687274, 34.454752202], [-86.215451303, 34.451438725], [-86.220464592, 34.447773018], [-86.221704968, 34.446101104], [-86.222313387, 34.445357921], [-86.222699119, 34.444842529], [-86.224163565, 34.443277955], [-86.225564657, 34.440498514], [-86.226002469, 34.439734634], [-86.226455706, 34.438685473], [-86.226640826, 34.438570407], [-86.227724436, 34.433785572], [-86.227485203, 34.431898468], [-86.227679477, 34.4317926], [-86.228046763, 34.431258781], [-86.228651875, 34.430928298], [-86.229467485, 34.427871956], [-86.230154896, 34.426747657], [-86.231039, 34.425743155], [-86.231650525, 34.42452396], [-86.234391648, 34.423258424], [-86.235899758, 34.422896387], [-86.240289697, 34.427125824], [-86.241606207, 34.42893485], [-86.242088697, 34.431803211], [-86.24225469, 34.434088675]]]}, "properties": {"arm": "274", "name": "Seibold Branch", "comid": 19650210, "kind": "atMouth"}}