{"type": "Feature", "geometry": {"type": "Polygon", "coordinates": [[[-86.194111494, 34.375497356], [-86.192547928, 34.376912044], [-86.19266384, 34.38137057], [-86.191758618, 34.382826137], [-86.190992231, 34.384733878], [-86.190376068, 34.385417274], [-86.190882433, 34.386941572], [-86.192092247, 34.387644432], [-86.192080782, 34.388874174], [-86.193724654, 34.391122574], [-86.195835981, 34.393473648], [-86.195847034, 34.395666234], [-86.195982345, 34.396065417], [-86.194346858, 34.395927253], [-86.193895219, 34.395436012], [-86.190854606, 34.395278114], [-86.189022151, 34.394006317], [-86.18711045, 34.394375756], [-86.186271201, 34.394435451], [-86.186006417, 34.394771316], [-86.185549225, 34.394913889], [-86.185396217, 34.395061111], [-86.184347574, 34.395528777], [-86.183758954, 34.396827718], [-86.182678607, 34.397747883], [-86.181228437, 34.40029737], [-86.180878008, 34.400453174], [-86.180844089, 34.400720049], [-86.180516976, 34.400692375], [-86.180245607, 34.40282737], [-86.179591365, 34.402772019], [-86.179322174, 34.402369916], [-86.177779108, 34.40251963], [-86.17668563, 34.403765279], [-86.17615049, 34.403829572], [-86.174850492, 34.404098869], [-86.17407743, 34.404084007], [-86.170575263, 34.403490344], [-86.169709937, 34.402475055], [-86.168430383, 34.401974703], [-86.165940296, 34.402299037], [-86.164442138, 34.40229854], [-86.163460799, 34.402215379], [-86.16266469, 34.401996175], [-86.159756383, 34.401446178], [-86.158661319, 34.401465027], [-86.157640812, 34.401182503], [-86.158334483, 34.399772445], [-86.160306382, 34.398141997], [-86.160999977, 34.396731918], [-86.162578254, 34.395006951], [-86.162776734, 34.394604395], [-86.163760421, 34.393025005], [-86.164364126, 34.391082536], [-86.164791189, 34.390608729], [-86.165188102, 34.389803606], [-86.165615154, 34.389329796], [-86.165847569, 34.388660358], [-86.166637533, 34.387648289], [-86.166165759, 34.386261654], [-86.167403074, 34.384189509], [-86.170165735, 34.382164386], [-86.170524023, 34.381621511], [-86.170722828, 34.381520335], [-86.170824664, 34.380719701], [-86.170497639, 34.380691999], [-86.170868209, 34.379423092], [-86.173753677, 34.378095327], [-86.178251308, 34.376292817], [-86.179236679, 34.374898906], [-86.180468836, 34.373858851], [-86.180671748, 34.373460857], [-86.181227283, 34.373417252], [-86.182708387, 34.372531012], [-86.183549828, 34.372960472], [-86.186239425, 34.372134283], [-86.186794947, 34.37209065], [-86.187951011, 34.372401275], [-86.189579891, 34.372180755], [-86.191767618, 34.371971631], [-86.192153707, 34.372693396], [-86.193663396, 34.374450036], [-86.194111494, 34.375497356]]]}, "properties": {"arm": "280", "name": "Hurricane Branch", "comid": 19650306, "kind": "atMouth"}}