{"type": "Feature", "geometry": {"type": "Polygon", "coordinates": [[[-86.191767618, 34.371971631], [-86.192153707, 34.372693396], [-86.193663396, 34.374450036], [-86.194111494, 34.375497356], [-86.192547928, 34.376912044], [-86.19266384, 34.38137057], [-86.191758618, 34.382826137], [-86.190992231, 34.384733878], [-86.190376068, 34.385417274], [-86.190882433, 34.386941572], [-86.192092247, 34.387644432], [-86.192080782, 34.388874174], [-86.193724654, 34.391122574], [-86.195835981, 34.393473648], [-86.195847034, 34.395666234], [-86.195982345, 34.396065417], [-86.194346858, 34.395927253], [-86.193895219, 34.395436012], [-86.190854606, 34.395278114], [-86.189022151, 34.394006317], [-86.18711045, 34.394375756], [-86.186271201, 34.394435451], [-86.186492001, 34.393754471], [-86.186994783, 34.393008823], [-86.186752667, 34.391681773], [-86.186204349, 34.390813526], [-86.186181202, 34.388758969], [-86.184975677, 34.387961575], [-86.184468198, 34.387809068], [-86.184428666, 34.386636116], [-86.182360887, 34.384210482], [-86.178818591, 34.38414255], [-86.175899611, 34.383701581], [-86.174663144, 34.383676976], [-86.172670028, 34.382108858], [-86.170855269, 34.381676967], [-86.170722828, 34.381520335], [-86.170824664, 34.380719701], [-86.170497639, 34.380691999], [-86.170868209, 34.379423092], [-86.173753677, 34.378095327], [-86.178251308, 34.376292817], [-86.179236679, 34.374898906], [-86.180468836, 34.373858851], [-86.180671748, 34.373460857], [-86.181227283, 34.373417252], [-86.182708387, 34.372531012], [-86.183549828, 34.372960472], [-86.186239425, 34.372134283], [-86.186794947, 34.37209065], [-86.187951011, 34.372401275], [-86.189579891, 34.372180755], [-86.191767618, 34.371971631]]]}, "properties": {"arm": "280", "name": "Hurricane Branch", "comid": 19649080, "kind": "aboveHead"}}