{"type": "Feature", "geometry": {"type": "Polygon", "coordinates": [[[-86.130447401, 34.445810211], [-86.130599634, 34.445953805], [-86.130343362, 34.450728418], [-86.129828281, 34.451845809], [-86.130435503, 34.452413714], [-86.130939489, 34.452960198], [-86.131169006, 34.454400062], [-86.131920148, 34.455096088], [-86.132340204, 34.455551137], [-86.132972044, 34.455866124], [-86.1335813, 34.456196048], [-86.13406089, 34.456367439], [-86.134308937, 34.456691966], [-86.135077765, 34.457290422], [-86.135575522, 34.45867507], [-86.135813509, 34.459826921], [-86.135513381, 34.460536895], [-86.134456983, 34.461642041], [-86.13309148, 34.463850456], [-86.131163305, 34.464898386], [-86.128031441, 34.465654345], [-86.124354817, 34.466989798], [-86.123810671, 34.468049896], [-86.120817152, 34.471460049], [-86.120552614, 34.472617666], [-86.120533186, 34.473294578], [-86.119823441, 34.474294215], [-86.118982983, 34.474941343], [-86.117853695, 34.474411183], [-86.116782367, 34.472318075], [-86.116423112, 34.471448787], [-86.115555051, 34.470312828], [-86.115421141, 34.468935865], [-86.115080212, 34.467802598], [-86.115222241, 34.465159399], [-86.115155293, 34.464470913], [-86.118069704, 34.458649632], [-86.118178215, 34.457579884], [-86.118618089, 34.454709113], [-86.118273854, 34.454348967], [-86.117822823, 34.453914404], [-86.117538141, 34.453614114], [-86.117976116, 34.45134378], [-86.119168553, 34.450267194], [-86.119147387, 34.449382393], [-86.119831756, 34.447185694], [-86.120982262, 34.446234077], [-86.12118109, 34.445831616], [-86.121508371, 34.445859455], [-86.121542515, 34.445592611], [-86.122050248, 34.445745382], [-86.123696941, 34.446854831], [-86.124445981, 34.447141909], [-86.125173207, 34.446164799], [-86.12724823, 34.445137892], [-86.130447401, 34.445810211]]]}, "properties": {"arm": "297", "name": "Duvall Branch", "comid": 19648866, "kind": "atMouth"}}