{"type": "Feature", "geometry": {"type": "Polygon", "coordinates": [[[-86.146939156, 34.447336947], [-86.146965516, 34.44842657], [-86.146519843, 34.449994553], [-86.146881258, 34.452448645], [-86.148520273, 34.453398992], [-86.150128598, 34.456190609], [-86.150561418, 34.457356829], [-86.151282855, 34.457679306], [-86.15140974, 34.457839682], [-86.152561007, 34.458055296], [-86.153359163, 34.458546524], [-86.153774224, 34.460541492], [-86.155348369, 34.460988894], [-86.156503359, 34.460547305], [-86.15749003, 34.460310601], [-86.159157029, 34.460658346], [-86.161813463, 34.460565155], [-86.163542905, 34.461295325], [-86.164290545, 34.461777976], [-86.165611055, 34.46237023], [-86.166773488, 34.463067093], [-86.168009458, 34.463470935], [-86.168476355, 34.465630344], [-86.167514144, 34.466486635], [-86.165000543, 34.465761806], [-86.163604146, 34.466494914], [-86.165403093, 34.468587992], [-86.165416505, 34.469111724], [-86.162871892, 34.469197631], [-86.1617485, 34.470404788], [-86.160290807, 34.470766009], [-86.159725997, 34.471910878], [-86.159261073, 34.472657505], [-86.159273481, 34.473168511], [-86.158212207, 34.473401027], [-86.157688031, 34.473476737], [-86.157450706, 34.47414149], [-86.156265165, 34.474456182], [-86.155643449, 34.475337021], [-86.154481305, 34.476684126], [-86.15523673, 34.478119955], [-86.153574891, 34.478377409], [-86.151628011, 34.478781369], [-86.150867919, 34.480259453], [-86.151951022, 34.481194155], [-86.150222957, 34.482577548], [-86.148813277, 34.482013416], [-86.148434705, 34.482548171], [-86.147918637, 34.48314713], [-86.145415005, 34.482766251], [-86.144334079, 34.482746222], [-86.144279747, 34.484568608], [-86.142188769, 34.48575464], [-86.141407409, 34.486931637], [-86.141185948, 34.487612458], [-86.140447169, 34.488354752], [-86.13902975, 34.488457854], [-86.137843494, 34.489058905], [-86.137942858, 34.489758519], [-86.136530422, 34.490388831], [-86.137078621, 34.491259297], [-86.137123188, 34.491962689], [-86.135771366, 34.492037607], [-86.13487113, 34.493859832], [-86.133792776, 34.493656606], [-86.131966215, 34.494612053], [-86.131801447, 34.494747678], [-86.130737698, 34.494490875], [-86.12847958, 34.493401395], [-86.127453581, 34.492829567], [-86.125628434, 34.49276301], [-86.125332745, 34.49218367], [-86.124896203, 34.491128758], [-86.123042949, 34.489544625], [-86.122280354, 34.489178464], [-86.119500793, 34.486023545], [-86.119315533, 34.484804517], [-86.117823879, 34.483468069], [-86.115368198, 34.480694576], [-86.113016357, 34.478585228], [-86.113629629, 34.477895627], [-86.115491992, 34.475953057], [-86.116327158, 34.475731185], [-86.117853695, 34.474411183], [-86.118982983, 34.474941343], [-86.119823441, 34.474294215], [-86.120533186, 34.473294578], [-86.120552614, 34.472617666], [-86.120817152, 34.471460049], [-86.123810671, 34.468049896], [-86.124354817, 34.466989798], [-86.128031441, 34.465654345], [-86.131163305, 34.464898386], [-86.13309148, 34.463850456], [-86.134456983, 34.461642041], [-86.135513381, 34.460536895], [-86.135813509, 34.459826921], [-86.135575522, 34.45867507], [-86.135077765, 34.457290422], [-86.134308937, 34.456691966], [-86.13406089, 34.456367439], [-86.133478376, 34.454554106], [-86.132835046, 34.452832537], [-86.135160106, 34.451750866], [-86.136518681, 34.450707201], [-86.139185509, 34.449195077], [-86.140101516, 34.448134873], [-86.14119001, 34.446594075], [-86.142789018, 34.446034373], [-86.147388633, 34.445718707], [-86.147964082, 34.445948755], [-86.146939156, 34.447336947]]]}, "properties": {"arm": "30", "name": "Yellow Creek", "comid": 19648832, "kind": "aboveHead"}}