{"type": "Feature", "geometry": {"type": "Polygon", "coordinates": [[[-86.146965516, 34.44842657], [-86.146519843, 34.449994553], [-86.146881258, 34.452448645], [-86.148520273, 34.453398992], [-86.150128598, 34.456190609], [-86.150561418, 34.457356829], [-86.151282855, 34.457679306], [-86.15140974, 34.457839682], [-86.152561007, 34.458055296], [-86.153359163, 34.458546524], [-86.153774224, 34.460541492], [-86.155348369, 34.460988894], [-86.156503359, 34.460547305], [-86.15749003, 34.460310601], [-86.159157029, 34.460658346], [-86.161813463, 34.460565155], [-86.163542905, 34.461295325], [-86.164290545, 34.461777976], [-86.165611055, 34.46237023], [-86.166773488, 34.463067093], [-86.168009458, 34.463470935], [-86.168476355, 34.465630344], [-86.167514144, 34.466486635], [-86.165000543, 34.465761806], [-86.163604146, 34.466494914], [-86.165403093, 34.468587992], [-86.165416505, 34.469111724], [-86.162871892, 34.469197631], [-86.1617485, 34.470404788], [-86.160290807, 34.470766009], [-86.159725997, 34.471910878], [-86.159261073, 34.472657505], [-86.159273481, 34.473168511], [-86.158212207, 34.473401027], [-86.157688031, 34.473476737], [-86.157450706, 34.47414149], [-86.156265165, 34.474456182], [-86.155643449, 34.475337021], [-86.154481305, 34.476684126], [-86.15523673, 34.478119955], [-86.153574891, 34.478377409], [-86.151628011, 34.478781369], [-86.150867919, 34.480259453], [-86.151951022, 34.481194155], [-86.150222957, 34.482577548], [-86.148813277, 34.482013416], [-86.148434705, 34.482548171], [-86.147918637, 34.48314713], [-86.145415005, 34.482766251], [-86.144334079, 34.482746222], [-86.144279747, 34.484568608], [-86.142188769, 34.48575464], [-86.141407409, 34.486931637], [-86.141185948, 34.487612458], [-86.140447169, 34.488354752], [-86.13902975, 34.488457854], [-86.137843494, 34.489058905], [-86.137942858, 34.489758519], [-86.136530422, 34.490388831], [-86.137078621, 34.491259297], [-86.137123188, 34.491962689], [-86.135771366, 34.492037607], [-86.13487113, 34.493859832], [-86.133792776, 34.493656606], [-86.131966215, 34.494612053], [-86.131801447, 34.494747678], [-86.132191661, 34.49507372], [-86.132188793, 34.495884771], [-86.131757103, 34.496509796], [-86.129328325, 34.497380356], [-86.129089806, 34.498314688], [-86.129684442, 34.499408281], [-86.127904633, 34.499107503], [-86.127349092, 34.499911648], [-86.126164918, 34.500898401], [-86.126163259, 34.501760129], [-86.124892379, 34.501544688], [-86.123930465, 34.502067742], [-86.12392443, 34.503812041], [-86.122735707, 34.504914276], [-86.121588934, 34.50587045], [-86.121220561, 34.506403888], [-86.120365238, 34.507184633], [-86.12036254, 34.508377111], [-86.119930371, 34.508721792], [-86.119080663, 34.508771787], [-86.118362333, 34.508523177], [-86.116642805, 34.506579487], [-86.114930903, 34.505909203], [-86.109357668, 34.505072644], [-86.109009852, 34.504678485], [-86.107482583, 34.50194389], [-86.103212487, 34.49825081], [-86.103999498, 34.496309549], [-86.104026265, 34.495395142], [-86.104516035, 34.494440081], [-86.104934871, 34.493957341], [-86.105684286, 34.49049348], [-86.106171524, 34.489477083], [-86.106650274, 34.488325091], [-86.107776814, 34.487687643], [-86.107836432, 34.485427331], [-86.108147642, 34.484956492], [-86.109012968, 34.482967065], [-86.108856511, 34.481565007], [-86.111052702, 34.479924871], [-86.111398111, 34.479368426], [-86.11213754, 34.479207975], [-86.112606644, 34.47877585], [-86.113016357, 34.478585228], [-86.113629629, 34.477895627], [-86.115491992, 34.475953057], [-86.116327158, 34.475731185], [-86.117853695, 34.474411183], [-86.118982983, 34.474941343], [-86.119823441, 34.474294215], [-86.120533186, 34.473294578], [-86.120552614, 34.472617666], [-86.120817152, 34.471460049], [-86.123810671, 34.468049896], [-86.124354817, 34.466989798], [-86.128031441, 34.465654345], [-86.131163305, 34.464898386], [-86.13309148, 34.463850456], [-86.134456983, 34.461642041], [-86.135513381, 34.460536895], [-86.135813509, 34.459826921], [-86.135575522, 34.45867507], [-86.135077765, 34.457290422], [-86.134308937, 34.456691966], [-86.13406089, 34.456367439], [-86.133478376, 34.454554106], [-86.132835046, 34.452832537], [-86.135160106, 34.451750866], [-86.136518681, 34.450707201], [-86.139185509, 34.449195077], [-86.140101516, 34.448134873], [-86.14119001, 34.446594075], [-86.142789018, 34.446034373], [-86.147388633, 34.445718707], [-86.147964082, 34.445948755], [-86.146939156, 34.447336947], [-86.146965516, 34.44842657]]]}, "properties": {"arm": "30", "name": "Yellow Creek", "comid": 19650120, "kind": "atMouth"}}