{"type": "Feature", "geometry": {"type": "Polygon", "coordinates": [[[-85.74531455, 34.893751327], [-85.745643597, 34.893780207], [-85.746301691, 34.893837963], [-85.746893195, 34.894296572], [-85.747492334, 34.895982267], [-85.747661837, 34.896115146], [-85.747590561, 34.896648347], [-85.747919621, 34.89667722], [-85.747883984, 34.896943821], [-85.748213045, 34.896972693], [-85.747970884, 34.8976363], [-85.747066874, 34.899495641], [-85.749214205, 34.900866201], [-85.749100213, 34.901349294], [-85.750204215, 34.902002447], [-85.750260784, 34.902999913], [-85.748707338, 34.904774898], [-85.74789995, 34.908012409], [-85.746542933, 34.909562271], [-85.745216937, 34.912105236], [-85.744528408, 34.913226967], [-85.744115233, 34.914020953], [-85.743264783, 34.914991499], [-85.74324285, 34.915602775], [-85.745575297, 34.916700903], [-85.745233709, 34.917718214], [-85.745229621, 34.918449055], [-85.744364264, 34.919414086], [-85.74395564, 34.920212683], [-85.742730182, 34.921982665], [-85.741560807, 34.922944177], [-85.740695961, 34.924176845], [-85.741236679, 34.925619269], [-85.740928389, 34.926542559], [-85.73957179, 34.926724816], [-85.737495325, 34.928474835], [-85.737044199, 34.929589975], [-85.736606932, 34.930057312], [-85.736407138, 34.93046121], [-85.735188939, 34.930444855], [-85.733573544, 34.930926727], [-85.732638297, 34.932100481], [-85.732464598, 34.932542488], [-85.730371497, 34.932141585], [-85.729517822, 34.931055123], [-85.729351125, 34.930920366], [-85.729694279, 34.929951695], [-85.731084305, 34.927966597], [-85.730940621, 34.924765747], [-85.729722962, 34.92453233], [-85.726442276, 34.924840372], [-85.724189017, 34.923112444], [-85.72374824, 34.921916813], [-85.723157216, 34.921085166], [-85.72293944, 34.920497059], [-85.722493056, 34.919692874], [-85.721788486, 34.917787064], [-85.720142553, 34.917100737], [-85.71797115, 34.916433482], [-85.71822402, 34.91571186], [-85.719043743, 34.914487999], [-85.719796353, 34.914113783], [-85.720188694, 34.912312857], [-85.721983431, 34.911461328], [-85.723282022, 34.911710395], [-85.723860615, 34.91086779], [-85.72466693, 34.910150569], [-85.724434439, 34.909051203], [-85.724835107, 34.907672451], [-85.727787339, 34.906956332], [-85.729001686, 34.905969398], [-85.729983373, 34.904932505], [-85.730578692, 34.904624481], [-85.732426173, 34.904367482], [-85.733417035, 34.90415531], [-85.735527108, 34.903860224], [-85.73830277, 34.902848084], [-85.739531722, 34.901847587], [-85.738848867, 34.900885718], [-85.738594764, 34.899693874], [-85.737215418, 34.898028105], [-85.73763191, 34.897811814], [-85.737964553, 34.897541798], [-85.738690433, 34.89736532], [-85.73991526, 34.896783804], [-85.740661616, 34.897270793], [-85.742977546, 34.897710132], [-85.745586255, 34.896232233], [-85.745491096, 34.894278886], [-85.74531455, 34.893751327]]]}, "properties": {"arm": "304", "name": "Horn Branch", "comid": 19644698, "kind": "atMouth"}}