{"type": "Feature", "geometry": {"type": "Polygon", "coordinates": [[[-86.163161269, 34.553906357], [-86.164839625, 34.554343267], [-86.167876082, 34.556449947], [-86.171049, 34.557000435], [-86.172443176, 34.557758763], [-86.173455151, 34.558855621], [-86.175156017, 34.562142939], [-86.177156107, 34.563997435], [-86.176966842, 34.565056019], [-86.17681538, 34.567605327], [-86.176682671, 34.567773215], [-86.175995323, 34.567986978], [-86.175729901, 34.568322753], [-86.174166845, 34.568420415], [-86.172671022, 34.569107372], [-86.171212797, 34.571468331], [-86.168956124, 34.573268776], [-86.168549128, 34.57406454], [-86.167642751, 34.575405952], [-86.167621652, 34.576139507], [-86.167138486, 34.576943578], [-86.167123319, 34.577447973], [-86.166704154, 34.577932975], [-86.166044072, 34.578865365], [-86.165154372, 34.579689851], [-86.164950839, 34.580087724], [-86.164114899, 34.58075451], [-86.159933706, 34.581827435], [-86.159422761, 34.583273868], [-86.158797762, 34.58455895], [-86.157053068, 34.586014805], [-86.156684557, 34.586548307], [-86.155933962, 34.58739714], [-86.15566358, 34.587932619], [-86.154863862, 34.588334824], [-86.154052995, 34.589026844], [-86.153253257, 34.589429037], [-86.152605003, 34.589983104], [-86.151154356, 34.590635717], [-86.149415114, 34.591601006], [-86.147118157, 34.592148223], [-86.146059835, 34.593053121], [-86.144724549, 34.592539724], [-86.141892777, 34.592651757], [-86.140392741, 34.593567653], [-86.135840753, 34.596900804], [-86.134801467, 34.596846427], [-86.131819242, 34.594775245], [-86.130962216, 34.594470801], [-86.12790755, 34.596826552], [-86.127024656, 34.598542633], [-86.126263074, 34.598806723], [-86.125367624, 34.598296706], [-86.122962916, 34.598792193], [-86.120282327, 34.598813309], [-86.118540984, 34.599244916], [-86.116131672, 34.598281799], [-86.114767427, 34.598075331], [-86.114278513, 34.597909488], [-86.115311649, 34.596235738], [-86.116934286, 34.593923033], [-86.116021575, 34.591913342], [-86.11406096, 34.590482563], [-86.110822916, 34.587525122], [-86.10920587, 34.586384714], [-86.107218991, 34.585826003], [-86.105824684, 34.584927828], [-86.105622176, 34.58287514], [-86.104257039, 34.581810848], [-86.103044828, 34.581229432], [-86.106050516, 34.578672044], [-86.107433536, 34.576773124], [-86.109423247, 34.574967909], [-86.111283027, 34.573387618], [-86.111063159, 34.572679901], [-86.110265551, 34.572298141], [-86.109700941, 34.571190259], [-86.110709721, 34.567525316], [-86.111329718, 34.565437165], [-86.11222034, 34.559705576], [-86.112497301, 34.559080115], [-86.112890333, 34.557065369], [-86.113082784, 34.556957405], [-86.113857361, 34.556972668], [-86.117457428, 34.55622923], [-86.134885441, 34.557459978], [-86.135879922, 34.557253534], [-86.139240191, 34.557289802], [-86.14307457, 34.560581558], [-86.144444294, 34.561631047], [-86.145048778, 34.56103328], [-86.145423828, 34.560205367], [-86.146062402, 34.559340777], [-86.150115892, 34.559867393], [-86.15362569, 34.560050749], [-86.154297992, 34.558495756], [-86.155484123, 34.557051672], [-86.156323435, 34.555485517], [-86.157164454, 34.555426048], [-86.158674755, 34.555435843], [-86.160508739, 34.554552218], [-86.16269498, 34.554031272], [-86.163008763, 34.553762822], [-86.163161269, 34.553906357]]]}, "properties": {"arm": "306", "name": "Mink Creek", "comid": 19647520, "kind": "atMouth"}}