{"type": "Feature", "geometry": {"type": "Polygon", "coordinates": [[[-86.163008763, 34.553762822], [-86.163161269, 34.553906357], [-86.164839625, 34.554343267], [-86.167876082, 34.556449947], [-86.171049, 34.557000435], [-86.172443176, 34.557758763], [-86.173455151, 34.558855621], [-86.175156017, 34.562142939], [-86.177156107, 34.563997435], [-86.176966842, 34.565056019], [-86.17681538, 34.567605327], [-86.176682671, 34.567773215], [-86.175995323, 34.567986978], [-86.175729901, 34.568322753], [-86.174166845, 34.568420415], [-86.172671022, 34.569107372], [-86.171212797, 34.571468331], [-86.168956124, 34.573268776], [-86.168549128, 34.57406454], [-86.167642751, 34.575405952], [-86.167621652, 34.576139507], [-86.167138486, 34.576943578], [-86.167123319, 34.577447973], [-86.166704154, 34.577932975], [-86.166044072, 34.578865365], [-86.165154372, 34.579689851], [-86.164950839, 34.580087724], [-86.164114899, 34.58075451], [-86.159933706, 34.581827435], [-86.159422761, 34.583273868], [-86.158797762, 34.58455895], [-86.157053068, 34.586014805], [-86.156684557, 34.586548307], [-86.155933962, 34.58739714], [-86.15566358, 34.587932619], [-86.154863862, 34.588334824], [-86.154052995, 34.589026844], [-86.153253257, 34.589429037], [-86.152605003, 34.589983104], [-86.151154356, 34.590635717], [-86.149415114, 34.591601006], [-86.147118157, 34.592148223], [-86.146059835, 34.593053121], [-86.144724549, 34.592539724], [-86.141892777, 34.592651757], [-86.140392741, 34.593567653], [-86.135840753, 34.596900804], [-86.134801467, 34.596846427], [-86.131819242, 34.594775245], [-86.130962216, 34.594470801], [-86.130219176, 34.593782001], [-86.130384117, 34.589967508], [-86.130147439, 34.589146759], [-86.129933395, 34.588311073], [-86.12952723, 34.586913364], [-86.130698579, 34.586077184], [-86.131285467, 34.585720298], [-86.135274271, 34.582838949], [-86.135964749, 34.581551081], [-86.136918065, 34.580272847], [-86.140541836, 34.5776301], [-86.140728802, 34.576573457], [-86.139720675, 34.573991171], [-86.140203071, 34.572729892], [-86.140864467, 34.571587025], [-86.141892283, 34.569663986], [-86.142951662, 34.569315479], [-86.144311251, 34.568927076], [-86.144593752, 34.56734543], [-86.144583784, 34.564447374], [-86.143119231, 34.563086441], [-86.144233818, 34.562021987], [-86.144444294, 34.561631047], [-86.145048778, 34.56103328], [-86.145423828, 34.560205367], [-86.146062402, 34.559340777], [-86.150115892, 34.559867393], [-86.15362569, 34.560050749], [-86.154297992, 34.558495756], [-86.155484123, 34.557051672], [-86.156323435, 34.555485517], [-86.157164454, 34.555426048], [-86.158674755, 34.555435843], [-86.160508739, 34.554552218], [-86.16269498, 34.554031272], [-86.163008763, 34.553762822]]]}, "properties": {"arm": "306", "name": "Mink Creek", "comid": 19647294, "kind": "aboveHead"}}