{"type": "Feature", "geometry": {"type": "Polygon", "coordinates": [[[-85.811286873, 34.786658283], [-85.81270777, 34.787125858], [-85.817000372, 34.791203156], [-85.818976657, 34.791615855], [-85.820746407, 34.792920853], [-85.820919295, 34.794242461], [-85.821510401, 34.795073726], [-85.822066062, 34.796858603], [-85.824418427, 34.796825642], [-85.824077257, 34.797969646], [-85.821033764, 34.798768373], [-85.819305626, 34.798931597], [-85.818448188, 34.799227669], [-85.818756117, 34.800784428], [-85.818231654, 34.801644802], [-85.817566739, 34.802016671], [-85.815048116, 34.804614321], [-85.81705088, 34.806984884], [-85.817381837, 34.807270849], [-85.818229125, 34.806914891], [-85.818767357, 34.80685227], [-85.821642787, 34.804462683], [-85.822301021, 34.804062814], [-85.823982834, 34.802877686], [-85.8266907, 34.803025279], [-85.826892752, 34.803245191], [-85.82552514, 34.804784377], [-85.825224727, 34.805797065], [-85.825054173, 34.805927596], [-85.823875573, 34.806235745], [-85.82198372, 34.807672286], [-85.820926911, 34.808119574], [-85.820891568, 34.808386221], [-85.820562858, 34.80835755], [-85.820527513, 34.808624197], [-85.820088678, 34.808720784], [-85.820492167, 34.808890844], [-85.820092762, 34.809395465], [-85.819452781, 34.809676803], [-85.817933693, 34.811141588], [-85.817299378, 34.811419195], [-85.816990303, 34.811712533], [-85.816780759, 34.811803827], [-85.816520906, 34.812333258], [-85.81501793, 34.813656123], [-85.814055275, 34.814802757], [-85.811754135, 34.814601907], [-85.811718757, 34.81486855], [-85.811183608, 34.814731221], [-85.810145855, 34.814191773], [-85.809066167, 34.81236321], [-85.808240304, 34.809836101], [-85.807302197, 34.809231564], [-85.805758323, 34.808024099], [-85.801603455, 34.805684423], [-85.80046661, 34.803819131], [-85.798576167, 34.802758269], [-85.796328305, 34.801670332], [-85.795080849, 34.80097119], [-85.793854242, 34.800486697], [-85.793367582, 34.800317689], [-85.79387498, 34.799118734], [-85.793834423, 34.797117416], [-85.79533503, 34.795480593], [-85.796589277, 34.793586186], [-85.79789727, 34.791599529], [-85.799518568, 34.790792975], [-85.800007352, 34.790378411], [-85.800200822, 34.790270991], [-85.801977264, 34.790310374], [-85.803258697, 34.791046147], [-85.804691403, 34.78995752], [-85.806211757, 34.789108342], [-85.808242426, 34.788307942], [-85.809845703, 34.786382794], [-85.810538298, 34.786173546], [-85.811286873, 34.786658283]]]}, "properties": {"arm": "311", "name": "Sterne Branch", "comid": 19645150, "kind": "atMouth"}}