{"type": "Feature", "geometry": {"type": "Polygon", "coordinates": [[[-85.912225007, 34.770048686], [-85.913755339, 34.77081105], [-85.912369387, 34.771559343], [-85.914098565, 34.772646534], [-85.917280459, 34.773644337], [-85.918566339, 34.774667849], [-85.919058792, 34.774832617], [-85.919488893, 34.775769518], [-85.919471086, 34.77675621], [-85.919642564, 34.777131342], [-85.919694736, 34.777584662], [-85.91967555, 34.781253565], [-85.920155786, 34.78167012], [-85.920085809, 34.782203489], [-85.920904261, 34.783129674], [-85.922356726, 34.784428785], [-85.922110259, 34.785614851], [-85.92205074, 34.786682212], [-85.924203639, 34.787432841], [-85.923292112, 34.789353729], [-85.92322353, 34.790529869], [-85.923602448, 34.790868116], [-85.923630148, 34.791825006], [-85.924527987, 34.792245985], [-85.924824193, 34.795472172], [-85.924700073, 34.797705459], [-85.923299414, 34.79779101], [-85.922723296, 34.798737894], [-85.921919846, 34.801991318], [-85.919042917, 34.803449546], [-85.91650209, 34.802406184], [-85.915022789, 34.801349146], [-85.914243795, 34.801229148], [-85.912688521, 34.801937549], [-85.911802718, 34.802255001], [-85.911633139, 34.802122346], [-85.911413527, 34.80037346], [-85.909190854, 34.798649445], [-85.909134415, 34.797517277], [-85.909745168, 34.796565012], [-85.910013766, 34.795627408], [-85.909437794, 34.795128795], [-85.909937564, 34.792984855], [-85.908880966, 34.7897202], [-85.908386142, 34.789137987], [-85.907158492, 34.78855981], [-85.906715352, 34.78803895], [-85.906393322, 34.787762453], [-85.906428361, 34.787495775], [-85.904792678, 34.786130029], [-85.902588381, 34.785376681], [-85.902620612, 34.784380694], [-85.904189016, 34.782938186], [-85.903968742, 34.782282773], [-85.903347294, 34.781103786], [-85.90272674, 34.779088338], [-85.90315426, 34.778166592], [-85.903821123, 34.77779445], [-85.90332702, 34.77685194], [-85.903449548, 34.776314687], [-85.903484228, 34.775299939], [-85.904126818, 34.774559053], [-85.904215059, 34.771812649], [-85.905367593, 34.771636355], [-85.905936586, 34.77100077], [-85.907816086, 34.770409035], [-85.908372629, 34.769433112], [-85.90917401, 34.769123154], [-85.909864044, 34.769404094], [-85.912225007, 34.770048686]]]}, "properties": {"arm": "312", "name": "Blue Spring Brook", "comid": 19646510, "kind": "atMouth"}}