{"type": "Feature", "geometry": {"type": "Polygon", "coordinates": [[[-85.920085809, 34.782203489], [-85.920904261, 34.783129674], [-85.922356726, 34.784428785], [-85.922110259, 34.785614851], [-85.92205074, 34.786682212], [-85.924203639, 34.787432841], [-85.923292112, 34.789353729], [-85.92322353, 34.790529869], [-85.923602448, 34.790868116], [-85.923630148, 34.791825006], [-85.924527987, 34.792245985], [-85.924824193, 34.795472172], [-85.924700073, 34.797705459], [-85.923299414, 34.79779101], [-85.922723296, 34.798737894], [-85.921919846, 34.801991318], [-85.919042917, 34.803449546], [-85.91650209, 34.802406184], [-85.915022789, 34.801349146], [-85.914243795, 34.801229148], [-85.912688521, 34.801937549], [-85.911802718, 34.802255001], [-85.911633139, 34.802122346], [-85.911413527, 34.80037346], [-85.909190854, 34.798649445], [-85.909134415, 34.797517277], [-85.909745168, 34.796565012], [-85.910013766, 34.795627408], [-85.910521011, 34.795403668], [-85.910930551, 34.794737419], [-85.911528125, 34.79414221], [-85.912279918, 34.792511004], [-85.913967593, 34.792157516], [-85.914189605, 34.791673113], [-85.914879988, 34.791517863], [-85.916868823, 34.79193627], [-85.918904658, 34.79148216], [-85.919567005, 34.789798941], [-85.919461304, 34.787695377], [-85.918405439, 34.785985911], [-85.918316336, 34.785556795], [-85.918645176, 34.785366072], [-85.919987553, 34.78413984], [-85.919250829, 34.782689725], [-85.920085809, 34.782203489]]]}, "properties": {"arm": "312", "name": "Blue Spring Brook", "comid": 19645240, "kind": "aboveHead"}}