{"type": "Feature", "geometry": {"type": "Polygon", "coordinates": [[[-86.169914098, 34.599775155], [-86.172576077, 34.601908809], [-86.174029553, 34.602939595], [-86.177835421, 34.602826789], [-86.179836285, 34.602083327], [-86.181272814, 34.603999585], [-86.182423514, 34.604216736], [-86.183113463, 34.604005245], [-86.184592142, 34.604250034], [-86.185969109, 34.605354262], [-86.187163538, 34.607403812], [-86.187576089, 34.609532811], [-86.18822877, 34.610691819], [-86.188529427, 34.610934165], [-86.188583063, 34.611387446], [-86.189275565, 34.612884788], [-86.187216712, 34.612841888], [-86.184892279, 34.613318025], [-86.182246653, 34.614871026], [-86.180207782, 34.615788316], [-86.178589518, 34.617225636], [-86.17786814, 34.618007524], [-86.17538781, 34.619846118], [-86.174617285, 34.621439198], [-86.173681152, 34.622238756], [-86.173481732, 34.62233991], [-86.173053658, 34.62315706], [-86.169066803, 34.624537596], [-86.168030202, 34.624702891], [-86.166528118, 34.625003737], [-86.162248168, 34.625695633], [-86.160461017, 34.626300992], [-86.157381821, 34.626373628], [-86.155921872, 34.62531053], [-86.154345953, 34.625438536], [-86.153958864, 34.625953597], [-86.153259453, 34.626155706], [-86.15192283, 34.627106648], [-86.149974668, 34.627005065], [-86.149219345, 34.626631449], [-86.148676937, 34.625768077], [-86.147824182, 34.625346175], [-86.147987146, 34.623282543], [-86.149122606, 34.622202957], [-86.148860809, 34.621738353], [-86.148300607, 34.621216894], [-86.149421887, 34.62014664], [-86.149549849, 34.618518278], [-86.153212251, 34.615907901], [-86.155216935, 34.615767725], [-86.158121831, 34.613994913], [-86.158675111, 34.612320333], [-86.159442553, 34.611584579], [-86.159653086, 34.611193634], [-86.159721255, 34.610660024], [-86.159393262, 34.610632298], [-86.160669711, 34.609480255], [-86.161251955, 34.607679588], [-86.161666458, 34.607192104], [-86.162078291, 34.606400996], [-86.162722482, 34.605311377], [-86.162405447, 34.604001463], [-86.161158444, 34.603403041], [-86.162491382, 34.602415884], [-86.16392197, 34.602184926], [-86.164397992, 34.599998122], [-86.165925497, 34.599311808], [-86.166383471, 34.598665748], [-86.16733951, 34.599047809], [-86.168899691, 34.598490635], [-86.169914098, 34.599775155]]]}, "properties": {"arm": "325", "name": "Aspel Branch", "comid": 19647274, "kind": "aboveHead"}}