{"type": "Feature", "geometry": {"type": "Polygon", "coordinates": [[[-86.169545414, 34.586204811], [-86.168191858, 34.588452361], [-86.168550753, 34.588703911], [-86.169241021, 34.589727207], [-86.169989079, 34.589952631], [-86.169957438, 34.591195164], [-86.170297534, 34.592466986], [-86.169727129, 34.593000323], [-86.169376327, 34.59475527], [-86.17009916, 34.59540205], [-86.169207686, 34.59729463], [-86.168899691, 34.598490635], [-86.169914098, 34.599775155], [-86.172576077, 34.601908809], [-86.174029553, 34.602939595], [-86.177835421, 34.602826789], [-86.179836285, 34.602083327], [-86.181272814, 34.603999585], [-86.182423514, 34.604216736], [-86.183113463, 34.604005245], [-86.184592142, 34.604250034], [-86.185969109, 34.605354262], [-86.187163538, 34.607403812], [-86.187576089, 34.609532811], [-86.18822877, 34.610691819], [-86.188529427, 34.610934165], [-86.188583063, 34.611387446], [-86.189275565, 34.612884788], [-86.189761906, 34.613052183], [-86.190559785, 34.613498648], [-86.192012126, 34.617430176], [-86.193425977, 34.618206606], [-86.194618643, 34.619092904], [-86.19620247, 34.618330884], [-86.197818758, 34.617944483], [-86.200111189, 34.618921201], [-86.199451704, 34.61960518], [-86.199448566, 34.620403396], [-86.201742511, 34.621165305], [-86.203707205, 34.622805384], [-86.203861073, 34.624507976], [-86.204155205, 34.625046778], [-86.204180228, 34.627518034], [-86.207967953, 34.631569811], [-86.208064142, 34.631995039], [-86.207113645, 34.632848406], [-86.206393668, 34.634252057], [-86.208237403, 34.635420448], [-86.208938943, 34.63623997], [-86.208242663, 34.639290988], [-86.208213201, 34.640398765], [-86.209132046, 34.64213823], [-86.210132121, 34.645399247], [-86.209244817, 34.649300049], [-86.209332619, 34.650708396], [-86.209493889, 34.650846248], [-86.210794266, 34.653213933], [-86.211501392, 34.654969253], [-86.212165139, 34.655924586], [-86.212264211, 34.65634793], [-86.212094642, 34.656479044], [-86.211371697, 34.656885984], [-86.210857907, 34.657889837], [-86.210838867, 34.658528672], [-86.209853876, 34.659650926], [-86.209525657, 34.659623343], [-86.209491723, 34.659890147], [-86.209073565, 34.660956804], [-86.210586729, 34.662956812], [-86.21161437, 34.665331013], [-86.212440789, 34.666740288], [-86.21267461, 34.667653159], [-86.213250429, 34.668811742], [-86.216160263, 34.670551855], [-86.217874612, 34.670971772], [-86.221066039, 34.671945394], [-86.222726767, 34.673093842], [-86.224920402, 34.676271407], [-86.225887744, 34.677165708], [-86.228752891, 34.680262559], [-86.228711822, 34.684832539], [-86.229090773, 34.68682976], [-86.229182606, 34.687699053], [-86.229443196, 34.688260186], [-86.229769285, 34.688673028], [-86.230527539, 34.689010448], [-86.231110751, 34.689358469], [-86.23210156, 34.689681664], [-86.233635991, 34.690379031], [-86.234544733, 34.690695327], [-86.235054706, 34.689659495], [-86.236207404, 34.688707], [-86.23675989, 34.687887486], [-86.238724521, 34.685745366], [-86.239077, 34.685562125], [-86.240432738, 34.686625729], [-86.242521651, 34.686364586], [-86.245120573, 34.691589411], [-86.245335886, 34.692426875], [-86.245837463, 34.693439966], [-86.247323782, 34.693802382], [-86.247356937, 34.695340815], [-86.247157947, 34.696215225], [-86.247142564, 34.696704757], [-86.246386619, 34.698577397], [-86.245658825, 34.699409659], [-86.244231877, 34.699764206], [-86.243550671, 34.701455604], [-86.242149423, 34.701995547], [-86.24041189, 34.703857601], [-86.239957757, 34.704780153], [-86.239681307, 34.705405815], [-86.239171155, 34.707301097], [-86.237920024, 34.708291723], [-86.237991028, 34.708794806], [-86.237795704, 34.709271375], [-86.238485346, 34.710171729], [-86.2383693, 34.71045271], [-86.238783023, 34.711422642], [-86.237568854, 34.711917118], [-86.234475028, 34.712530101], [-86.232355697, 34.713637533], [-86.232102109, 34.714368314], [-86.23402638, 34.716023035], [-86.235195778, 34.718149546], [-86.235563039, 34.720609096], [-86.234800672, 34.721874447], [-86.233989119, 34.72256692], [-86.231803719, 34.723089534], [-86.230720972, 34.724262721], [-86.229185624, 34.724629102], [-86.227199142, 34.724218271], [-86.225771299, 34.724269216], [-86.225880193, 34.726290058], [-86.225342382, 34.726868501], [-86.225367919, 34.727361457], [-86.224333594, 34.728846201], [-86.223135966, 34.730064465], [-86.221824752, 34.730523279], [-86.220637368, 34.731538049], [-86.218413205, 34.731077659], [-86.215863681, 34.731971799], [-86.214329919, 34.733281853], [-86.213337463, 34.732865738], [-86.212181927, 34.732650791], [-86.212182059, 34.733872583], [-86.212433152, 34.734692028], [-86.211912516, 34.73599018], [-86.211201939, 34.738393052], [-86.210397338, 34.738986959], [-86.208762595, 34.739947218], [-86.207868207, 34.74391452], [-86.205881455, 34.744398611], [-86.205033811, 34.744453819], [-86.202566652, 34.744126525], [-86.201069311, 34.743640519], [-86.196954237, 34.742869192], [-86.195341764, 34.743489894], [-86.194764757, 34.743965913], [-86.193379019, 34.743988436], [-86.193171128, 34.743726598], [-86.192418534, 34.74389082], [-86.19074358, 34.743577223], [-86.190343338, 34.743907992], [-86.189403638, 34.744399825], [-86.187862294, 34.74604809], [-86.186527709, 34.746340264], [-86.184913093, 34.745675655], [-86.182377569, 34.746574517], [-86.1818116, 34.747714974], [-86.179703362, 34.74945235], [-86.17766393, 34.748233662], [-86.174537055, 34.750367571], [-86.174024272, 34.751638873], [-86.172187341, 34.751901215], [-86.171601382, 34.75254701], [-86.171006411, 34.753750285], [-86.169351434, 34.752426924], [-86.16833789, 34.752236169], [-86.166556721, 34.752265082], [-86.164932418, 34.751595168], [-86.164966546, 34.751328403], [-86.164637953, 34.751300695], [-86.164684633, 34.749678344], [-86.163605785, 34.747828359], [-86.162224325, 34.746174025], [-86.16173707, 34.743655552], [-86.159145785, 34.743123045], [-86.157530881, 34.741084487], [-86.157392477, 34.740442924], [-86.157067359, 34.739435901], [-86.158302368, 34.737631523], [-86.158951026, 34.735097209], [-86.158501965, 34.733700529], [-86.159108018, 34.732228573], [-86.158287408, 34.730735224], [-86.155918028, 34.730174982], [-86.15506534, 34.729439396], [-86.154299547, 34.72709322], [-86.154138216, 34.726955303], [-86.154080151, 34.726010826], [-86.154140501, 34.725742055], [-86.154148993, 34.725473118], [-86.154274393, 34.72491912], [-86.153627325, 34.724360982], [-86.15310118, 34.723486518], [-86.151534016, 34.722355586], [-86.150884136, 34.720280375], [-86.150536488, 34.717931537], [-86.148884697, 34.715194411], [-86.146968584, 34.714339373], [-86.145121036, 34.713900906], [-86.14331756, 34.712349571], [-86.142115344, 34.710943848], [-86.140669549, 34.709698686], [-86.139869071, 34.708760896], [-86.13765019, 34.706870934], [-86.134491988, 34.706098059], [-86.133381481, 34.704626241], [-86.132887655, 34.702673599], [-86.130451383, 34.700802977], [-86.129083087, 34.700128807], [-86.129633408, 34.697032084], [-86.126978843, 34.694055757], [-86.125946456, 34.69262415], [-86.123900968, 34.692176939], [-86.119239693, 34.689908857], [-86.115578958, 34.690854092], [-86.113145146, 34.690725589], [-86.112959253, 34.690840442], [-86.112826986, 34.690336219], [-86.111023294, 34.68657624], [-86.111107507, 34.685759604], [-86.111631496, 34.684567342], [-86.113389319, 34.682388415], [-86.114169193, 34.681363227], [-86.115159246, 34.680134645], [-86.115324797, 34.679067867], [-86.114277599, 34.676886901], [-86.116647903, 34.674599772], [-86.117156493, 34.67366743], [-86.119982086, 34.67378909], [-86.122788127, 34.673335957], [-86.12369301, 34.672991294], [-86.126164484, 34.672680378], [-86.127312592, 34.670944707], [-86.127953926, 34.668228532], [-86.128455774, 34.667226053], [-86.128983852, 34.665513674], [-86.131676086, 34.664873734], [-86.131914673, 34.664670617], [-86.131345564, 34.664196821], [-86.130902876, 34.663383992], [-86.130720702, 34.66209601], [-86.128165493, 34.65997067], [-86.128170816, 34.657605091], [-86.129043527, 34.655205563], [-86.129051127, 34.652195456], [-86.130244536, 34.650406702], [-86.13143009, 34.6503365], [-86.131372144, 34.649434053], [-86.129700623, 34.648302167], [-86.128821927, 34.646221921], [-86.128915592, 34.642985211], [-86.131980135, 34.641253885], [-86.132661114, 34.640732185], [-86.131334666, 34.640851548], [-86.130559649, 34.640408731], [-86.129220591, 34.640040303], [-86.126953626, 34.638704068], [-86.127549566, 34.638017165], [-86.127890269, 34.636552232], [-86.128321444, 34.636382305], [-86.129139302, 34.635520369], [-86.128852441, 34.63436252], [-86.129637918, 34.634056175], [-86.130532645, 34.63299848], [-86.132276438, 34.632674312], [-86.132985939, 34.631423922], [-86.133813511, 34.63074819], [-86.133994378, 34.63032738], [-86.130809465, 34.629928953], [-86.129151699, 34.627904817], [-86.128920341, 34.627324754], [-86.128632386, 34.62678203], [-86.128226109, 34.625767849], [-86.126575479, 34.624719785], [-86.125100417, 34.623494849], [-86.124122225, 34.623163256], [-86.123367616, 34.62268417], [-86.123241308, 34.622275236], [-86.12397077, 34.6193747], [-86.124208828, 34.618710124], [-86.124453768, 34.618052452], [-86.124905031, 34.617502882], [-86.124737684, 34.61591898], [-86.121587473, 34.612992674], [-86.121456175, 34.611734185], [-86.121784159, 34.611762017], [-86.121818374, 34.611495224], [-86.123026272, 34.609690876], [-86.12437037, 34.609086425], [-86.126064105, 34.609613582], [-86.127334578, 34.609361044], [-86.132779776, 34.610124037], [-86.133378929, 34.610461372], [-86.134023357, 34.610768829], [-86.136125789, 34.612312318], [-86.138251977, 34.612618876], [-86.138622295, 34.612336308], [-86.139473866, 34.612037617], [-86.142240536, 34.612014885], [-86.14458843, 34.611196023], [-86.146454031, 34.610907279], [-86.148707577, 34.610440642], [-86.152301786, 34.610447673], [-86.155722043, 34.609687709], [-86.157920198, 34.610383455], [-86.159393262, 34.610632298], [-86.160669711, 34.609480255], [-86.161251955, 34.607679588], [-86.161666458, 34.607192104], [-86.162078291, 34.606400996], [-86.162722482, 34.605311377], [-86.162405447, 34.604001463], [-86.161158444, 34.603403041], [-86.162491382, 34.602415884], [-86.16392197, 34.602184926], [-86.164397992, 34.599998122], [-86.163253062, 34.599777056], [-86.162577198, 34.599391252], [-86.160833422, 34.59935763], [-86.157761715, 34.598893547], [-86.155693093, 34.59984161], [-86.153280983, 34.599991541], [-86.152014685, 34.600963171], [-86.148202512, 34.60033505], [-86.146528013, 34.598362338], [-86.14666824, 34.596071276], [-86.146635084, 34.594791634], [-86.146059835, 34.593053121], [-86.147118157, 34.592148223], [-86.149415114, 34.591601006], [-86.151154356, 34.590635717], [-86.152605003, 34.589983104], [-86.153253257, 34.589429037], [-86.154052995, 34.589026844], [-86.154863862, 34.588334824], [-86.15566358, 34.587932619], [-86.155933962, 34.58739714], [-86.156684557, 34.586548307], [-86.157053068, 34.586014805], [-86.158797762, 34.58455895], [-86.159422761, 34.583273868], [-86.159933706, 34.581827435], [-86.164114899, 34.58075451], [-86.164950839, 34.580087724], [-86.165111883, 34.580225648], [-86.165899847, 34.581537468], [-86.167537812, 34.583898738], [-86.169545414, 34.586204811]]]}, "properties": {"arm": "325", "name": "Aspel Branch", "comid": 167182198, "kind": "atMouth"}}