{"type": "Feature", "geometry": {"type": "Polygon", "coordinates": [[[-85.727985183, 34.867571166], [-85.728264685, 34.870105606], [-85.727734815, 34.870897731], [-85.727332744, 34.87112368], [-85.723811832, 34.8738633], [-85.722830996, 34.876546065], [-85.722371973, 34.877293826], [-85.721958762, 34.878087764], [-85.720292974, 34.879399466], [-85.720385089, 34.881040767], [-85.718776926, 34.881805398], [-85.717082913, 34.881949213], [-85.714474927, 34.882353924], [-85.713669736, 34.883956267], [-85.713445904, 34.88405457], [-85.712382905, 34.885096827], [-85.712870794, 34.88642317], [-85.712961298, 34.887765092], [-85.712039164, 34.888668022], [-85.711222896, 34.889072398], [-85.710745022, 34.889784743], [-85.710307821, 34.890252001], [-85.709729894, 34.891903837], [-85.708343809, 34.892561465], [-85.706462155, 34.892977325], [-85.705605001, 34.892794327], [-85.703956099, 34.892929305], [-85.703098173, 34.893275168], [-85.701161064, 34.893483752], [-85.699890648, 34.89306619], [-85.698478697, 34.891959665], [-85.697421414, 34.892395385], [-85.695895419, 34.892370391], [-85.695631233, 34.892555721], [-85.68759826, 34.892177801], [-85.687501339, 34.891699295], [-85.686666661, 34.890595094], [-85.686497275, 34.890462125], [-85.686631606, 34.890294855], [-85.687401921, 34.890059389], [-85.687627679, 34.889482921], [-85.688088721, 34.88934238], [-85.688357372, 34.889007834], [-85.689015382, 34.889065912], [-85.689780897, 34.888324232], [-85.690315885, 34.887652821], [-85.693731298, 34.885345225], [-85.69422378, 34.882512068], [-85.696277382, 34.880950405], [-85.698283546, 34.878889286], [-85.699956592, 34.879424586], [-85.702527541, 34.878753509], [-85.704014568, 34.87792362], [-85.704052822, 34.876824825], [-85.705502788, 34.876328837], [-85.707254594, 34.875869967], [-85.707890578, 34.87359102], [-85.708678663, 34.872872296], [-85.709346791, 34.871942797], [-85.710244734, 34.871122052], [-85.710880706, 34.870238182], [-85.711387398, 34.869852911], [-85.711581192, 34.869745646], [-85.712110787, 34.869674282], [-85.713132423, 34.869191059], [-85.714096015, 34.868966139], [-85.715956507, 34.868082606], [-85.716898843, 34.868481686], [-85.71782305, 34.86845347], [-85.720654682, 34.8676954], [-85.722407391, 34.86734388], [-85.723612481, 34.866771348], [-85.724350061, 34.86567087], [-85.725326983, 34.865442822], [-85.72747865, 34.866441325], [-85.727976978, 34.866603167], [-85.727985183, 34.867571166]]]}, "properties": {"arm": "337", "name": "Gross Branch", "comid": 19654804, "kind": "atMouth"}}