{"type": "Feature", "geometry": {"type": "Polygon", "coordinates": [[[-85.613615915, 35.018072655], [-85.613732133, 35.019655021], [-85.614155258, 35.020396411], [-85.614575428, 35.021582177], [-85.615407938, 35.023032114], [-85.615686894, 35.024413961], [-85.616610437, 35.02438632], [-85.617655246, 35.025174411], [-85.617912141, 35.024375358], [-85.619848417, 35.022028896], [-85.62113636, 35.022503464], [-85.621312225, 35.022801435], [-85.62150653, 35.022694336], [-85.623345454, 35.022737276], [-85.6239711, 35.02154313], [-85.624525398, 35.020913728], [-85.627054797, 35.020533151], [-85.628178462, 35.020027952], [-85.630092671, 35.019533789], [-85.630859599, 35.020200204], [-85.631195344, 35.022569009], [-85.631779259, 35.023682795], [-85.633054159, 35.023426959], [-85.635062211, 35.023356152], [-85.637316257, 35.025298433], [-85.637049201, 35.025635125], [-85.636878443, 35.026068848], [-85.636548872, 35.026039667], [-85.636512788, 35.026306199], [-85.636348303, 35.026443356], [-85.635393013, 35.026917185], [-85.634924287, 35.026818782], [-85.633748686, 35.028149701], [-85.632794178, 35.030079683], [-85.63281089, 35.030437286], [-85.631951563, 35.031760379], [-85.631382608, 35.03355592], [-85.630608226, 35.034751666], [-85.631074878, 35.036731654], [-85.635493571, 35.036277968], [-85.6364599, 35.036551065], [-85.638086319, 35.036876261], [-85.638729978, 35.038146985], [-85.638618568, 35.039932463], [-85.637296869, 35.041379021], [-85.633584528, 35.044466141], [-85.631432848, 35.045419814], [-85.630545374, 35.045737369], [-85.62987633, 35.046577889], [-85.629402864, 35.048417689], [-85.629746211, 35.04917298], [-85.630848267, 35.04942652], [-85.632301299, 35.05051397], [-85.632548292, 35.05173062], [-85.634090487, 35.052141099], [-85.636243282, 35.053547513], [-85.638862884, 35.054683325], [-85.640022668, 35.055550848], [-85.641170379, 35.055121382], [-85.642635218, 35.055430071], [-85.643215955, 35.054259285], [-85.644406277, 35.054246563], [-85.644567378, 35.054385133], [-85.645637976, 35.056355177], [-85.645292222, 35.057812251], [-85.646370383, 35.058320587], [-85.647059716, 35.05871657], [-85.646754832, 35.060006579], [-85.647407078, 35.061254777], [-85.646122127, 35.062717313], [-85.64581766, 35.063541676], [-85.646681406, 35.063843506], [-85.648145643, 35.064986477], [-85.649884096, 35.064411069], [-85.653569563, 35.068580104], [-85.6561633, 35.069835373], [-85.657135032, 35.070380539], [-85.65761072, 35.071528769], [-85.657475067, 35.072165774], [-85.656419315, 35.074362948], [-85.657391107, 35.075795192], [-85.658503749, 35.075838651], [-85.659443138, 35.075967943], [-85.660060406, 35.076667202], [-85.660571388, 35.076821877], [-85.661307558, 35.077316701], [-85.663578199, 35.079885437], [-85.664733618, 35.080442514], [-85.665628187, 35.081077702], [-85.667561976, 35.082011044], [-85.668833216, 35.083448498], [-85.67053228, 35.084460109], [-85.672311077, 35.0859823], [-85.67265863, 35.085996084], [-85.673750252, 35.08650529], [-85.676496359, 35.086618793], [-85.678610445, 35.085618829], [-85.679939238, 35.085162791], [-85.680932804, 35.086824249], [-85.681336761, 35.087173774], [-85.681424889, 35.087602937], [-85.682329848, 35.089071153], [-85.684501049, 35.09076042], [-85.685883987, 35.091604875], [-85.686333296, 35.092198565], [-85.685737144, 35.092809782], [-85.685134496, 35.094223182], [-85.682168987, 35.094844886], [-85.681763547, 35.096380989], [-85.682744931, 35.097689459], [-85.683958757, 35.099189046], [-85.684876759, 35.101412652], [-85.686509776, 35.10287957], [-85.686794844, 35.104788277], [-85.687135336, 35.105454544], [-85.686581131, 35.106372857], [-85.686561973, 35.106708283], [-85.68850613, 35.107648411], [-85.689678819, 35.107694708], [-85.692416859, 35.110137323], [-85.69399386, 35.110686872], [-85.69278091, 35.112699759], [-85.693292509, 35.113703402], [-85.693356241, 35.114391648], [-85.693781673, 35.115608933], [-85.694496516, 35.115840347], [-85.694620698, 35.11642856], [-85.695862261, 35.118655164], [-85.69453626, 35.122183515], [-85.695343578, 35.123316371], [-85.695501095, 35.124354168], [-85.694654127, 35.125682894], [-85.694451306, 35.126084333], [-85.694415376, 35.126350856], [-85.69285192, 35.126898125], [-85.692054533, 35.127104008], [-85.691078705, 35.127839878], [-85.689094078, 35.12835638], [-85.687908009, 35.128890433], [-85.687189014, 35.129075792], [-85.685802948, 35.129699682], [-85.684362234, 35.129916329], [-85.683496055, 35.131114778], [-85.682460454, 35.131383912], [-85.681522216, 35.132091418], [-85.681946825, 35.133468785], [-85.682166995, 35.134427843], [-85.682057061, 35.134894327], [-85.682650072, 35.136029466], [-85.682382874, 35.137158422], [-85.682347967, 35.138170874], [-85.680354897, 35.140216115], [-85.679973941, 35.141800676], [-85.67934092, 35.142391768], [-85.677336788, 35.142624063], [-85.676106409, 35.143773543], [-85.674026697, 35.144622773], [-85.673088882, 35.144321054], [-85.672976164, 35.144151001], [-85.671772353, 35.144253543], [-85.669617244, 35.143922508], [-85.667812571, 35.145767156], [-85.666289069, 35.145531754], [-85.664888157, 35.14601085], [-85.663449449, 35.146383359], [-85.660472326, 35.148636521], [-85.657916868, 35.14929605], [-85.657719996, 35.149400887], [-85.655865636, 35.150992378], [-85.656610498, 35.152372812], [-85.656685055, 35.155581914], [-85.656085797, 35.156538267], [-85.655844318, 35.157203821], [-85.655638913, 35.157602871], [-85.654829492, 35.158896749], [-85.654803554, 35.161787256], [-85.656174984, 35.164227937], [-85.658534922, 35.165190335], [-85.659329915, 35.167860341], [-85.662018474, 35.169096026], [-85.664691923, 35.169112536], [-85.666259271, 35.170358859], [-85.668122891, 35.169414835], [-85.669187634, 35.169706672], [-85.670577034, 35.171748394], [-85.670836075, 35.173500933], [-85.67126313, 35.174339144], [-85.670414079, 35.175328331], [-85.669835908, 35.176109617], [-85.668993668, 35.177086754], [-85.668956997, 35.177686082], [-85.667398214, 35.179501828], [-85.666941244, 35.181374589], [-85.666193135, 35.183044726], [-85.665401913, 35.18528412], [-85.664285491, 35.186260249], [-85.663451713, 35.187501454], [-85.66349587, 35.188487132], [-85.663284992, 35.189138525], [-85.663862871, 35.190849627], [-85.663749334, 35.191206212], [-85.66379378, 35.192189804], [-85.662882365, 35.194833632], [-85.663048345, 35.195324399], [-85.663306514, 35.195886492], [-85.663347147, 35.196589536], [-85.663823177, 35.197876605], [-85.662959594, 35.199915769], [-85.662116088, 35.200745277], [-85.661924392, 35.201158177], [-85.662106137, 35.201397513], [-85.663775243, 35.202128146], [-85.666017164, 35.201636692], [-85.667540108, 35.20165283], [-85.669114364, 35.20368335], [-85.669827426, 35.206655603], [-85.670110495, 35.21164831], [-85.670981264, 35.21328186], [-85.672063518, 35.213796357], [-85.675548619, 35.214524363], [-85.677302325, 35.216003777], [-85.677897817, 35.218805456], [-85.67971509, 35.21929392], [-85.680630247, 35.219673545], [-85.681127909, 35.219837385], [-85.681224777, 35.220260927], [-85.681511793, 35.220804417], [-85.681328175, 35.224443444], [-85.680028752, 35.226558114], [-85.67850113, 35.227944848], [-85.676686096, 35.230818916], [-85.674699311, 35.231002315], [-85.674219245, 35.231364578], [-85.674310362, 35.231791831], [-85.674903252, 35.23262347], [-85.675018122, 35.235212198], [-85.676117849, 35.237183891], [-85.67741347, 35.237765512], [-85.678808923, 35.240487872], [-85.681655457, 35.241252121], [-85.682506213, 35.241800895], [-85.682489313, 35.243027606], [-85.68341487, 35.244202307], [-85.682380385, 35.245824132], [-85.682431226, 35.248617837], [-85.683281446, 35.24980908], [-85.683972472, 35.250998967], [-85.683054182, 35.251992684], [-85.684067132, 35.253410984], [-85.68259678, 35.254602675], [-85.682249426, 35.256069989], [-85.682830916, 35.25627276], [-85.685733462, 35.259546566], [-85.686626, 35.261702101], [-85.687134682, 35.262018529], [-85.689287822, 35.260454874], [-85.692458239, 35.260259203], [-85.69419528, 35.260498027], [-85.695027129, 35.260531], [-85.695848294, 35.26064308], [-85.69648789, 35.2606676], [-85.697608306, 35.26129255], [-85.697972292, 35.262177658], [-85.698173605, 35.26244811], [-85.699974365, 35.261653877], [-85.701803774, 35.262370456], [-85.702179799, 35.264541624], [-85.703457746, 35.26543311], [-85.704321948, 35.266718054], [-85.705195856, 35.266982146], [-85.704862196, 35.267595405], [-85.702262438, 35.267763525], [-85.702928706, 35.270069665], [-85.702787358, 35.271717257], [-85.702528679, 35.271871531], [-85.702598355, 35.272555957], [-85.703004102, 35.274759192], [-85.70363983, 35.274793856], [-85.703971395, 35.27483556], [-85.708392262, 35.274694246], [-85.709325005, 35.275704959], [-85.710327864, 35.276060347], [-85.710745758, 35.27627601], [-85.712275984, 35.276500624], [-85.713107626, 35.276691425], [-85.714787312, 35.277940232], [-85.717639393, 35.278442708], [-85.718158908, 35.27912646], [-85.719432528, 35.279684515], [-85.72228156, 35.280190816], [-85.724785806, 35.279006957], [-85.726329551, 35.277578954], [-85.727868576, 35.276399089], [-85.728069317, 35.275995342], [-85.72957095, 35.276238292], [-85.730559326, 35.27687661], [-85.733096837, 35.277521831], [-85.733842318, 35.277848191], [-85.734636645, 35.278102981], [-85.734672019, 35.28022941], [-85.735738842, 35.281567561], [-85.737308722, 35.281925899], [-85.737809047, 35.282734257], [-85.737221846, 35.284553506], [-85.736555412, 35.285853958], [-85.73660938, 35.286987739], [-85.736309915, 35.287911593], [-85.736582644, 35.289148741], [-85.738076688, 35.290305095], [-85.738699723, 35.291484358], [-85.738095526, 35.2920888], [-85.73724635, 35.293348013], [-85.737268466, 35.29378598], [-85.737022405, 35.29454598], [-85.736270446, 35.295704143], [-85.735524475, 35.297206176], [-85.734120184, 35.298334723], [-85.733404576, 35.299397043], [-85.733452003, 35.300384898], [-85.732745924, 35.301473325], [-85.73120736, 35.301151406], [-85.730296307, 35.301179213], [-85.729229284, 35.30207388], [-85.729312967, 35.303821124], [-85.728528924, 35.304885864], [-85.72851449, 35.30683728], [-85.728993391, 35.307746994], [-85.729446918, 35.309155819], [-85.730570749, 35.311160355], [-85.7315016, 35.311180606], [-85.734055779, 35.312798204], [-85.73387172, 35.313582566], [-85.733997089, 35.31399163], [-85.733472657, 35.314293379], [-85.73280146, 35.315199485], [-85.73122721, 35.318402732], [-85.730927461, 35.319385517], [-85.73209081, 35.321564075], [-85.731935806, 35.324326779], [-85.731692151, 35.324990076], [-85.731099767, 35.326417021], [-85.731067637, 35.327315754], [-85.730173847, 35.328611043], [-85.729579759, 35.33041909], [-85.728363053, 35.331334385], [-85.726208698, 35.332530029], [-85.722439698, 35.335379146], [-85.722046917, 35.33559547], [-85.722261995, 35.33623145], [-85.721987222, 35.337085798], [-85.722669088, 35.338023778], [-85.725167532, 35.338682399], [-85.726213139, 35.339464672], [-85.726946691, 35.340466114], [-85.726695465, 35.340854907], [-85.725885636, 35.341253865], [-85.725062925, 35.341942374], [-85.723982626, 35.342193406], [-85.722897478, 35.343101198], [-85.721061999, 35.343985514], [-85.720660084, 35.344792933], [-85.7196884, 35.345634791], [-85.717874525, 35.345349796], [-85.716927831, 35.344978426], [-85.714301134, 35.346412727], [-85.713396838, 35.346289381], [-85.710879983, 35.347703734], [-85.707550184, 35.348840453], [-85.70694108, 35.349282141], [-85.704703744, 35.349884597], [-85.703930599, 35.350726874], [-85.703071951, 35.350807559], [-85.701804291, 35.349790778], [-85.699246444, 35.349821604], [-85.699236562, 35.349372068], [-85.699391342, 35.34884638], [-85.699338394, 35.346160245], [-85.699283016, 35.345466587], [-85.69724708, 35.345450397], [-85.694505968, 35.344902625], [-85.693919123, 35.344889101], [-85.691521023, 35.344242829], [-85.690116912, 35.344720053], [-85.687799054, 35.344853813], [-85.687074749, 35.345102041], [-85.685213268, 35.344357357], [-85.684389563, 35.344160807], [-85.683757707, 35.344286524], [-85.680753859, 35.343824903], [-85.67898942, 35.34528149], [-85.678031883, 35.347579872], [-85.678014422, 35.348056512], [-85.677515477, 35.349074379], [-85.67703688, 35.350193036], [-85.674126506, 35.35170483], [-85.673108375, 35.353637648], [-85.671468002, 35.354060218], [-85.669344586, 35.354783689], [-85.666547062, 35.354727463], [-85.666514959, 35.35716397], [-85.663679255, 35.359722713], [-85.66196884, 35.361605134], [-85.66069258, 35.362177545], [-85.659799249, 35.362492916], [-85.659103005, 35.361934559], [-85.658823466, 35.361179018], [-85.658157423, 35.360880304], [-85.65653591, 35.359581212], [-85.654669142, 35.359838302], [-85.653490776, 35.359612451], [-85.652974256, 35.359619667], [-85.651922537, 35.358846712], [-85.649971779, 35.358392754], [-85.649381609, 35.358479839], [-85.64805824, 35.359475599], [-85.646804985, 35.359281004], [-85.644839459, 35.36026443], [-85.643547691, 35.360064303], [-85.642000588, 35.360029154], [-85.640950341, 35.35936155], [-85.639763684, 35.358427023], [-85.639109215, 35.358120785], [-85.637251899, 35.356941755], [-85.635959925, 35.356743626], [-85.635344271, 35.356729386], [-85.634354124, 35.356332438], [-85.632818788, 35.355807365], [-85.632520741, 35.354843656], [-85.632213739, 35.352368731], [-85.63192658, 35.351825188], [-85.631312896, 35.350277495], [-85.630277393, 35.350291503], [-85.62895009, 35.351238267], [-85.628140786, 35.352243352], [-85.626978626, 35.352591644], [-85.626508589, 35.35239218], [-85.624795697, 35.352557038], [-85.623373333, 35.351683672], [-85.621167931, 35.352236867], [-85.618080626, 35.351157466], [-85.61721525, 35.35188157], [-85.616811144, 35.352081827], [-85.616300282, 35.352508597], [-85.616355199, 35.353699479], [-85.615620887, 35.354824874], [-85.612115978, 35.355176765], [-85.609398664, 35.3540898], [-85.607445936, 35.354496549], [-85.606403343, 35.354964763], [-85.604505939, 35.355138304], [-85.603918086, 35.355802593], [-85.603464708, 35.35686218], [-85.602412381, 35.357017716], [-85.600411696, 35.357698196], [-85.599068656, 35.357490926], [-85.597950754, 35.357992437], [-85.597424578, 35.358070182], [-85.596980727, 35.357870808], [-85.594893639, 35.357458619], [-85.592991342, 35.356881573], [-85.592532815, 35.355640182], [-85.592489074, 35.353967817], [-85.592198404, 35.35318368], [-85.592035954, 35.352265531], [-85.59149276, 35.351452716], [-85.59112932, 35.351201446], [-85.591016479, 35.351031347], [-85.591341011, 35.350168946], [-85.592642839, 35.348971719], [-85.59210804, 35.347177926], [-85.592941155, 35.346059285], [-85.594326479, 35.345265494], [-85.595552224, 35.344375405], [-85.596897602, 35.343605439], [-85.597625526, 35.341933935], [-85.598162899, 35.341543292], [-85.601266852, 35.339869206], [-85.602202339, 35.338784847], [-85.601544108, 35.336571476], [-85.603602684, 35.334887028], [-85.603508016, 35.334219259], [-85.603581296, 35.331495459], [-85.603533379, 35.328950536], [-85.602195175, 35.328021078], [-85.600056797, 35.328489184], [-85.598439653, 35.327840472], [-85.598209666, 35.32670777], [-85.597683863, 35.325346638], [-85.597618214, 35.323680725], [-85.592714738, 35.322578782], [-85.590623975, 35.32356076], [-85.589699398, 35.323588419], [-85.587986478, 35.323105921], [-85.587816307, 35.322972867], [-85.588133984, 35.321776985], [-85.589105986, 35.318873603], [-85.588206637, 35.317567791], [-85.589281533, 35.31582592], [-85.588889812, 35.315131798], [-85.587423245, 35.314723766], [-85.586210683, 35.314237098], [-85.583907081, 35.313504131], [-85.58107815, 35.313476663], [-85.580290469, 35.313594326], [-85.579391065, 35.314835532], [-85.576716602, 35.316030963], [-85.573993545, 35.316261327], [-85.573171085, 35.316135685], [-85.572203751, 35.316858865], [-85.571438782, 35.316542379], [-85.570349885, 35.315916933], [-85.568398489, 35.318134961], [-85.566407957, 35.318248993], [-85.564402515, 35.319752169], [-85.563041133, 35.320505604], [-85.562516377, 35.320631759], [-85.560643099, 35.32006086], [-85.559413317, 35.319203686], [-85.558959558, 35.318525002], [-85.558037181, 35.318995039], [-85.556882956, 35.320240852], [-85.556174368, 35.322434305], [-85.554503373, 35.324186166], [-85.552479115, 35.324353865], [-85.55185602, 35.325025333], [-85.551198668, 35.327244387], [-85.550199658, 35.327604325], [-85.549288102, 35.327822446], [-85.549726705, 35.328611479], [-85.549798198, 35.330265382], [-85.550106814, 35.33081953], [-85.548921307, 35.331775968], [-85.548348187, 35.332902727], [-85.546308648, 35.334000204], [-85.545410577, 35.334310095], [-85.545238368, 35.33444015], [-85.544480471, 35.337332843], [-85.544568029, 35.338010604], [-85.544365918, 35.338110609], [-85.543762508, 35.34031546], [-85.541935955, 35.341212712], [-85.540701907, 35.342520818], [-85.540822287, 35.343340553], [-85.539777691, 35.343382446], [-85.537231095, 35.343671997], [-85.536116108, 35.344112107], [-85.534210113, 35.343719112], [-85.53161343, 35.342963299], [-85.529957097, 35.34307704], [-85.529118379, 35.342534613], [-85.528461041, 35.34419526], [-85.526816872, 35.344543905], [-85.526469536, 35.345433659], [-85.526673408, 35.347377493], [-85.525828152, 35.348576838], [-85.523913823, 35.349385959], [-85.522983787, 35.349507446], [-85.521745123, 35.350541082], [-85.519668352, 35.351236641], [-85.518770064, 35.352382759], [-85.515776682, 35.354717852], [-85.514258076, 35.353676468], [-85.512988107, 35.354460727], [-85.512867286, 35.355528672], [-85.512114544, 35.356034599], [-85.510130876, 35.355823925], [-85.508638193, 35.355716022], [-85.507503158, 35.355595773], [-85.505899785, 35.356139521], [-85.505863091, 35.356405929], [-85.505996594, 35.357127867], [-85.507241338, 35.358029039], [-85.506635644, 35.359576218], [-85.506864681, 35.361733037], [-85.505044179, 35.361951907], [-85.504456136, 35.363180405], [-85.503964473, 35.363899211], [-85.503769216, 35.364309479], [-85.503949865, 35.365164143], [-85.504953353, 35.365974262], [-85.505405026, 35.368110912], [-85.505535581, 35.368512335], [-85.504137298, 35.368838411], [-85.502222792, 35.37078282], [-85.500324661, 35.371829031], [-85.499467413, 35.3725215], [-85.500119633, 35.373772226], [-85.498402456, 35.376505318], [-85.49739809, 35.377618655], [-85.497188968, 35.378015034], [-85.496979843, 35.378411412], [-85.496435932, 35.378710472], [-85.495449003, 35.379602024], [-85.494942529, 35.380559659], [-85.492847151, 35.38109725], [-85.490217319, 35.382547788], [-85.489251277, 35.38387518], [-85.487935964, 35.383844015], [-85.487538222, 35.383500861], [-85.487405448, 35.383343618], [-85.486550241, 35.383696982], [-85.485653353, 35.383878064], [-85.485272014, 35.384231642], [-85.484403861, 35.385437125], [-85.483652931, 35.387253547], [-85.484517405, 35.388957348], [-85.484276575, 35.390075642], [-85.48425186, 35.390482168], [-85.483643718, 35.392307137], [-85.483612964, 35.39279529], [-85.482266718, 35.394143423], [-85.479312302, 35.395834419], [-85.479082055, 35.396212028], [-85.479064505, 35.396490674], [-85.478459091, 35.397953483], [-85.478337084, 35.399859831], [-85.476727334, 35.401123245], [-85.476026999, 35.402419536], [-85.476691734, 35.403730481], [-85.476466835, 35.407858793], [-85.477041688, 35.408702389], [-85.477284222, 35.409733267], [-85.476389019, 35.41283667], [-85.476551394, 35.413386333], [-85.474662831, 35.413992739], [-85.472641543, 35.4157102], [-85.470639594, 35.416453885], [-85.468417916, 35.415983277], [-85.466964872, 35.416186104], [-85.465768888, 35.416197027], [-85.464994589, 35.416492196], [-85.465527287, 35.417829295], [-85.466694732, 35.418270903], [-85.46757122, 35.420133874], [-85.468072604, 35.420296733], [-85.468983364, 35.42068163], [-85.47064857, 35.421066606], [-85.472104086, 35.422153341], [-85.473776506, 35.422694821], [-85.474650489, 35.423346054], [-85.475996608, 35.423936266], [-85.479365867, 35.423194638], [-85.482549307, 35.423361207], [-85.482602775, 35.424054916], [-85.482957286, 35.424693362], [-85.482008111, 35.426557343], [-85.482722314, 35.428744839], [-85.484520041, 35.429859858], [-85.484700629, 35.430714501], [-85.485317445, 35.431825116], [-85.483949551, 35.433950861], [-85.483269736, 35.436045376], [-85.48175885, 35.435754467], [-85.48009925, 35.436520502], [-85.479392077, 35.437087231], [-85.479412705, 35.4383974], [-85.478488324, 35.439833781], [-85.478534716, 35.442644184], [-85.477931291, 35.443293918], [-85.477726489, 35.443694864], [-85.477816761, 35.444122186], [-85.478641786, 35.445603265], [-85.481067401, 35.447107278], [-85.481387424, 35.449834657], [-85.481685385, 35.450371118], [-85.481968374, 35.451717348], [-85.481531132, 35.453193051], [-85.47969994, 35.45515938], [-85.479419169, 35.455711547], [-85.479125444, 35.456357359], [-85.479210261, 35.456994862], [-85.479944856, 35.458164447], [-85.481238992, 35.458680355], [-85.482924371, 35.458281048], [-85.484021484, 35.458819353], [-85.484313752, 35.460572992], [-85.484244725, 35.463044362], [-85.48498348, 35.464014128], [-85.484134264, 35.464848403], [-85.48343002, 35.46596107], [-85.482465689, 35.466907245], [-85.483100891, 35.46790569], [-85.482732067, 35.468203508], [-85.479838147, 35.468810877], [-85.477526932, 35.467422488], [-85.476898304, 35.467741315], [-85.476226207, 35.46827957], [-85.475340641, 35.468731327], [-85.474506471, 35.46992925], [-85.473915826, 35.469935445], [-85.47285604, 35.469297165], [-85.471632162, 35.469427919], [-85.470633245, 35.469637765], [-85.469238469, 35.469753214], [-85.467569949, 35.470520437], [-85.4662089, 35.470259648], [-85.465277241, 35.470627156], [-85.465768059, 35.473045398], [-85.464048739, 35.474027138], [-85.463358601, 35.475848848], [-85.463327395, 35.476339041], [-85.46388155, 35.477429364], [-85.465444007, 35.478186418], [-85.465243231, 35.479124928], [-85.464243579, 35.480512346], [-85.46591068, 35.481952909], [-85.466880118, 35.484399172], [-85.467234769, 35.485075552], [-85.470018944, 35.485853285], [-85.472050603, 35.487143039], [-85.472191536, 35.487602262], [-85.472011567, 35.488353026], [-85.471975737, 35.489293637], [-85.471816207, 35.48995353], [-85.471774885, 35.49102848], [-85.47137345, 35.492696939], [-85.472717024, 35.495265023], [-85.47452947, 35.495886242], [-85.475681158, 35.496545309], [-85.476049949, 35.498162495], [-85.476299683, 35.498972709], [-85.476307525, 35.501151733], [-85.476594137, 35.501695582], [-85.476616496, 35.50265191], [-85.474200403, 35.50587841], [-85.473947602, 35.508727241], [-85.473705183, 35.50913324], [-85.473884206, 35.509260888], [-85.4744267, 35.510040371], [-85.47460353, 35.511661458], [-85.474994404, 35.511944962], [-85.476156745, 35.512168863], [-85.477593976, 35.512642714], [-85.477161195, 35.514101907], [-85.477814488, 35.516108912], [-85.479914779, 35.516549239], [-85.480793923, 35.517076441], [-85.481793991, 35.517525949], [-85.483624886, 35.518624711], [-85.483743202, 35.520158372], [-85.484303434, 35.520716066], [-85.48610589, 35.520067946], [-85.487120393, 35.519825607], [-85.487776528, 35.520657274], [-85.489073724, 35.520191554], [-85.489549071, 35.520794313], [-85.489949313, 35.521750605], [-85.490159636, 35.523701133], [-85.490944505, 35.52426618], [-85.491065531, 35.525401905], [-85.491544687, 35.526186158], [-85.491757653, 35.528136907], [-85.491466057, 35.528785021], [-85.491046878, 35.529122621], [-85.490243003, 35.529130991], [-85.489167028, 35.528925494], [-85.488206827, 35.529153742], [-85.487170331, 35.529630077], [-85.485369097, 35.530248844], [-85.483958264, 35.530965618], [-85.483291424, 35.530836599], [-85.482329746, 35.530847689], [-85.481428838, 35.530305938], [-85.477320287, 35.531957346], [-85.476346569, 35.531278442], [-85.475837866, 35.530632627], [-85.473714173, 35.530225988], [-85.472207344, 35.530990938], [-85.470744634, 35.531191016], [-85.468837203, 35.53215819], [-85.468636782, 35.532260361], [-85.468210803, 35.532873254], [-85.467494054, 35.533236856], [-85.467007067, 35.533627308], [-85.467637122, 35.534760113], [-85.467719626, 35.536758272], [-85.467381616, 35.537890939], [-85.466684886, 35.538639739], [-85.463651193, 35.53889105], [-85.463659414, 35.539380529], [-85.463404917, 35.540232041], [-85.462200648, 35.541272514], [-85.462380759, 35.541827919], [-85.461166985, 35.543712303], [-85.46119013, 35.545285935], [-85.460224516, 35.547177749], [-85.459589571, 35.547858306], [-85.460448732, 35.550404111], [-85.460673048, 35.551473273], [-85.461423517, 35.551719425], [-85.461266799, 35.551865521], [-85.460505838, 35.552016584], [-85.459062162, 35.550808909], [-85.457788439, 35.550475923], [-85.456316548, 35.551835801], [-85.454999104, 35.552101379], [-85.454448533, 35.552589328], [-85.45530091, 35.553708362], [-85.455369483, 35.555180723], [-85.454380497, 35.556482653], [-85.453913114, 35.556276528], [-85.451613781, 35.555693738], [-85.450607331, 35.556591708], [-85.449296681, 35.556259547], [-85.448334292, 35.556480991], [-85.448124424, 35.556877221], [-85.447789945, 35.558265069], [-85.446090161, 35.55965711], [-85.445446684, 35.561379638], [-85.445390362, 35.562823978], [-85.444870774, 35.564976817], [-85.442835407, 35.567044511], [-85.443001486, 35.567832523], [-85.444372655, 35.568448231], [-85.443880051, 35.570104201], [-85.443888987, 35.570644302], [-85.443614251, 35.571563487], [-85.443627651, 35.572373638], [-85.443274407, 35.573555444], [-85.443085198, 35.573972474], [-85.442331459, 35.574673922], [-85.441848961, 35.575614528], [-85.442277497, 35.575893051], [-85.441668701, 35.57649582], [-85.440182592, 35.578159728], [-85.438970221, 35.578194417], [-85.438160156, 35.577563611], [-85.437545835, 35.576752303], [-85.435592925, 35.578374353], [-85.433610254, 35.577813317], [-85.432934376, 35.578652303], [-85.432612992, 35.580150835], [-85.431065988, 35.580326102], [-85.430433214, 35.581666111], [-85.429441716, 35.582584235], [-85.427929953, 35.582166437], [-85.426377558, 35.582926818], [-85.425454589, 35.582315293], [-85.423613131, 35.582040624], [-85.423479759, 35.581641035], [-85.423322602, 35.580356613], [-85.42061632, 35.578300017], [-85.420502708, 35.576684525], [-85.419301541, 35.575753042], [-85.420076499, 35.572338087], [-85.421152349, 35.57181313], [-85.420825273, 35.571240257], [-85.419652918, 35.570743227], [-85.419170663, 35.570756836], [-85.417156416, 35.569444776], [-85.416406852, 35.569116268], [-85.414578308, 35.567696525], [-85.413901521, 35.565941956], [-85.414143301, 35.56520524], [-85.413104685, 35.564766485], [-85.410831802, 35.564294827], [-85.409319998, 35.563805111], [-85.40857946, 35.561718219], [-85.407452068, 35.560843759], [-85.40721126, 35.558843878], [-85.406870497, 35.558577304], [-85.406746232, 35.558414452], [-85.404644109, 35.559034554], [-85.404476614, 35.558899416], [-85.404142432, 35.55730616], [-85.403449877, 35.556889977], [-85.402197983, 35.556476179], [-85.399683914, 35.555346346], [-85.398950009, 35.554079485], [-85.396736628, 35.553560197], [-85.397396776, 35.552271222], [-85.396692766, 35.550358132], [-85.394662337, 35.549882637], [-85.393173652, 35.548684757], [-85.391686643, 35.548283382], [-85.389941541, 35.546065849], [-85.388529269, 35.545599522], [-85.38637942, 35.544289342], [-85.384421576, 35.545080076], [-85.38242361, 35.543960471], [-85.380651568, 35.541919415], [-85.380077514, 35.540957532], [-85.378904875, 35.539941705], [-85.379018117, 35.539469437], [-85.37904074, 35.538932118], [-85.379415778, 35.537375229], [-85.379014569, 35.536603777], [-85.379459157, 35.534924634], [-85.379031654, 35.534228765], [-85.378820545, 35.53363667], [-85.376857539, 35.533114216], [-85.375808875, 35.532301239], [-85.375156747, 35.5304537], [-85.372973024, 35.530515951], [-85.372265364, 35.530079214], [-85.369419788, 35.529321117], [-85.368094171, 35.528388262], [-85.36745211, 35.527257914], [-85.366261859, 35.526333031], [-85.366650922, 35.525146124], [-85.366135184, 35.524463294], [-85.365212704, 35.523931269], [-85.364085855, 35.525215926], [-85.360726358, 35.528018277], [-85.358950265, 35.528504742], [-85.357136633, 35.530083399], [-85.354761766, 35.530460949], [-85.352899814, 35.531259831], [-85.352786512, 35.532517974], [-85.352607235, 35.533460436], [-85.351389516, 35.53331249], [-85.349879842, 35.5334879], [-85.348104536, 35.534715935], [-85.34946549, 35.536762575], [-85.348267989, 35.53817346], [-85.347833516, 35.538951687], [-85.347380638, 35.539711394], [-85.347163394, 35.540100506], [-85.346288227, 35.540447005], [-85.345702157, 35.540322392], [-85.342672704, 35.540986097], [-85.342038817, 35.540715976], [-85.341639562, 35.540943241], [-85.338276096, 35.543369657], [-85.337598713, 35.544755863], [-85.337135917, 35.545809617], [-85.336500945, 35.54653807], [-85.335720213, 35.547575697], [-85.335085212, 35.548304142], [-85.33406506, 35.549663533], [-85.33283293, 35.549990286], [-85.33279669, 35.550547458], [-85.331472688, 35.552593594], [-85.330811025, 35.552502106], [-85.330309929, 35.552482035], [-85.329815846, 35.55241203], [-85.327183383, 35.552300137], [-85.326350275, 35.551971868], [-85.325408705, 35.55131351], [-85.325245875, 35.550118857], [-85.325677644, 35.549119215], [-85.325218188, 35.547644859], [-85.323012368, 35.546869867], [-85.321893646, 35.547902088], [-85.3211282, 35.547074225], [-85.320384136, 35.545683617], [-85.318970442, 35.54580836], [-85.31839933, 35.545427913], [-85.317554217, 35.545241759], [-85.317045986, 35.545347401], [-85.31571233, 35.545089562], [-85.314344068, 35.545376394], [-85.312958439, 35.544797758], [-85.310769005, 35.545903469], [-85.308645002, 35.545200927], [-85.307332154, 35.545671805], [-85.306518358, 35.548377152], [-85.305195527, 35.549515034], [-85.305322446, 35.549676149], [-85.306003432, 35.550226763], [-85.305473987, 35.55199288], [-85.30646633, 35.552792973], [-85.306807255, 35.553447578], [-85.306016124, 35.554294471], [-85.305428179, 35.55569287], [-85.304095048, 35.556008073], [-85.302687807, 35.556718978], [-85.301585417, 35.557128839], [-85.299375564, 35.558245164], [-85.298869663, 35.558650147], [-85.299515789, 35.559932979], [-85.300389841, 35.561070036], [-85.300911972, 35.561947588], [-85.301491814, 35.562788233], [-85.301940635, 35.56603162], [-85.301318647, 35.567502762], [-85.30008846, 35.567681895], [-85.298137006, 35.568545647], [-85.294530021, 35.568452074], [-85.291153407, 35.567711386], [-85.289643957, 35.568381271], [-85.288167471, 35.567532851], [-85.28666837, 35.567645273], [-85.284026774, 35.569082423], [-85.283127782, 35.568941715], [-85.280522566, 35.570306248], [-85.279157176, 35.570270601], [-85.278231929, 35.569181399], [-85.277762162, 35.568938508], [-85.276543805, 35.569293365], [-85.276128466, 35.569799212], [-85.275572857, 35.570294407], [-85.273470738, 35.571032402], [-85.272938716, 35.572364133], [-85.271003499, 35.573759933], [-85.270655971, 35.575234867], [-85.270989489, 35.576405139], [-85.270378401, 35.578370214], [-85.266666142, 35.582008415], [-85.265507223, 35.581940852], [-85.263664773, 35.581712016], [-85.261306719, 35.581935575], [-85.261140363, 35.582072136], [-85.260734105, 35.582271132], [-85.260259961, 35.58341424], [-85.259166109, 35.583944634], [-85.258209722, 35.586603053], [-85.256217493, 35.588062992], [-85.255817324, 35.588812479], [-85.256293416, 35.59023599], [-85.256017459, 35.591072647], [-85.255007196, 35.592124755], [-85.25450504, 35.593334824], [-85.253227136, 35.594347785], [-85.252264642, 35.596249166], [-85.251782891, 35.596980671], [-85.252039387, 35.597543457], [-85.251835283, 35.597946274], [-85.250335696, 35.59913286], [-85.249319234, 35.601952203], [-85.249727826, 35.603852097], [-85.250538734, 35.605767576], [-85.249924707, 35.606375347], [-85.249931974, 35.606824814], [-85.248158961, 35.608660728], [-85.245277834, 35.609047075], [-85.244433669, 35.610685271], [-85.244464536, 35.613062756], [-85.243559142, 35.614354019], [-85.242408034, 35.614765293], [-85.241307262, 35.615025223], [-85.240436825, 35.61536515], [-85.238336666, 35.61500292], [-85.236708791, 35.614959769], [-85.234167312, 35.614523485], [-85.233602531, 35.6151715], [-85.232982579, 35.615763907], [-85.232374109, 35.616367894], [-85.231804906, 35.617472738], [-85.231819719, 35.618571886], [-85.231063913, 35.620306572], [-85.228616914, 35.622257719], [-85.226767954, 35.625325406], [-85.225947414, 35.626200783], [-85.225318302, 35.628429533], [-85.225041688, 35.629063794], [-85.223605755, 35.630220097], [-85.221528614, 35.633041421], [-85.221078573, 35.633286878], [-85.221106691, 35.633995322], [-85.221468047, 35.635391616], [-85.22077514, 35.636329193], [-85.220360743, 35.637433383], [-85.220103495, 35.637782839], [-85.219194972, 35.638277188], [-85.218482942, 35.640384549], [-85.217248616, 35.641765705], [-85.213956007, 35.642244452], [-85.210769607, 35.643971797], [-85.209957038, 35.64549048], [-85.21063863, 35.646482021], [-85.211517205, 35.647955122], [-85.21123598, 35.649100959], [-85.209255536, 35.64938769], [-85.208718524, 35.650520673], [-85.209909674, 35.652808302], [-85.210532189, 35.654770011], [-85.210086708, 35.656589844], [-85.210746595, 35.657549883], [-85.211022063, 35.659068977], [-85.210116503, 35.659373911], [-85.208428184, 35.660155122], [-85.206657518, 35.659778316], [-85.205091355, 35.660347302], [-85.203061571, 35.662197118], [-85.200556744, 35.661382225], [-85.200308761, 35.661056116], [-85.199047376, 35.660702608], [-85.19779268, 35.661335822], [-85.197664188, 35.661758127], [-85.197669599, 35.662236935], [-85.195981691, 35.663087557], [-85.194972503, 35.663233295], [-85.193881843, 35.664928719], [-85.191872346, 35.666725445], [-85.191835714, 35.667628148], [-85.191025508, 35.668443171], [-85.189854197, 35.669393695], [-85.189469102, 35.669918924], [-85.189038028, 35.6703978], [-85.188652922, 35.670923027], [-85.187868082, 35.671799354], [-85.18767583, 35.672576129], [-85.187608834, 35.67422618], [-85.185996776, 35.674763352], [-85.1846415, 35.674550715], [-85.183371789, 35.67473361], [-85.182692397, 35.674962149], [-85.18149921, 35.674977145], [-85.181325612, 35.675106629], [-85.181194847, 35.675636177], [-85.179917713, 35.677455592], [-85.178559311, 35.677798882], [-85.17528836, 35.679677826], [-85.173976397, 35.680008469], [-85.171951422, 35.681004892], [-85.17123641, 35.680892964], [-85.167503242, 35.682912649], [-85.166901258, 35.684199673], [-85.168548204, 35.685629786], [-85.170386986, 35.685680436], [-85.171772635, 35.686123574], [-85.172242656, 35.686680812], [-85.172404234, 35.686819947], [-85.171805894, 35.687934537], [-85.170479159, 35.689011829], [-85.169780758, 35.689961308], [-85.168238549, 35.691147353], [-85.167661039, 35.692225909], [-85.165396616, 35.69345946], [-85.165444927, 35.693912711], [-85.165614752, 35.69428861], [-85.168507358, 35.697512334], [-85.165507189, 35.69986262], [-85.165033857, 35.700708403], [-85.164837183, 35.70081468], [-85.164380969, 35.701154216], [-85.164339078, 35.702128076], [-85.164160839, 35.702859751], [-85.164482604, 35.703479262], [-85.164736727, 35.704608808], [-85.165511766, 35.705737672], [-85.164738367, 35.70697103], [-85.165203033, 35.70786071], [-85.165430325, 35.708442048], [-85.165748417, 35.709050677], [-85.166849027, 35.709079978], [-85.16640597, 35.710891485], [-85.164153589, 35.712625534], [-85.164280258, 35.713045931], [-85.163355851, 35.714065254], [-85.160135516, 35.714785422], [-85.156161499, 35.716782773], [-85.15422825, 35.718912594], [-85.151244837, 35.717663064], [-85.150661868, 35.716920496], [-85.149254773, 35.718038683], [-85.148807468, 35.719986727], [-85.148308223, 35.720092584], [-85.147236164, 35.720230104], [-85.145599022, 35.721061623], [-85.14384513, 35.720687648], [-85.141594125, 35.720973848], [-85.139551267, 35.722653002], [-85.138244454, 35.722096685], [-85.137705766, 35.722110372], [-85.13641649, 35.721321751], [-85.135948078, 35.720423171], [-85.135096763, 35.720507133], [-85.133985342, 35.72022159], [-85.132948586, 35.721084989], [-85.133244351, 35.721921345], [-85.133403597, 35.723507935], [-85.132876416, 35.724028378], [-85.132447594, 35.724688512], [-85.131112279, 35.724991323], [-85.129572108, 35.724961305], [-85.129282854, 35.725583698], [-85.128972378, 35.726794145], [-85.128487878, 35.727126748], [-85.127332774, 35.727585177], [-85.12760467, 35.728147525], [-85.127702887, 35.729736937], [-85.125179562, 35.730891235], [-85.124663169, 35.731244068], [-85.122959257, 35.732903607], [-85.121818374, 35.732107424], [-85.119545577, 35.732816887], [-85.118915544, 35.735847993], [-85.117332864, 35.736387074], [-85.116334407, 35.736229791], [-85.114347503, 35.736175305], [-85.113026, 35.73572062], [-85.111527936, 35.734535309], [-85.109760334, 35.733925684], [-85.109502773, 35.734051557], [-85.109528881, 35.734730375], [-85.108698919, 35.735597904], [-85.107256565, 35.736295188], [-85.10626811, 35.737733896], [-85.105372699, 35.737756704], [-85.104152359, 35.73676337], [-85.102319919, 35.736476382], [-85.10215294, 35.736612702], [-85.101078059, 35.737133086], [-85.099896837, 35.738355893], [-85.099085261, 35.73995416], [-85.097679494, 35.740633644], [-85.09748338, 35.741045423], [-85.096731867, 35.742116093], [-85.096337322, 35.742937328], [-85.095892118, 35.743159652], [-85.095074956, 35.744411798], [-85.094668175, 35.745756598], [-85.094853628, 35.747265623], [-85.09516157, 35.748764875], [-85.093470966, 35.750104993], [-85.091225054, 35.750932355], [-85.09051049, 35.751690321], [-85.089816714, 35.753784073], [-85.088575387, 35.753429255], [-85.087817432, 35.752971548], [-85.085573272, 35.753767368], [-85.08424974, 35.753508166], [-85.08250229, 35.754126439], [-85.081568311, 35.754250886], [-85.081372075, 35.754662634], [-85.080536784, 35.755344073], [-85.079952406, 35.75749847], [-85.078911854, 35.757941782], [-85.077948651, 35.759528037], [-85.077042321, 35.760354614], [-85.076618545, 35.760536712], [-85.072702128, 35.763797074], [-85.073086757, 35.765200231], [-85.072669896, 35.765699044], [-85.072007412, 35.766860003], [-85.071629548, 35.767088476], [-85.070078304, 35.766180124], [-85.069204483, 35.7664702], [-85.068145415, 35.766620919], [-85.066961681, 35.767015077], [-85.064039452, 35.767050321], [-85.062136632, 35.767683459], [-85.059817423, 35.767152751], [-85.058890326, 35.766061774], [-85.057289371, 35.765808216], [-85.055519921, 35.767576781], [-85.053832053, 35.767723946], [-85.051610911, 35.76870044], [-85.050882138, 35.768405352], [-85.04991145, 35.768545135], [-85.044830333, 35.772000263], [-85.044032351, 35.774731132], [-85.042646074, 35.775340208], [-85.04132379, 35.775670716], [-85.040434978, 35.776462856], [-85.039832269, 35.777279408], [-85.035436222, 35.779651333], [-85.034505166, 35.779752533], [-85.033148676, 35.780863709], [-85.032176728, 35.78215595], [-85.031667895, 35.783777744], [-85.03042209, 35.784960276], [-85.029619143, 35.786285039], [-85.029405978, 35.786374842], [-85.029191371, 35.788927966], [-85.030876337, 35.791004048], [-85.030847378, 35.792712495], [-85.028363501, 35.794113114], [-85.024993361, 35.797047748], [-85.023931584, 35.797322197], [-85.022737651, 35.797708701], [-85.021697598, 35.797924036], [-85.019101951, 35.796897006], [-85.016606431, 35.797830606], [-85.015950979, 35.799025698], [-85.015307587, 35.799901593], [-85.014568641, 35.799403056], [-85.013721454, 35.799214772], [-85.012940201, 35.799951409], [-85.012605642, 35.800223783], [-85.011770094, 35.800626623], [-85.011173608, 35.801523718], [-85.010488806, 35.802865681], [-85.009123702, 35.804030624], [-85.007969104, 35.805305735], [-85.006741907, 35.806354924], [-85.005506536, 35.807641474], [-85.004472146, 35.808487297], [-85.004064008, 35.808685375], [-85.003729379, 35.808957722], [-85.003525308, 35.80905676], [-85.003314725, 35.809454436], [-85.001803467, 35.81066262], [-85.001186983, 35.812493479], [-85.000377905, 35.813202173], [-84.999213832, 35.814467906], [-84.998024273, 35.815419371], [-84.998465458, 35.816842828], [-84.997819877, 35.819180945], [-84.997793674, 35.820702119], [-84.997112176, 35.821058093], [-84.995048139, 35.820484658], [-84.993765725, 35.821783594], [-84.992477789, 35.822812263], [-84.992462105, 35.823807582], [-84.992370115, 35.824131984], [-84.990775284, 35.824516734], [-84.989996324, 35.826827658], [-84.989519779, 35.827567242], [-84.989059629, 35.828628668], [-84.988583064, 35.829368248], [-84.988372346, 35.829765891], [-84.987980481, 35.830502815], [-84.985590083, 35.831753336], [-84.979088213, 35.831721041], [-84.977391286, 35.830344886], [-84.976754533, 35.829252939], [-84.976188538, 35.828778722], [-84.975842292, 35.827863462], [-84.972532735, 35.826252633], [-84.971338697, 35.826290947], [-84.970812442, 35.826574854], [-84.970382449, 35.827156449], [-84.968834349, 35.828339769], [-84.967467642, 35.829706474], [-84.967028897, 35.830293565], [-84.96760289, 35.832519828], [-84.967589909, 35.833494345], [-84.967392616, 35.833600284], [-84.966822613, 35.834653515], [-84.964264302, 35.836545499], [-84.963206223, 35.837601661], [-84.959969886, 35.839352343], [-84.958930209, 35.839613589], [-84.956970508, 35.840471765], [-84.954880538, 35.841265067], [-84.954620747, 35.841455772], [-84.95428791, 35.841424701], [-84.954118138, 35.841558479], [-84.951528298, 35.842507374], [-84.948230047, 35.844155051], [-84.946758016, 35.845317841], [-84.945599873, 35.845468865], [-84.945560979, 35.845734983], [-84.945228128, 35.845703887], [-84.94532961, 35.846560558], [-84.944768436, 35.849083419], [-84.941691527, 35.852513444], [-84.940636783, 35.854119795], [-84.939306738, 35.855318962], [-84.938972658, 35.856179185], [-84.938866043, 35.858746615], [-84.939587979, 35.860137554], [-84.939707573, 35.861446907], [-84.938371375, 35.862597024], [-84.937659007, 35.862690608], [-84.935933126, 35.864052957], [-84.935937511, 35.864527539], [-84.935782046, 35.865031435], [-84.934226343, 35.864725831], [-84.932530485, 35.865323837], [-84.931087843, 35.865975006], [-84.93110279, 35.867457936], [-84.929910164, 35.86840012], [-84.928994893, 35.869338732], [-84.928081265, 35.871472413], [-84.927491038, 35.872369767], [-84.926401571, 35.871850577], [-84.925073848, 35.871481895], [-84.923521907, 35.870771882], [-84.922527168, 35.870434327], [-84.921442424, 35.869793294], [-84.919488606, 35.870008718], [-84.916103562, 35.871677026], [-84.912766078, 35.872462455], [-84.910938259, 35.871260673], [-84.910843313, 35.870811313], [-84.909150311, 35.871638997], [-84.907793964, 35.872005054], [-84.903507683, 35.874421039], [-84.901111654, 35.875024653], [-84.900124999, 35.873716104], [-84.899825299, 35.873422453], [-84.898988532, 35.872260718], [-84.894469864, 35.867387847], [-84.894825803, 35.867136726], [-84.895797136, 35.866591384], [-84.897175585, 35.864781773], [-84.900362686, 35.863672883], [-84.906069451, 35.86046711], [-84.906353553, 35.859195511], [-84.906440796, 35.857989758], [-84.906617721, 35.857197055], [-84.906712853, 35.855865589], [-84.907309827, 35.853485251], [-84.907131951, 35.852577093], [-84.90580631, 35.850813159], [-84.904782488, 35.850011141], [-84.902890386, 35.848946438], [-84.900337269, 35.847105234], [-84.898691889, 35.846533579], [-84.897502381, 35.845675894], [-84.895999166, 35.844710775], [-84.895791716, 35.843161211], [-84.895357648, 35.841718935], [-84.895264369, 35.841294988], [-84.895549149, 35.840360662], [-84.896074931, 35.83936465], [-84.896646084, 35.837808064], [-84.898070545, 35.836597107], [-84.898620862, 35.835523302], [-84.899812139, 35.834589723], [-84.900018743, 35.834187593], [-84.899595236, 35.833247921], [-84.899704612, 35.831730188], [-84.900674475, 35.827131819], [-84.901341478, 35.82635769], [-84.902436865, 35.824711165], [-84.903951279, 35.823675096], [-84.905108948, 35.823364278], [-84.905846421, 35.822055091], [-84.906704483, 35.821990144], [-84.907604719, 35.822500299], [-84.911845543, 35.821416292], [-84.912562986, 35.820908179], [-84.914116422, 35.82003583], [-84.915298034, 35.818481596], [-84.91651762, 35.817099517], [-84.918566363, 35.81656859], [-84.919992325, 35.815288011], [-84.920486423, 35.815458643], [-84.923044575, 35.817009145], [-84.92664437, 35.817114387], [-84.930538938, 35.817978417], [-84.934033715, 35.817306467], [-84.934434454, 35.816764392], [-84.93463175, 35.816658506], [-84.934300731, 35.815552705], [-84.935039584, 35.81493267], [-84.936572956, 35.814104547], [-84.936346573, 35.812913699], [-84.936512336, 35.812248478], [-84.936615064, 35.809941924], [-84.938400362, 35.806650478], [-84.93908577, 35.805890545], [-84.939473283, 35.805366188], [-84.940824118, 35.804289127], [-84.942311813, 35.804925615], [-84.943274253, 35.804901796], [-84.945096753, 35.805681246], [-84.946208652, 35.805445871], [-84.946890751, 35.805591817], [-84.948397842, 35.805536667], [-84.94960586, 35.804245959], [-84.950470952, 35.803968518], [-84.954405535, 35.803219111], [-84.954852164, 35.802902553], [-84.956189536, 35.802728192], [-84.958815146, 35.801415937], [-84.959154797, 35.80114628], [-84.960978923, 35.800271267], [-84.96225746, 35.799397993], [-84.964045305, 35.798915757], [-84.965515982, 35.798458694], [-84.972700498, 35.79821636], [-84.973227941, 35.798284511], [-84.973784227, 35.798317415], [-84.975375904, 35.797643916], [-84.977256496, 35.797880344], [-84.979582302, 35.798605009], [-84.981065703, 35.798873903], [-84.981220682, 35.797809343], [-84.981826698, 35.796831065], [-84.981349362, 35.793378874], [-84.980867851, 35.789123344], [-84.979741463, 35.784232352], [-84.979828011, 35.782986484], [-84.979731432, 35.782564421], [-84.978721416, 35.781271127], [-84.978084626, 35.779983111], [-84.97768838, 35.779231738], [-84.976156325, 35.778304908], [-84.975656541, 35.778138176], [-84.975841825, 35.776088023], [-84.975672755, 35.775711878], [-84.976946209, 35.77369365], [-84.977114892, 35.769966496], [-84.978884269, 35.767579322], [-84.98069022, 35.766894166], [-84.981270758, 35.766107401], [-84.981703682, 35.765629319], [-84.981916552, 35.765233989], [-84.98207145, 35.764169399], [-84.982792613, 35.763863598], [-84.983912558, 35.762644489], [-84.984979737, 35.760394112], [-84.985256355, 35.757406196], [-84.984024585, 35.756408353], [-84.983222619, 35.755225059], [-84.980583818, 35.753729296], [-84.980037819, 35.752017672], [-84.981401613, 35.748922464], [-84.98107001, 35.747890478], [-84.981228053, 35.747745044], [-84.982729021, 35.74712629], [-84.983497394, 35.746422364], [-84.984836018, 35.746159373], [-84.985846902, 35.745235677], [-84.987195143, 35.745087363], [-84.987595701, 35.744722161], [-84.988030195, 35.744376981], [-84.988871988, 35.744181452], [-84.989543399, 35.743944751], [-84.990611487, 35.743804016], [-84.991288688, 35.74356363], [-84.993036801, 35.743905616], [-84.995215273, 35.741665949], [-84.996655904, 35.741370185], [-84.997189923, 35.741299787], [-84.997599656, 35.740798425], [-84.997822913, 35.738482018], [-84.997484726, 35.737729768], [-84.997437387, 35.737276465], [-85.000054591, 35.735910037], [-85.002561946, 35.735281488], [-85.003836533, 35.734007079], [-85.00563014, 35.731586022], [-85.004929158, 35.729253142], [-85.004841304, 35.726975208], [-85.005375438, 35.726685615], [-85.005456366, 35.724695251], [-85.005003226, 35.723538216], [-85.004301923, 35.722187371], [-85.004418033, 35.719610175], [-85.005406636, 35.718509352], [-85.005313737, 35.716574452], [-85.005280735, 35.714661983], [-85.004855438, 35.711246168], [-85.005795397, 35.710933239], [-85.006521527, 35.710752142], [-85.007334517, 35.710480072], [-85.010625575, 35.710010768], [-85.011405133, 35.709588036], [-85.011579099, 35.709458804], [-85.012728592, 35.709696407], [-85.013837077, 35.71012618], [-85.01584244, 35.710249469], [-85.016338462, 35.710312457], [-85.016721883, 35.710335467], [-85.018644649, 35.711083269], [-85.019588619, 35.71332065], [-85.020866785, 35.713960008], [-85.022442193, 35.715181237], [-85.023770064, 35.714769342], [-85.024957019, 35.714748972], [-85.02491847, 35.715015144], [-85.027244665, 35.715231258], [-85.027283206, 35.714965085], [-85.027321747, 35.714698912], [-85.027426381, 35.712122793], [-85.028058784, 35.710862276], [-85.028084838, 35.710318866], [-85.028396589, 35.709055958], [-85.028239423, 35.707106714], [-85.028157278, 35.705257164], [-85.027297609, 35.703999225], [-85.026882946, 35.701830049], [-85.028807371, 35.700784403], [-85.028978892, 35.700090121], [-85.028189143, 35.699403478], [-85.028616925, 35.69861077], [-85.030587664, 35.697862344], [-85.033287196, 35.696930783], [-85.033712014, 35.696139894], [-85.034368982, 35.696689831], [-85.03517514, 35.69768143], [-85.036017595, 35.699913464], [-85.036215613, 35.700835942], [-85.036638064, 35.701625411], [-85.037287824, 35.7019892], [-85.038628679, 35.701721674], [-85.039104544, 35.700486625], [-85.042437524, 35.698102619], [-85.042596888, 35.695799224], [-85.044249334, 35.695267624], [-85.045168554, 35.695787032], [-85.046286652, 35.695494552], [-85.04832734, 35.693822966], [-85.048524914, 35.692928772], [-85.048572639, 35.692252498], [-85.049787014, 35.691256609], [-85.05040394, 35.690135764], [-85.050394763, 35.68941628], [-85.049714897, 35.687913856], [-85.049560449, 35.686816311], [-85.051518222, 35.685771334], [-85.053291615, 35.685128613], [-85.054134586, 35.683862223], [-85.053205302, 35.682229212], [-85.053907723, 35.681171073], [-85.054151527, 35.680502437], [-85.054266814, 35.679703869], [-85.053926749, 35.679436308], [-85.053299941, 35.678604763], [-85.050896022, 35.676767541], [-85.050818958, 35.675607617], [-85.050648418, 35.674348402], [-85.051564391, 35.6713375], [-85.049947937, 35.668892543], [-85.048185094, 35.666642608], [-85.047182514, 35.665828828], [-85.047394765, 35.665433349], [-85.048274132, 35.664187228], [-85.048854527, 35.662862784], [-85.052338237, 35.660968881], [-85.053148259, 35.65987436], [-85.054328352, 35.658820477], [-85.054895828, 35.657766678], [-85.055366688, 35.657017931], [-85.05539857, 35.656323314], [-85.05596704, 35.655189519], [-85.056217625, 35.654527825], [-85.056123681, 35.654103941], [-85.05583376, 35.653143444], [-85.056782382, 35.651633938], [-85.056261994, 35.650630995], [-85.055826169, 35.649515762], [-85.055253096, 35.649424682], [-85.054055934, 35.649596054], [-85.05236036, 35.650342891], [-85.051055109, 35.649587447], [-85.050068482, 35.649247222], [-85.048978477, 35.648730902], [-85.049342961, 35.648027097], [-85.051453548, 35.646353572], [-85.052562023, 35.645794653], [-85.054049182, 35.644505828], [-85.054705428, 35.643236866], [-85.055334058, 35.643234054], [-85.057155212, 35.644075238], [-85.058654333, 35.643723199], [-85.060972259, 35.642559797], [-85.06246159, 35.64282219], [-85.063351937, 35.643465299], [-85.064338548, 35.643805415], [-85.065527418, 35.644493029], [-85.067193314, 35.644168982], [-85.069651315, 35.642889844], [-85.070307034, 35.643155002], [-85.070924303, 35.643066757], [-85.074439673, 35.641234249], [-85.076983255, 35.641221045], [-85.078250125, 35.641732398], [-85.07843169, 35.64185879], [-85.078655942, 35.642199875], [-85.079539335, 35.642819026], [-85.081749047, 35.643135189], [-85.083974538, 35.643250455], [-85.085145887, 35.642909922], [-85.08547791, 35.642940631], [-85.085516211, 35.642674424], [-85.087470052, 35.643124868], [-85.088992488, 35.643139198], [-85.092173714, 35.642109841], [-85.09289435, 35.641594806], [-85.093088676, 35.641486323], [-85.0939411, 35.638994074], [-85.09463656, 35.637867664], [-85.095401986, 35.636473754], [-85.097481985, 35.634655493], [-85.100953016, 35.633581063], [-85.101054818, 35.633805421], [-85.102788115, 35.633301682], [-85.103685396, 35.633293929], [-85.103974509, 35.632671551], [-85.104565959, 35.630620882], [-85.105684889, 35.629398652], [-85.106871736, 35.628892876], [-85.107186846, 35.628601645], [-85.107399479, 35.628511691], [-85.108366442, 35.626461958], [-85.110258706, 35.625654586], [-85.110926603, 35.624607746], [-85.11279522, 35.62396464], [-85.11349395, 35.623325251], [-85.114742891, 35.622825137], [-85.115500052, 35.622675827], [-85.117257428, 35.621708395], [-85.118582728, 35.621444992], [-85.119146185, 35.620264147], [-85.119805227, 35.619406115], [-85.120213497, 35.61890428], [-85.121196544, 35.615254345], [-85.120492538, 35.6115879], [-85.123319965, 35.611437704], [-85.125907431, 35.610028292], [-85.126603901, 35.609512967], [-85.127253586, 35.60864561], [-85.127881296, 35.606556053], [-85.129937614, 35.604652954], [-85.131797663, 35.603789641], [-85.133530953, 35.603407748], [-85.13381053, 35.602776006], [-85.134417653, 35.601103896], [-85.135391935, 35.599802785], [-85.135625108, 35.599733648], [-85.136306737, 35.598898696], [-85.136539906, 35.598829557], [-85.136819682, 35.598398028], [-85.136231458, 35.597332308], [-85.136054381, 35.596477262], [-85.135337185, 35.594569344], [-85.134847197, 35.592450538], [-85.13554073, 35.591899077], [-85.137475824, 35.591242816], [-85.14021839, 35.589862193], [-85.142780601, 35.589741975], [-85.144573083, 35.588924961], [-85.146027132, 35.588913395], [-85.145240255, 35.587473286], [-85.144122052, 35.586679132], [-85.139139541, 35.583872698], [-85.137557454, 35.583421393], [-85.136661404, 35.582782491], [-85.136171221, 35.582610885], [-85.137317522, 35.581629077], [-85.13729779, 35.579821218], [-85.138571576, 35.579177793], [-85.138529161, 35.575692457], [-85.139765902, 35.575068793], [-85.140005974, 35.574601989], [-85.139699003, 35.573039521], [-85.140825555, 35.567695639], [-85.14245402, 35.567049031], [-85.143726567, 35.566173637], [-85.143916041, 35.566060427], [-85.144361732, 35.564558846], [-85.143964347, 35.562783636], [-85.143624183, 35.562132728], [-85.143435551, 35.561285033], [-85.141959857, 35.557503265], [-85.142608405, 35.5552069], [-85.144561579, 35.553241438], [-85.147518198, 35.551050128], [-85.149872164, 35.551422802], [-85.151043637, 35.551454772], [-85.152098746, 35.551621432], [-85.153630538, 35.550784566], [-85.153763061, 35.550242513], [-85.153802002, 35.54936309], [-85.154792018, 35.548257184], [-85.155550932, 35.547041495], [-85.155566758, 35.54670998], [-85.156618922, 35.54553602], [-85.157355568, 35.544531122], [-85.158953017, 35.544391472], [-85.159126356, 35.544262006], [-85.159545978, 35.543914949], [-85.160898439, 35.543615758], [-85.16181648, 35.542258725], [-85.1636523, 35.541367522], [-85.164211559, 35.540261982], [-85.164655818, 35.539797054], [-85.165497906, 35.537775504], [-85.166287246, 35.537485601], [-85.166821975, 35.537416745], [-85.166733335, 35.536989223], [-85.16619947, 35.536021314], [-85.167048814, 35.532162761], [-85.168396184, 35.531087508], [-85.168592416, 35.530981209], [-85.169139667, 35.529958842], [-85.170556715, 35.528375767], [-85.171411775, 35.525156256], [-85.17156595, 35.521533026], [-85.171788797, 35.520613599], [-85.173228571, 35.519827085], [-85.174214386, 35.519095783], [-85.175017252, 35.518893485], [-85.175735945, 35.518361014], [-85.174480028, 35.517765124], [-85.17427131, 35.517056818], [-85.175286877, 35.515434698], [-85.175986893, 35.513172425], [-85.176309718, 35.512711057], [-85.176244591, 35.512228796], [-85.179209199, 35.509428535], [-85.182349612, 35.508119552], [-85.182752825, 35.507185061], [-85.182616951, 35.506167345], [-85.183399434, 35.504521656], [-85.18444978, 35.503113409], [-85.184284076, 35.502065557], [-85.185903299, 35.502005598], [-85.187439961, 35.502304729], [-85.188548399, 35.502294784], [-85.188536603, 35.501326399], [-85.190246883, 35.499961825], [-85.19290392, 35.498690427], [-85.1940947, 35.499189553], [-85.19422707, 35.499347108], [-85.194131435, 35.50164383], [-85.19616543, 35.502947333], [-85.199199578, 35.503434227], [-85.199631131, 35.504643394], [-85.200090384, 35.505528453], [-85.200045413, 35.508411431], [-85.200962315, 35.508845315], [-85.202224001, 35.509843958], [-85.20248737, 35.511018718], [-85.202690386, 35.510919314], [-85.204036722, 35.509807797], [-85.206153875, 35.509327455], [-85.207938733, 35.509191744], [-85.208804665, 35.50972626], [-85.209661656, 35.508826955], [-85.211219074, 35.507650408], [-85.211198026, 35.507096356], [-85.211455249, 35.506319123], [-85.212841558, 35.505645294], [-85.213007835, 35.505508792], [-85.214422667, 35.506205223], [-85.215953353, 35.506048232], [-85.216627615, 35.505511476], [-85.21843926, 35.504594141], [-85.220749696, 35.502748843], [-85.221404548, 35.501812002], [-85.22160522, 35.501710248], [-85.221604673, 35.500696572], [-85.221172017, 35.498123965], [-85.220883499, 35.497328382], [-85.220742684, 35.496934066], [-85.220738992, 35.494999189], [-85.220027616, 35.494485215], [-85.219529358, 35.49376315], [-85.218472388, 35.493078444], [-85.216136685, 35.492348295], [-85.215898394, 35.490792317], [-85.216862682, 35.489984984], [-85.216686595, 35.488249252], [-85.218693668, 35.488114804], [-85.21892853, 35.487438768], [-85.219451523, 35.487153683], [-85.219877702, 35.486571026], [-85.221685752, 35.484546978], [-85.222780743, 35.482501904], [-85.22336654, 35.482180406], [-85.225191369, 35.482534949], [-85.226746923, 35.483475959], [-85.228493504, 35.484957038], [-85.229924853, 35.485979358], [-85.232266991, 35.485959623], [-85.233437618, 35.484285961], [-85.237220121, 35.481260009], [-85.237623903, 35.481056678], [-85.238650928, 35.48174902], [-85.239716833, 35.482166737], [-85.241382125, 35.480590895], [-85.241612509, 35.4801673], [-85.243591056, 35.477952033], [-85.244385144, 35.477232219], [-85.245549186, 35.475973001], [-85.245742874, 35.475864253], [-85.245986637, 35.475197424], [-85.246706838, 35.473794401], [-85.246939526, 35.473725037], [-85.249651993, 35.470377649], [-85.249884667, 35.470308279], [-85.250079264, 35.469896155], [-85.25148965, 35.468543479], [-85.252242615, 35.4669074], [-85.25262534, 35.465163764], [-85.251992493, 35.463630866], [-85.251849028, 35.461993022], [-85.250511401, 35.460475837], [-85.248596105, 35.460393654], [-85.247406103, 35.459817137], [-85.245872109, 35.45599969], [-85.2464789, 35.455304907], [-85.24686711, 35.454784029], [-85.248365503, 35.453549015], [-85.2486815, 35.452092196], [-85.247840748, 35.450418024], [-85.248907298, 35.449845307], [-85.251239432, 35.4496284], [-85.251763773, 35.448774337], [-85.252458386, 35.44734576], [-85.255527725, 35.445638762], [-85.257921425, 35.445560118], [-85.260334494, 35.444954253], [-85.262008221, 35.444702358], [-85.263172273, 35.443864469], [-85.2649595, 35.44323514], [-85.265541098, 35.442605412], [-85.26581354, 35.442272015], [-85.266278688, 35.442133207], [-85.266353828, 35.441600585], [-85.266335759, 35.439462105], [-85.267451279, 35.435102617], [-85.268445258, 35.43035903], [-85.270507422, 35.428762158], [-85.270585263, 35.426834716], [-85.270925621, 35.425833152], [-85.271712051, 35.425719411], [-85.274123086, 35.423281857], [-85.274318893, 35.423175373], [-85.278752354, 35.417763178], [-85.28029891, 35.41643739], [-85.280900015, 35.416131803], [-85.282722834, 35.414238996], [-85.285190416, 35.411338579], [-85.286681482, 35.410144644], [-85.287015016, 35.409226717], [-85.285604043, 35.408921202], [-85.283984338, 35.408851644], [-85.282333995, 35.407864683], [-85.280976722, 35.406080423], [-85.278492875, 35.404874142], [-85.276405924, 35.40213399], [-85.273650813, 35.400344397], [-85.272851662, 35.399434886], [-85.271662065, 35.399195732], [-85.271532588, 35.399036405], [-85.270649362, 35.398296227], [-85.270657323, 35.397812251], [-85.271802559, 35.396005304], [-85.272168157, 35.394656197], [-85.272183787, 35.393578633], [-85.272434084, 35.392657346], [-85.272438965, 35.39213937], [-85.276540239, 35.392142479], [-85.280169856, 35.391830604], [-85.28148311, 35.392660481], [-85.282662446, 35.393604581], [-85.283345322, 35.393609904], [-85.284981092, 35.393898024], [-85.288496928, 35.39392956], [-85.291009816, 35.394369121], [-85.293731531, 35.394292368], [-85.296452859, 35.393081767], [-85.297064186, 35.392608456], [-85.297975413, 35.392312053], [-85.300093389, 35.391442656], [-85.300267942, 35.391281519], [-85.302115336, 35.391293627], [-85.306142025, 35.38998028], [-85.308148742, 35.387682407], [-85.308323951, 35.384345579], [-85.310701039, 35.3829896], [-85.312162631, 35.381699999], [-85.315533493, 35.379325798], [-85.316519884, 35.37819317], [-85.317411618, 35.376969751], [-85.318651503, 35.373655879], [-85.319290124, 35.372780344], [-85.319463455, 35.372347229], [-85.320002779, 35.371675511], [-85.320176103, 35.371242394], [-85.320563998, 35.36989522], [-85.320174346, 35.36830462], [-85.318924394, 35.366631649], [-85.318121733, 35.364737986], [-85.312018182, 35.363884044], [-85.311134309, 35.363055576], [-85.310876935, 35.362147083], [-85.311116801, 35.360885506], [-85.307796304, 35.360145226], [-85.305092057, 35.359174305], [-85.304319945, 35.357662607], [-85.304121305, 35.355273717], [-85.304389338, 35.354166432], [-85.303943802, 35.352697077], [-85.304984415, 35.351643227], [-85.306045165, 35.350688141], [-85.30692654, 35.349033933], [-85.309663165, 35.346992114], [-85.310852755, 35.346927494], [-85.311609394, 35.347411456], [-85.315023665, 35.34902845], [-85.3169144, 35.351748118], [-85.319613446, 35.352680379], [-85.322317453, 35.353334852], [-85.324691382, 35.352085851], [-85.32578152, 35.351666439], [-85.327930273, 35.350491764], [-85.328824827, 35.350178902], [-85.330000773, 35.349202477], [-85.331544839, 35.348849508], [-85.332468982, 35.348082014], [-85.333313035, 35.347718178], [-85.334548667, 35.346576436], [-85.335109146, 35.34476019], [-85.336080347, 35.343824142], [-85.337683463, 35.34301074], [-85.339321204, 35.342398548], [-85.341033481, 35.340617205], [-85.342041507, 35.339735031], [-85.34306008, 35.338103596], [-85.34326016, 35.33800162], [-85.34350749, 35.337505643], [-85.344861522, 35.335514755], [-85.345968735, 35.334352842], [-85.34620888, 35.333683407], [-85.346664283, 35.333084061], [-85.346332757, 35.332029844], [-85.346874795, 35.331316125], [-85.347137855, 35.330669839], [-85.348023456, 35.327460563], [-85.349912317, 35.324561374], [-85.355506082, 35.320594356], [-85.356610594, 35.317893762], [-85.356971096, 35.316586151], [-85.357254565, 35.316017558], [-85.358020772, 35.315214522], [-85.359475973, 35.313036677], [-85.360471988, 35.310699223], [-85.360667388, 35.310592585], [-85.361012324, 35.310333009], [-85.362874052, 35.309308831], [-85.364577492, 35.3075812], [-85.366678318, 35.305948522], [-85.370746192, 35.302308507], [-85.371179937, 35.301148681], [-85.371389948, 35.300449082], [-85.371659129, 35.300113083], [-85.371474583, 35.299504225], [-85.371112815, 35.296826782], [-85.370621962, 35.29546949], [-85.369019709, 35.294692283], [-85.368741062, 35.293501698], [-85.367143267, 35.290404657], [-85.36729359, 35.289701762], [-85.367021084, 35.289030131], [-85.366448342, 35.288185908], [-85.36605681, 35.287467671], [-85.367228449, 35.287055334], [-85.368496877, 35.285067006], [-85.370024815, 35.285306463], [-85.371855173, 35.283451153], [-85.372738971, 35.282964249], [-85.37447622, 35.283521837], [-85.377337512, 35.282956699], [-85.378616384, 35.282524455], [-85.379472838, 35.282477575], [-85.380751564, 35.282778653], [-85.381384745, 35.28358401], [-85.382301241, 35.283932396], [-85.383644635, 35.282435405], [-85.385711684, 35.280774108], [-85.38669707, 35.279744169], [-85.387912636, 35.278676018], [-85.38790019, 35.277844604], [-85.389250976, 35.277157444], [-85.39034208, 35.275723995], [-85.39031973, 35.27428688], [-85.389476335, 35.273131718], [-85.389008048, 35.27194933], [-85.388487326, 35.269565225], [-85.387461452, 35.266865711], [-85.385999499, 35.265083499], [-85.385741642, 35.263892707], [-85.386555917, 35.263001141], [-85.389876449, 35.261834533], [-85.392401999, 35.259578161], [-85.394036874, 35.259026218], [-85.398352649, 35.258389732], [-85.40076651, 35.256407612], [-85.401781034, 35.255013523], [-85.4041273, 35.253290769], [-85.404521548, 35.251562504], [-85.402872183, 35.250846749], [-85.403330359, 35.249448786], [-85.403495739, 35.249311986], [-85.403732505, 35.248943497], [-85.404441107, 35.247247817], [-85.406252714, 35.24632393], [-85.406906571, 35.243647592], [-85.406683151, 35.241905717], [-85.408215777, 35.240712176], [-85.409128887, 35.236487123], [-85.410438453, 35.235054266], [-85.412591794, 35.233284473], [-85.413340495, 35.232521711], [-85.413535621, 35.232414977], [-85.41400152, 35.232277876], [-85.414563695, 35.232237966], [-85.414675969, 35.232408252], [-85.41702052, 35.232838855], [-85.41835137, 35.233437222], [-85.419371576, 35.233750471], [-85.420317374, 35.23318667], [-85.422018247, 35.232001819], [-85.425100446, 35.227259896], [-85.425710359, 35.225479357], [-85.426977627, 35.224725315], [-85.427462455, 35.224488719], [-85.429363628, 35.222289227], [-85.430082541, 35.220267714], [-85.430884048, 35.219423213], [-85.431166477, 35.218628894], [-85.431105915, 35.217462291], [-85.431892788, 35.216572212], [-85.432417255, 35.214425697], [-85.433259361, 35.2140611], [-85.434042055, 35.213332899], [-85.43425315, 35.213242326], [-85.435600351, 35.211681969], [-85.437532952, 35.210176409], [-85.437987755, 35.209117317], [-85.438182788, 35.20901054], [-85.438357189, 35.20888294], [-85.439440083, 35.208457795], [-85.440266561, 35.207166624], [-85.442612269, 35.203748879], [-85.443645392, 35.201831436], [-85.4438751, 35.201700376], [-85.443292868, 35.19892107], [-85.442745546, 35.19847774], [-85.443143499, 35.197318681], [-85.442099856, 35.196535648], [-85.439778931, 35.195091816], [-85.440322058, 35.193260933], [-85.440174175, 35.19219604], [-85.440392253, 35.191808948], [-85.44225952, 35.190223696], [-85.44249909, 35.188755344], [-85.441971704, 35.187639431], [-85.441794592, 35.186540293], [-85.441530051, 35.185979096], [-85.44235208, 35.184982542], [-85.442557718, 35.183154981], [-85.443614174, 35.182124729], [-85.444410368, 35.182183745], [-85.446233639, 35.183163384], [-85.450824024, 35.18218549], [-85.45129622, 35.1818676], [-85.452720166, 35.181787035], [-85.456078634, 35.181294539], [-85.457008458, 35.18034763], [-85.45896454, 35.179589897], [-85.459313547, 35.178953233], [-85.46186389, 35.175534594], [-85.462176045, 35.174331947], [-85.462488104, 35.17343275], [-85.462699056, 35.173342122], [-85.463047696, 35.172783388], [-85.463506348, 35.172335691], [-85.464205893, 35.171220529], [-85.465120867, 35.170322809], [-85.465542965, 35.169231184], [-85.465790645, 35.16887411], [-85.466136472, 35.167899965], [-85.467350155, 35.166198764], [-85.467753799, 35.165392075], [-85.467955555, 35.165292185], [-85.468716974, 35.163632536], [-85.469203448, 35.161088383], [-85.469354935, 35.158549963], [-85.47003874, 35.156164718], [-85.470534025, 35.155147083], [-85.471320075, 35.152587668], [-85.472442349, 35.150505206], [-85.47465083, 35.149348463], [-85.477640205, 35.148358716], [-85.478265946, 35.147776345], [-85.479107103, 35.147411398], [-85.479279022, 35.146977957], [-85.47995059, 35.146138378], [-85.480168442, 35.143570073], [-85.479730747, 35.14288172], [-85.480185966, 35.142551675], [-85.482311306, 35.141711884], [-85.483464914, 35.14065001], [-85.485248357, 35.136319187], [-85.48411746, 35.134826859], [-85.485287548, 35.133473523], [-85.485412967, 35.131461684], [-85.485844894, 35.131148498], [-85.486559811, 35.130959744], [-85.486733954, 35.130832063], [-85.487002035, 35.130495747], [-85.487577015, 35.127131244], [-85.487413181, 35.12699432], [-85.486970904, 35.125580625], [-85.486093321, 35.124448197], [-85.485722103, 35.122745829], [-85.484544414, 35.119584413], [-85.484556431, 35.118321042], [-85.485520643, 35.116963982], [-85.486795247, 35.115645302], [-85.487997411, 35.115346423], [-85.489007625, 35.113919707], [-85.491866164, 35.114496417], [-85.494150627, 35.115434636], [-85.495404575, 35.11502442], [-85.494961075, 35.113619066], [-85.494797257, 35.11348215], [-85.495089554, 35.112949893], [-85.496231052, 35.111591797], [-85.496929491, 35.110021169], [-85.497904993, 35.107971701], [-85.498604508, 35.106392731], [-85.502655322, 35.102996132], [-85.504037216, 35.103381258], [-85.506061422, 35.104009351], [-85.509230323, 35.104394297], [-85.509382697, 35.104538599], [-85.510223421, 35.104723458], [-85.510995445, 35.104952737], [-85.51165517, 35.105011797], [-85.511728278, 35.104478853], [-85.512058139, 35.104508381], [-85.512329388, 35.103995281], [-85.51375953, 35.102374169], [-85.514643347, 35.098668417], [-85.513702935, 35.094512766], [-85.514777183, 35.093298124], [-85.515609474, 35.091355841], [-85.5174156, 35.089367938], [-85.519076168, 35.088536592], [-85.5201615, 35.08811528], [-85.522666195, 35.086699795], [-85.52411777, 35.086041463], [-85.524289458, 35.085911409], [-85.524820717, 35.085840907], [-85.525697349, 35.085514683], [-85.527625813, 35.08592525], [-85.52987262, 35.08585847], [-85.531763658, 35.08496116], [-85.531999302, 35.084592356], [-85.532725239, 35.082337016], [-85.533353341, 35.082015926], [-85.533520421, 35.081881233], [-85.536422092, 35.081487207], [-85.538496627, 35.083288863], [-85.540932739, 35.08269509], [-85.541453442, 35.081957651], [-85.542918699, 35.081178102], [-85.544016584, 35.08136884], [-85.546774327, 35.083572709], [-85.547708125, 35.082254664], [-85.549032707, 35.082065188], [-85.549952081, 35.081348538], [-85.551157008, 35.08117576], [-85.552264439, 35.080170308], [-85.552658115, 35.079960973], [-85.552863847, 35.079562073], [-85.552312618, 35.07802302], [-85.551638606, 35.077440274], [-85.550590277, 35.075932722], [-85.547964318, 35.074025164], [-85.546009241, 35.071616863], [-85.546896106, 35.070813042], [-85.548262319, 35.069305991], [-85.549979876, 35.067745986], [-85.551013718, 35.066571714], [-85.551397512, 35.064964324], [-85.551470244, 35.061759187], [-85.551096589, 35.060543609], [-85.550808745, 35.059272464], [-85.549868594, 35.057471045], [-85.549568546, 35.055945915], [-85.549449475, 35.054565484], [-85.549056046, 35.052559955], [-85.549756905, 35.051360184], [-85.552226522, 35.049138125], [-85.555992336, 35.047482646], [-85.556544552, 35.046587797], [-85.556960377, 35.04579458], [-85.558226874, 35.044497706], [-85.558800594, 35.043406673], [-85.559407622, 35.043618866], [-85.563737219, 35.047496839], [-85.564224938, 35.047666757], [-85.564746731, 35.047586826], [-85.566077467, 35.047328214], [-85.567796972, 35.046760732], [-85.570976219, 35.044451941], [-85.572361961, 35.042583928], [-85.572947184, 35.041234662], [-85.573556284, 35.042713488], [-85.574040913, 35.043671241], [-85.577605681, 35.046203477], [-85.579131442, 35.04845506], [-85.5799462, 35.048367421], [-85.580815962, 35.048335248], [-85.581048091, 35.0479513], [-85.580735183, 35.046899291], [-85.582066781, 35.045350896], [-85.58211415, 35.044581721], [-85.583345615, 35.043308893], [-85.583729455, 35.042786711], [-85.585128058, 35.041166277], [-85.585787292, 35.041224926], [-85.585823559, 35.040958414], [-85.586436146, 35.040363851], [-85.586783281, 35.039804679], [-85.587689202, 35.039505942], [-85.588141569, 35.037655904], [-85.589310871, 35.036474431], [-85.590000623, 35.036078483], [-85.590622003, 35.034039055], [-85.592695564, 35.03212875], [-85.593562845, 35.032094171], [-85.594000626, 35.031174256], [-85.596693567, 35.030016479], [-85.597550494, 35.027833587], [-85.599279946, 35.027858735], [-85.599304967, 35.026044443], [-85.600337384, 35.024985583], [-85.600878306, 35.024820806], [-85.601105108, 35.024244584], [-85.600713588, 35.023904234], [-85.600426144, 35.022970433], [-85.601160502, 35.020058023], [-85.601621556, 35.019310846], [-85.601829164, 35.018914146], [-85.603534739, 35.020264747], [-85.604712678, 35.019437944], [-85.60630049, 35.019180686], [-85.606478764, 35.019057435], [-85.607561182, 35.019509698], [-85.610570253, 35.019473413], [-85.612212315, 35.018144057], [-85.613615915, 35.018072655]]]}, "properties": {"arm": "354", "name": "Sequatchie River", "comid": 19663651, "kind": "atMouth"}}