{"type": "Feature", "geometry": {"type": "Polygon", "coordinates": [[[-86.507354955, 34.174226265], [-86.507516779, 34.175343715], [-86.507811315, 34.175882032], [-86.507908581, 34.176307236], [-86.50837981, 34.176727288], [-86.508972578, 34.177395418], [-86.508282924, 34.179789528], [-86.50824884, 34.180488427], [-86.507138939, 34.182171653], [-86.510158002, 34.184853026], [-86.509249301, 34.186259862], [-86.508362854, 34.187253404], [-86.507643611, 34.188332296], [-86.506795884, 34.189282644], [-86.506436245, 34.189822085], [-86.50540358, 34.190978509], [-86.504347237, 34.191928587], [-86.503362875, 34.193341817], [-86.502373539, 34.194269983], [-86.501287073, 34.195822322], [-86.500444656, 34.19788354], [-86.499873651, 34.198843907], [-86.499207894, 34.199484635], [-86.497493821, 34.200209996], [-86.496429601, 34.199920349], [-86.495705628, 34.200657424], [-86.494847774, 34.202569838], [-86.49411485, 34.203274561], [-86.493702938, 34.203461991], [-86.492352842, 34.204809284], [-86.491890794, 34.205845992], [-86.489964259, 34.20777596], [-86.490262298, 34.208978343], [-86.489698417, 34.210067785], [-86.4877159, 34.210962721], [-86.487105308, 34.211551025], [-86.486914233, 34.211659649], [-86.485067501, 34.213608743], [-86.483836918, 34.215007911], [-86.482869735, 34.215562675], [-86.482058958, 34.216416861], [-86.481584094, 34.218919056], [-86.480850331, 34.220131459], [-86.481157965, 34.220919535], [-86.482281586, 34.222510071], [-86.481228262, 34.223618244], [-86.477984722, 34.223743519], [-86.47576644, 34.224791677], [-86.475246547, 34.224871133], [-86.475050121, 34.2252743], [-86.474503584, 34.225884671], [-86.474535943, 34.227046264], [-86.474033631, 34.227862556], [-86.473291501, 34.230523941], [-86.473716969, 34.231652543], [-86.474340674, 34.232761624], [-86.474394484, 34.234628753], [-86.473137094, 34.235675826], [-86.470756747, 34.235231369], [-86.467890799, 34.235655074], [-86.466987719, 34.238888955], [-86.467050558, 34.24105815], [-86.466450359, 34.241558713], [-86.465373244, 34.241830375], [-86.463979042, 34.242354066], [-86.461975904, 34.242779139], [-86.46079972, 34.243101604], [-86.458448061, 34.244347094], [-86.457141073, 34.244538643], [-86.455506363, 34.245402747], [-86.455147195, 34.24614226], [-86.453742223, 34.246835628], [-86.453481394, 34.247174455], [-86.453316915, 34.247609722], [-86.452733305, 34.248225374], [-86.451747292, 34.24963807], [-86.450288947, 34.250282753], [-86.451606505, 34.251908496], [-86.450792291, 34.253181523], [-86.450600254, 34.253589227], [-86.45099546, 34.25389573], [-86.451703867, 34.255132002], [-86.45078118, 34.257932179], [-86.451842792, 34.258394741], [-86.452537752, 34.258820757], [-86.452973155, 34.260871034], [-86.453924244, 34.26141507], [-86.454221887, 34.262931421], [-86.454802937, 34.263779987], [-86.452668506, 34.26580816], [-86.451827976, 34.266979981], [-86.448042647, 34.270226893], [-86.44756962, 34.271553298], [-86.446767968, 34.272513368], [-86.446730414, 34.273277253], [-86.447051158, 34.274334061], [-86.444758518, 34.273963835], [-86.443608949, 34.274191427], [-86.443026831, 34.274124457], [-86.440385844, 34.274863249], [-86.439291211, 34.274123956], [-86.439130903, 34.27325103], [-86.438773648, 34.272302854], [-86.43911522, 34.271791616], [-86.438370514, 34.271308747], [-86.437051912, 34.270963939], [-86.436149885, 34.27058607], [-86.433907492, 34.270164976], [-86.432299902, 34.270948854], [-86.431470091, 34.272239435], [-86.430380597, 34.27177229], [-86.428721843, 34.27259404], [-86.426703318, 34.272134407], [-86.42513151, 34.272794721], [-86.425098486, 34.273061707], [-86.424771826, 34.273034715], [-86.425119709, 34.273994816], [-86.424557452, 34.27608078], [-86.423534514, 34.276596786], [-86.421345714, 34.277033281], [-86.42024734, 34.277991846], [-86.419007058, 34.281283912], [-86.418078256, 34.280684554], [-86.416920453, 34.280477143], [-86.416692088, 34.280593117], [-86.415609923, 34.281565625], [-86.414469887, 34.282817803], [-86.413343275, 34.28325351], [-86.412078425, 34.283431235], [-86.410184153, 34.284235369], [-86.409797888, 34.285771123], [-86.407460901, 34.286401619], [-86.406160222, 34.287408642], [-86.40600779, 34.287265382], [-86.405466502, 34.286681144], [-86.401794675, 34.286638412], [-86.399730474, 34.286815131], [-86.391201918, 34.286386527], [-86.390478192, 34.286109483], [-86.389953422, 34.286784522], [-86.389104228, 34.287434765], [-86.388315892, 34.288446163], [-86.387859699, 34.288589548], [-86.387596493, 34.288030387], [-86.386773231, 34.28759967], [-86.386718661, 34.287146312], [-86.38680567, 34.285345557], [-86.386134845, 34.28435221], [-86.385776652, 34.28410124], [-86.384382716, 34.283781197], [-86.384306738, 34.281113489], [-86.382441446, 34.279544763], [-86.381273886, 34.279022202], [-86.381146819, 34.278862042], [-86.381396107, 34.278370678], [-86.383447043, 34.277407203], [-86.3838647, 34.275581182], [-86.385184049, 34.275296606], [-86.387987022, 34.275189876], [-86.387985072, 34.272734801], [-86.386667274, 34.271637191], [-86.386128008, 34.270644196], [-86.387264785, 34.269794467], [-86.391735088, 34.269878652], [-86.391789528, 34.26881691], [-86.392045373, 34.268168027], [-86.390936203, 34.267591386], [-86.389926102, 34.266424495], [-86.390351512, 34.26586343], [-86.390002685, 34.265122252], [-86.389796925, 34.265014574], [-86.390943011, 34.264026508], [-86.392120504, 34.263740639], [-86.392589737, 34.26276386], [-86.393305618, 34.262146796], [-86.394612521, 34.262417409], [-86.396077546, 34.261101723], [-86.39627218, 34.26069641], [-86.397955149, 34.261010802], [-86.399714102, 34.260754085], [-86.400227207, 34.259256216], [-86.400652106, 34.258781472], [-86.400915205, 34.25784448], [-86.401811439, 34.257351889], [-86.402926498, 34.256133565], [-86.402388908, 34.255147096], [-86.402292121, 34.254721845], [-86.403194989, 34.253884207], [-86.404915552, 34.25374857], [-86.405491842, 34.25221798], [-86.406109474, 34.251643283], [-86.406641081, 34.251575624], [-86.406670808, 34.250025051], [-86.405531615, 34.249005624], [-86.404921352, 34.247357783], [-86.40624482, 34.246369524], [-86.41056271, 34.245300456], [-86.410733339, 34.245171289], [-86.411059877, 34.245198321], [-86.411248848, 34.245087529], [-86.413075378, 34.243719395], [-86.413188369, 34.241328595], [-86.414330073, 34.240974242], [-86.414909016, 34.240231935], [-86.415965771, 34.240209804], [-86.416472045, 34.237472236], [-86.418229282, 34.237286785], [-86.418297253, 34.235945876], [-86.419059526, 34.23503328], [-86.416918097, 34.233117624], [-86.416390233, 34.231386027], [-86.418263879, 34.23086252], [-86.418325283, 34.230553618], [-86.418001041, 34.229487909], [-86.419365025, 34.229105549], [-86.420097057, 34.227686806], [-86.421008386, 34.227005682], [-86.422543167, 34.226846036], [-86.423658989, 34.226011117], [-86.423987714, 34.224540035], [-86.424495809, 34.22397305], [-86.424474843, 34.223246416], [-86.424806988, 34.222060094], [-86.425176305, 34.221302512], [-86.426498862, 34.220670104], [-86.42712335, 34.220787057], [-86.42820561, 34.219763886], [-86.429441591, 34.219581567], [-86.430753651, 34.218115876], [-86.431370241, 34.217191165], [-86.432910965, 34.216376529], [-86.434566502, 34.216133998], [-86.434748118, 34.215476784], [-86.434544282, 34.215312436], [-86.434443959, 34.214330591], [-86.433986727, 34.213234966], [-86.433189345, 34.211681346], [-86.434282558, 34.211131059], [-86.434893071, 34.211151996], [-86.435542017, 34.211237215], [-86.436534803, 34.211270756], [-86.439608448, 34.211684748], [-86.440250592, 34.210802144], [-86.43992124, 34.208878409], [-86.440429034, 34.207706549], [-86.442302626, 34.207260665], [-86.442746323, 34.206127758], [-86.444079365, 34.205803697], [-86.444762405, 34.20521525], [-86.445325113, 34.204349244], [-86.446529995, 34.20485538], [-86.447025564, 34.20501428], [-86.448565109, 34.204456446], [-86.450948975, 34.204132604], [-86.45055266, 34.203147433], [-86.451106144, 34.202501905], [-86.452351039, 34.201470875], [-86.452297649, 34.200524525], [-86.452947862, 34.199490801], [-86.452872656, 34.198157021], [-86.453920266, 34.19722139], [-86.45561551, 34.196819608], [-86.457470814, 34.19591261], [-86.458132412, 34.195141099], [-86.459719526, 34.193817903], [-86.462200475, 34.193727335], [-86.462790215, 34.191613877], [-86.462727774, 34.189463534], [-86.464044694, 34.188764953], [-86.465370588, 34.187658289], [-86.467044424, 34.188202862], [-86.46864291, 34.188627413], [-86.470218431, 34.189783373], [-86.47161932, 34.188526882], [-86.471457184, 34.187457801], [-86.471062972, 34.186496047], [-86.471526524, 34.184317371], [-86.473225606, 34.184090575], [-86.473821089, 34.18416909], [-86.474149445, 34.184179258], [-86.475054145, 34.184297967], [-86.475534645, 34.184012992], [-86.475324688, 34.181970639], [-86.47426397, 34.180418791], [-86.474980607, 34.179993102], [-86.475079613, 34.179480756], [-86.47501709, 34.178459906], [-86.47529027, 34.177850208], [-86.476127167, 34.177472342], [-86.476257069, 34.177630541], [-86.478020982, 34.178216103], [-86.47879251, 34.177594719], [-86.48086265, 34.176839926], [-86.480860191, 34.174595487], [-86.48016963, 34.17172758], [-86.479484739, 34.170470085], [-86.480340967, 34.169996848], [-86.481674694, 34.171065372], [-86.484738785, 34.173390912], [-86.486310978, 34.1720767], [-86.48705728, 34.171680777], [-86.488659651, 34.172029538], [-86.489402709, 34.17300305], [-86.490420664, 34.173792633], [-86.491598683, 34.171954977], [-86.492904926, 34.171653492], [-86.494283549, 34.171937432], [-86.496492442, 34.171476147], [-86.497089771, 34.169942663], [-86.498059322, 34.169447002], [-86.498220467, 34.169308512], [-86.499488825, 34.169252502], [-86.500113274, 34.169345913], [-86.500624629, 34.169942095], [-86.503081532, 34.169977284], [-86.503726549, 34.171163906], [-86.505313964, 34.170584027], [-86.506491133, 34.171272734], [-86.506125958, 34.172741008], [-86.507354955, 34.174226265]]]}, "properties": {"arm": "43", "name": "Browns Creek", "comid": 19649500, "kind": "aboveHead"}}