{"type": "Feature", "geometry": {"type": "Polygon", "coordinates": [[[-86.080328852, 34.477957063], [-86.080429802, 34.478378736], [-86.080849099, 34.4792006], [-86.081400108, 34.48052684], [-86.082726826, 34.482477746], [-86.082521063, 34.48407867], [-86.082486769, 34.48434549], [-86.081623564, 34.484381397], [-86.080781019, 34.484739386], [-86.079197191, 34.48484863], [-86.077577783, 34.48583782], [-86.076432601, 34.488930641], [-86.074111691, 34.491592168], [-86.073053003, 34.492603908], [-86.072449377, 34.494139217], [-86.071345652, 34.499781259], [-86.069593773, 34.500851765], [-86.068039574, 34.502938043], [-86.066646357, 34.503170914], [-86.065258539, 34.503783561], [-86.063401125, 34.504025185], [-86.062059949, 34.503432137], [-86.059613695, 34.501397925], [-86.058733115, 34.500804183], [-86.055803718, 34.502298519], [-86.054331257, 34.502884833], [-86.053412528, 34.503590173], [-86.053315187, 34.506772475], [-86.055824353, 34.510245222], [-86.055922383, 34.510668766], [-86.05618368, 34.511230613], [-86.057628427, 34.511984308], [-86.0584919, 34.513855762], [-86.060549136, 34.514695511], [-86.06114158, 34.515036984], [-86.06222231, 34.515544533], [-86.064294667, 34.518275804], [-86.064419182, 34.520442274], [-86.064930757, 34.521813627], [-86.065058205, 34.523194296], [-86.065276586, 34.524270846], [-86.065404044, 34.525651511], [-86.065564798, 34.52578958], [-86.065496054, 34.526323185], [-86.065342558, 34.526470227], [-86.064861615, 34.527632421], [-86.063866157, 34.528630526], [-86.062089284, 34.529005497], [-86.061548885, 34.530206852], [-86.06189435, 34.531140429], [-86.061429422, 34.531374643], [-86.060611247, 34.532261437], [-86.05917068, 34.533539664], [-86.058562487, 34.534463363], [-86.05780893, 34.53456752], [-86.056851101, 34.535412847], [-86.054939862, 34.537710771], [-86.053748184, 34.538923825], [-86.052279999, 34.540614762], [-86.050381669, 34.541567136], [-86.049895801, 34.541982857], [-86.050417842, 34.542470064], [-86.048765445, 34.544684679], [-86.046500764, 34.546408544], [-86.04633714, 34.54845762], [-86.045054399, 34.55001262], [-86.044451803, 34.551632152], [-86.039481211, 34.554662596], [-86.038313713, 34.556225293], [-86.036724984, 34.556139788], [-86.03430954, 34.554820175], [-86.033011768, 34.554666823], [-86.03024665, 34.556351739], [-86.0285406, 34.557813399], [-86.027972116, 34.55912601], [-86.026713731, 34.56102853], [-86.026660041, 34.561683526], [-86.02579756, 34.563166901], [-86.025686994, 34.563781195], [-86.025546124, 34.565549819], [-86.024278064, 34.566945722], [-86.022614048, 34.567959942], [-86.021421567, 34.570710997], [-86.019389036, 34.570471309], [-86.014014514, 34.572224909], [-86.013828758, 34.57233962], [-86.013648185, 34.572214537], [-86.013194826, 34.571537091], [-86.011801351, 34.57056187], [-86.010374778, 34.567685047], [-86.008886682, 34.56708098], [-86.007888273, 34.565515842], [-86.007473665, 34.564080924], [-86.007293121, 34.56395583], [-86.007620076, 34.562692089], [-86.009854959, 34.560110735], [-86.010313465, 34.558550606], [-86.010259843, 34.557606103], [-86.010364157, 34.557100858], [-86.008642395, 34.555884513], [-86.007246922, 34.555446409], [-86.001582223, 34.554592881], [-85.998475409, 34.5525808], [-85.996486418, 34.550333906], [-85.996173548, 34.550051993], [-85.996578721, 34.548046837], [-85.997276742, 34.54729551], [-85.997675825, 34.546134912], [-85.99751515, 34.545996752], [-85.996700058, 34.545037295], [-85.993937175, 34.543031431], [-85.992366908, 34.540991147], [-85.991986428, 34.539755031], [-85.992314697, 34.5383228], [-85.991380393, 34.537106448], [-85.99102433, 34.536121106], [-85.991292137, 34.535393892], [-85.995115797, 34.533151836], [-85.994661992, 34.532261359], [-85.99456144, 34.531839638], [-85.995292998, 34.530290358], [-85.99942906, 34.528070848], [-86.000028096, 34.526784118], [-86.000082815, 34.526082814], [-86.002033444, 34.521955509], [-86.002751966, 34.52108368], [-86.002997629, 34.520426192], [-86.003197009, 34.520325318], [-86.003591689, 34.519516257], [-86.004025022, 34.51904772], [-86.00461043, 34.518164434], [-86.006032961, 34.517450065], [-86.007690069, 34.515963425], [-86.007839106, 34.515312374], [-86.00787014, 34.514313978], [-86.009487071, 34.513076763], [-86.010978682, 34.512846681], [-86.011571263, 34.511867036], [-86.012193249, 34.510660198], [-86.013436589, 34.508910322], [-86.015637744, 34.507215318], [-86.017926731, 34.507599493], [-86.019840925, 34.506621612], [-86.022749112, 34.505998793], [-86.024681982, 34.503275335], [-86.027417407, 34.502186581], [-86.02970758, 34.501139656], [-86.031453171, 34.499181911], [-86.031944388, 34.498903707], [-86.033296832, 34.497365327], [-86.033863826, 34.495599407], [-86.035590636, 34.494626302], [-86.035794189, 34.493731214], [-86.035091185, 34.492385364], [-86.035529149, 34.491657899], [-86.035751151, 34.491080515], [-86.03628741, 34.49091364], [-86.038411667, 34.491949294], [-86.040590369, 34.491501688], [-86.042338564, 34.48953981], [-86.04238282, 34.488074686], [-86.043583697, 34.486685489], [-86.047733393, 34.485793355], [-86.050483761, 34.484701184], [-86.052246955, 34.484063955], [-86.054013279, 34.483161428], [-86.055173321, 34.483090015], [-86.056354781, 34.483073112], [-86.057662195, 34.482881517], [-86.059733195, 34.482704656], [-86.06238514, 34.482314016], [-86.064185094, 34.481068601], [-86.063624287, 34.479418977], [-86.063930562, 34.478446235], [-86.065333253, 34.478738994], [-86.067362036, 34.478667985], [-86.068722739, 34.478362813], [-86.069059954, 34.478073412], [-86.071894782, 34.477706633], [-86.075916812, 34.476231532], [-86.076945098, 34.475956882], [-86.077881178, 34.476399306], [-86.078341147, 34.477085567], [-86.079595709, 34.477464552], [-86.080328852, 34.477957063]]]}, "properties": {"arm": "47", "name": "Dry Creek", "comid": 19648782, "kind": "aboveHead"}}