{"type": "Feature", "geometry": {"type": "Polygon", "coordinates": [[[-85.792541837, 34.717580961], [-85.79228459, 34.716371887], [-85.790269369, 34.714743273], [-85.790249084, 34.713723548], [-85.790975906, 34.713603861], [-85.79395072, 34.711501846], [-85.796526821, 34.710448135], [-85.808848801, 34.712008906], [-85.811759465, 34.712168551], [-85.813637821, 34.713344337], [-85.816094319, 34.71287829], [-85.817685652, 34.712616907], [-85.819180023, 34.711284859], [-85.820410171, 34.711105695], [-85.822680744, 34.711984711], [-85.823644559, 34.71232809], [-85.824757372, 34.712800381], [-85.826592604, 34.712107067], [-85.828728167, 34.710927823], [-85.830095989, 34.711217893], [-85.831502125, 34.710904341], [-85.831841244, 34.710615702], [-85.833505873, 34.710583897], [-85.838851316, 34.708141792], [-85.83948668, 34.708045451], [-85.840883442, 34.70831263], [-85.843197587, 34.709707143], [-85.845315862, 34.710561892], [-85.846825098, 34.711471021], [-85.84697842, 34.711665616], [-85.847038567, 34.712703492], [-85.846912083, 34.713248832], [-85.847825662, 34.714995377], [-85.847223965, 34.717351736], [-85.846009227, 34.716451425], [-85.843864321, 34.717191811], [-85.841037994, 34.7177674], [-85.839994865, 34.717925154], [-85.838598713, 34.718633773], [-85.837647158, 34.718883787], [-85.836823076, 34.720034244], [-85.836053625, 34.720300125], [-85.83406494, 34.720602978], [-85.833425304, 34.722359581], [-85.83068977, 34.724875374], [-85.832008864, 34.726497252], [-85.832490036, 34.728058671], [-85.830760664, 34.728223937], [-85.829188075, 34.729106736], [-85.829128059, 34.730913883], [-85.827618591, 34.731142548], [-85.82662105, 34.731346325], [-85.824638351, 34.731464111], [-85.824030517, 34.733134932], [-85.822826214, 34.733567201], [-85.822547614, 34.734495438], [-85.820204568, 34.73472711], [-85.819740009, 34.736804514], [-85.818701035, 34.737594693], [-85.816314666, 34.737584372], [-85.816279338, 34.737851038], [-85.81595093, 34.737822352], [-85.813903562, 34.739386347], [-85.813334044, 34.740021506], [-85.813128275, 34.740418693], [-85.81108078, 34.741982634], [-85.810283225, 34.742144753], [-85.808656432, 34.741376658], [-85.807644545, 34.740649648], [-85.806078915, 34.73991004], [-85.804608368, 34.738179786], [-85.804279963, 34.738151067], [-85.804315332, 34.737884405], [-85.803986928, 34.737855685], [-85.804022298, 34.737589023], [-85.803693895, 34.737560302], [-85.803729266, 34.73729364], [-85.803400865, 34.737264919], [-85.803436237, 34.736998256], [-85.801412825, 34.73613002], [-85.800915187, 34.735968468], [-85.800826795, 34.73553924], [-85.799715403, 34.734135367], [-85.799518362, 34.732569125], [-85.797101841, 34.730987784], [-85.795631784, 34.73154405], [-85.794691575, 34.730298404], [-85.795236891, 34.729435701], [-85.795480824, 34.728595085], [-85.795247317, 34.727499815], [-85.794293261, 34.726906273], [-85.794066443, 34.72583898], [-85.792332203, 34.724437366], [-85.793115601, 34.723266744], [-85.793922154, 34.722547046], [-85.793833833, 34.720632002], [-85.793440963, 34.719427922], [-85.793258619, 34.718573156], [-85.792930302, 34.718544405], [-85.792965701, 34.71827774], [-85.792541837, 34.717580961]]]}, "properties": {"arm": "53", "name": "Rocky Branch", "comid": 19646564, "kind": "atMouth"}}