{"type": "Feature", "geometry": {"type": "Polygon", "coordinates": [[[-86.039238863, 34.455231198], [-86.041158818, 34.454797289], [-86.044635953, 34.454616966], [-86.045210168, 34.455376431], [-86.046338406, 34.455869346], [-86.047121076, 34.455694048], [-86.048318727, 34.454565861], [-86.049553493, 34.454753847], [-86.051046132, 34.454445453], [-86.053845134, 34.45487275], [-86.056828559, 34.454932195], [-86.059236311, 34.455507111], [-86.059902872, 34.456293361], [-86.061028336, 34.457009284], [-86.062606977, 34.45814121], [-86.065278336, 34.458597336], [-86.065273129, 34.460325042], [-86.067958601, 34.462038369], [-86.068100205, 34.463569975], [-86.068680136, 34.464407756], [-86.068743845, 34.465098134], [-86.06891013, 34.465232476], [-86.069851696, 34.465409912], [-86.070765991, 34.465960139], [-86.072080621, 34.466312751], [-86.073945493, 34.467433116], [-86.073829008, 34.467836225], [-86.0755404, 34.470009815], [-86.075747677, 34.470971659], [-86.076105, 34.471611236], [-86.075789958, 34.472713915], [-86.075816397, 34.473795184], [-86.075514109, 34.474858909], [-86.075824367, 34.475804255], [-86.075916812, 34.476231532], [-86.071894782, 34.477706633], [-86.069059954, 34.478073412], [-86.068722739, 34.478362813], [-86.067362036, 34.478667985], [-86.065333253, 34.478738994], [-86.063930562, 34.478446235], [-86.063624287, 34.479418977], [-86.064185094, 34.481068601], [-86.06238514, 34.482314016], [-86.059733195, 34.482704656], [-86.057662195, 34.482881517], [-86.056354781, 34.483073112], [-86.055173321, 34.483090015], [-86.054013279, 34.483161428], [-86.052246955, 34.484063955], [-86.050483761, 34.484701184], [-86.047733393, 34.485793355], [-86.043583697, 34.486685489], [-86.04238282, 34.488074686], [-86.042338564, 34.48953981], [-86.040590369, 34.491501688], [-86.038411667, 34.491949294], [-86.03628741, 34.49091364], [-86.035751151, 34.491080515], [-86.035529149, 34.491657899], [-86.035091185, 34.492385364], [-86.035794189, 34.493731214], [-86.035590636, 34.494626302], [-86.033863826, 34.495599407], [-86.033296832, 34.497365327], [-86.031944388, 34.498903707], [-86.031453171, 34.499181911], [-86.02970758, 34.501139656], [-86.027417407, 34.502186581], [-86.024681982, 34.503275335], [-86.022749112, 34.505998793], [-86.019840925, 34.506621612], [-86.017926731, 34.507599493], [-86.015637744, 34.507215318], [-86.013436589, 34.508910322], [-86.012193249, 34.510660198], [-86.011571263, 34.511867036], [-86.010978682, 34.512846681], [-86.009487071, 34.513076763], [-86.00787014, 34.514313978], [-86.007839106, 34.515312374], [-86.007690069, 34.515963425], [-86.006032961, 34.517450065], [-86.00461043, 34.518164434], [-86.004025022, 34.51904772], [-86.003591689, 34.519516257], [-86.003197009, 34.520325318], [-86.002997629, 34.520426192], [-86.002751966, 34.52108368], [-86.002033444, 34.521955509], [-86.000082815, 34.526082814], [-86.000028096, 34.526784118], [-85.99942906, 34.528070848], [-85.995292998, 34.530290358], [-85.99456144, 34.531839638], [-85.994661992, 34.532261359], [-85.995115797, 34.533151836], [-85.991292137, 34.535393892], [-85.99102433, 34.536121106], [-85.991380393, 34.537106448], [-85.992314697, 34.5383228], [-85.991986428, 34.539755031], [-85.992366908, 34.540991147], [-85.993937175, 34.543031431], [-85.996700058, 34.545037295], [-85.99751515, 34.545996752], [-85.997675825, 34.546134912], [-85.997276742, 34.54729551], [-85.996578721, 34.548046837], [-85.996173548, 34.550051993], [-85.996486418, 34.550333906], [-85.998475409, 34.5525808], [-86.001582223, 34.554592881], [-86.007246922, 34.555446409], [-86.008642395, 34.555884513], [-86.010364157, 34.557100858], [-86.010259843, 34.557606103], [-86.010313465, 34.558550606], [-86.009854959, 34.560110735], [-86.007620076, 34.562692089], [-86.007293121, 34.56395583], [-86.007473665, 34.564080924], [-86.007888273, 34.565515842], [-86.008886682, 34.56708098], [-86.010374778, 34.567685047], [-86.011801351, 34.57056187], [-86.013194826, 34.571537091], [-86.013648185, 34.572214537], [-86.013828758, 34.57233962], [-86.013794188, 34.572606393], [-86.012374096, 34.573774184], [-86.010623565, 34.574154939], [-86.007537629, 34.57357171], [-86.004216848, 34.573621503], [-86.000951872, 34.573001636], [-85.999260344, 34.573366222], [-85.998602231, 34.573608894], [-85.99807722, 34.573683879], [-85.995570789, 34.573723356], [-85.994344929, 34.57321331], [-85.992539676, 34.572937909], [-85.990663888, 34.57448142], [-85.989443022, 34.574949586], [-85.988179744, 34.57554475], [-85.987654756, 34.577373051], [-85.987683172, 34.578330148], [-85.987935295, 34.579140012], [-85.988566711, 34.581853875], [-85.988785836, 34.583356329], [-85.98842961, 34.584902], [-85.989665815, 34.585971434], [-85.989954969, 34.586695958], [-85.989574425, 34.588349117], [-85.990224185, 34.589587248], [-85.990321957, 34.590010809], [-85.989399351, 34.5908924], [-85.987988677, 34.592041775], [-85.987323769, 34.593411251], [-85.987371619, 34.594338393], [-85.986461815, 34.595758442], [-85.986624373, 34.598054697], [-85.987239199, 34.59960171], [-85.987399966, 34.599739875], [-85.986991993, 34.601742579], [-85.986655964, 34.602912747], [-85.986463222, 34.603020497], [-85.98572629, 34.603787383], [-85.982461593, 34.606163791], [-85.981857482, 34.608040013], [-85.979820651, 34.609658028], [-85.979743554, 34.612142268], [-85.979195862, 34.613205684], [-85.978775596, 34.613687908], [-85.977732542, 34.615153318], [-85.976915791, 34.615437024], [-85.976395057, 34.615516517], [-85.975684339, 34.616100159], [-85.973331007, 34.617260923], [-85.971584367, 34.618218924], [-85.96855524, 34.619713345], [-85.968607649, 34.622035939], [-85.967876705, 34.622634655], [-85.967117735, 34.623030755], [-85.967157295, 34.624715822], [-85.965442792, 34.626121162], [-85.963518031, 34.626395678], [-85.961840612, 34.626820038], [-85.961315204, 34.626894853], [-85.958763402, 34.628817962], [-85.957135298, 34.631406546], [-85.955474108, 34.632182045], [-85.953885412, 34.632997495], [-85.95260817, 34.632617539], [-85.950932891, 34.631356055], [-85.949378252, 34.630838319], [-85.948552981, 34.63064906], [-85.947119505, 34.630969948], [-85.946222148, 34.630717549], [-85.946075088, 34.630871332], [-85.943967518, 34.631254089], [-85.943423952, 34.6318246], [-85.942559036, 34.631859471], [-85.938498812, 34.633580218], [-85.937711792, 34.633653398], [-85.937388845, 34.63356648], [-85.936550139, 34.633658366], [-85.935181966, 34.632606525], [-85.933123544, 34.630789002], [-85.931427477, 34.629708751], [-85.931303602, 34.629546305], [-85.930675575, 34.629057861], [-85.930539053, 34.627248427], [-85.929311193, 34.626710196], [-85.929179179, 34.624985439], [-85.927791687, 34.624538749], [-85.926969371, 34.624347474], [-85.925922031, 34.62371734], [-85.924384366, 34.623824511], [-85.922668476, 34.624065861], [-85.92004066, 34.621950072], [-85.918582105, 34.621294792], [-85.917554353, 34.620535605], [-85.916893697, 34.620238129], [-85.915930708, 34.619657347], [-85.912836079, 34.619703231], [-85.911541786, 34.619456186], [-85.911043324, 34.619463563], [-85.910557967, 34.619370915], [-85.908896426, 34.619395485], [-85.907519813, 34.620686047], [-85.904030741, 34.62229709], [-85.902345976, 34.622458652], [-85.901610106, 34.622715157], [-85.900912246, 34.62463777], [-85.900422577, 34.626336077], [-85.900562397, 34.627305008], [-85.900364244, 34.627709315], [-85.899408665, 34.628553705], [-85.899521573, 34.630182051], [-85.898273035, 34.630691216], [-85.897127822, 34.630728827], [-85.896179687, 34.630528525], [-85.8949172, 34.630827803], [-85.89393567, 34.631197823], [-85.892376428, 34.631566152], [-85.891721043, 34.632590397], [-85.891210605, 34.633635654], [-85.888334479, 34.633670405], [-85.886088993, 34.634744077], [-85.882893261, 34.635060738], [-85.880507537, 34.634617358], [-85.878523977, 34.633953879], [-85.877431839, 34.63419824], [-85.874807925, 34.633970071], [-85.874675652, 34.633813148], [-85.873360299, 34.633192935], [-85.869798179, 34.630916693], [-85.86948957, 34.62957894], [-85.868719358, 34.62846024], [-85.868622204, 34.628036596], [-85.869501705, 34.624996047], [-85.870040921, 34.623911208], [-85.869818303, 34.622865448], [-85.869555931, 34.622062812], [-85.869569724, 34.620835296], [-85.870000199, 34.62020255], [-85.869480736, 34.619423903], [-85.867750019, 34.618240544], [-85.86761809, 34.616998227], [-85.867215025, 34.616044229], [-85.866917371, 34.615805449], [-85.865690034, 34.613633142], [-85.865347762, 34.612709714], [-85.863635904, 34.611325578], [-85.863029581, 34.609692057], [-85.861438523, 34.608729384], [-85.85838225, 34.608092151], [-85.857750082, 34.606380458], [-85.85661893, 34.604720108], [-85.856452715, 34.604585485], [-85.856375509, 34.604148795], [-85.855829397, 34.603279209], [-85.855715058, 34.602632731], [-85.854888586, 34.602200273], [-85.85480178, 34.602013555], [-85.849976458, 34.601198643], [-85.848312282, 34.60197242], [-85.846554266, 34.603791826], [-85.84507766, 34.604301608], [-85.844107472, 34.604153712], [-85.842837322, 34.604590855], [-85.842359352, 34.604580751], [-85.841815897, 34.604497484], [-85.840539955, 34.604546283], [-85.839134548, 34.604280258], [-85.837899093, 34.603354594], [-85.835868611, 34.602249875], [-85.831152245, 34.601964291], [-85.829750232, 34.602693284], [-85.827627442, 34.604661826], [-85.824369666, 34.605905106], [-85.822797852, 34.607192476], [-85.8226003, 34.60729534], [-85.822394932, 34.607692601], [-85.821540109, 34.608945703], [-85.821067271, 34.609857037], [-85.820309741, 34.610726606], [-85.818583601, 34.613140704], [-85.819154197, 34.614684988], [-85.818698686, 34.615210008], [-85.818677517, 34.61584047], [-85.819196524, 34.616834338], [-85.819293393, 34.617258029], [-85.817608428, 34.618046456], [-85.812799891, 34.617372762], [-85.808894387, 34.616533438], [-85.806464203, 34.617195335], [-85.803001635, 34.618940754], [-85.799083629, 34.621168887], [-85.796779278, 34.621622421], [-85.795492977, 34.62164877], [-85.794170228, 34.622732108], [-85.792586884, 34.623552298], [-85.79218811, 34.624448955], [-85.792365381, 34.625731259], [-85.79114344, 34.626933011], [-85.788077295, 34.62736384], [-85.786042354, 34.629027484], [-85.785306377, 34.629808115], [-85.784512342, 34.630518308], [-85.784145621, 34.631055221], [-85.781327396, 34.632291732], [-85.780373983, 34.63420198], [-85.778719437, 34.63555534], [-85.778193794, 34.635629331], [-85.776192171, 34.636433676], [-85.772328249, 34.636973225], [-85.769651976, 34.636377648], [-85.768152624, 34.636503031], [-85.766263043, 34.634357727], [-85.765293252, 34.634223992], [-85.76461755, 34.634198309], [-85.762053755, 34.632075841], [-85.760739494, 34.632213186], [-85.760028615, 34.632452073], [-85.758806882, 34.632283472], [-85.758063312, 34.632534226], [-85.757025735, 34.632695873], [-85.755989222, 34.63316113], [-85.753183604, 34.633266214], [-85.748578744, 34.633840935], [-85.747905623, 34.634068323], [-85.746868004, 34.634229879], [-85.743362985, 34.635400826], [-85.742218968, 34.635582479], [-85.741334373, 34.635898697], [-85.739223587, 34.636857236], [-85.738245785, 34.636705706], [-85.736383766, 34.637081171], [-85.734266947, 34.636645798], [-85.732365894, 34.636128238], [-85.730201752, 34.636455879], [-85.728075914, 34.637292753], [-85.725266809, 34.638800724], [-85.723541517, 34.638791778], [-85.721901757, 34.638647021], [-85.721794198, 34.637821772], [-85.722055697, 34.636698166], [-85.721733908, 34.636079545], [-85.721328915, 34.635055183], [-85.720478742, 34.633812335], [-85.720478355, 34.629874728], [-85.722882701, 34.628038142], [-85.723468261, 34.626913626], [-85.723818908, 34.626752764], [-85.725433359, 34.623977934], [-85.726812711, 34.622575666], [-85.727421798, 34.621002114], [-85.728585503, 34.619816881], [-85.729090669, 34.619585325], [-85.730450878, 34.619452403], [-85.731837204, 34.619745459], [-85.732568424, 34.619470595], [-85.734443772, 34.61903105], [-85.735809891, 34.619320169], [-85.736901706, 34.618906339], [-85.73775763, 34.619270594], [-85.737897518, 34.61993216], [-85.740659656, 34.619897426], [-85.742115127, 34.62017748], [-85.744064955, 34.62015117], [-85.744551933, 34.61918019], [-85.744982826, 34.61870805], [-85.745491828, 34.617104536], [-85.746066329, 34.616196067], [-85.747753222, 34.615438289], [-85.749544593, 34.615452744], [-85.751639185, 34.615856426], [-85.752694411, 34.616495279], [-85.754568725, 34.617113482], [-85.755731951, 34.618596521], [-85.757125801, 34.618580078], [-85.757742572, 34.618073668], [-85.760133848, 34.618741481], [-85.760901927, 34.618461261], [-85.761755351, 34.618416189], [-85.762867344, 34.616855132], [-85.762932147, 34.614944803], [-85.764067646, 34.614551441], [-85.766328225, 34.6139598], [-85.768946483, 34.612002066], [-85.769411485, 34.610725545], [-85.769323412, 34.610296235], [-85.768993534, 34.609717087], [-85.768542493, 34.608372677], [-85.768366363, 34.607514052], [-85.76809942, 34.606714892], [-85.767835238, 34.60542695], [-85.767568308, 34.604627787], [-85.767765927, 34.604525016], [-85.768387916, 34.604016909], [-85.771150443, 34.604013157], [-85.772137349, 34.60380059], [-85.773483912, 34.603611192], [-85.774315175, 34.603770665], [-85.774979673, 34.603761605], [-85.775583482, 34.603877895], [-85.778194703, 34.603510782], [-85.78085367, 34.60284217], [-85.781718704, 34.601575446], [-85.782210441, 34.600368683], [-85.782443411, 34.599999191], [-85.782288919, 34.59932798], [-85.780692172, 34.596268392], [-85.780392967, 34.59293911], [-85.779908746, 34.590457783], [-85.779458299, 34.588991188], [-85.779486038, 34.588137831], [-85.779880892, 34.586450389], [-85.779437184, 34.584210787], [-85.780517485, 34.58202286], [-85.780861623, 34.581361707], [-85.783358293, 34.57944994], [-85.784105895, 34.577679634], [-85.785106061, 34.576074838], [-85.785299016, 34.575967417], [-85.785834577, 34.574897268], [-85.787990237, 34.573777546], [-85.788581126, 34.572328609], [-85.789560503, 34.570469008], [-85.78953916, 34.569457456], [-85.790034843, 34.567749313], [-85.790591988, 34.567707581], [-85.791549763, 34.567163499], [-85.792664043, 34.567080017], [-85.793125256, 34.566941323], [-85.797671972, 34.56921625], [-85.800418759, 34.569908237], [-85.80103476, 34.569793624], [-85.801566871, 34.568708361], [-85.802357541, 34.568408811], [-85.804962514, 34.567882564], [-85.806175049, 34.567428152], [-85.807040831, 34.565581668], [-85.808856848, 34.564695313], [-85.810013374, 34.563449729], [-85.813327834, 34.562530178], [-85.815239931, 34.562933718], [-85.815798052, 34.562335485], [-85.816159659, 34.561793816], [-85.816359388, 34.561693266], [-85.816830653, 34.559283107], [-85.817707826, 34.557916036], [-85.818420268, 34.556462869], [-85.818972649, 34.555868336], [-85.819171043, 34.555464134], [-85.820382034, 34.555175978], [-85.823753045, 34.55429484], [-85.825689535, 34.552531393], [-85.826907186, 34.552094101], [-85.827119237, 34.55170373], [-85.828898695, 34.550265862], [-85.831542488, 34.547103463], [-85.832230289, 34.546128659], [-85.8322949, 34.545010828], [-85.833147793, 34.540880252], [-85.83292558, 34.539130271], [-85.832828734, 34.538706554], [-85.832377585, 34.537240079], [-85.832397692, 34.536655851], [-85.832530397, 34.536081471], [-85.832065831, 34.534913132], [-85.830292005, 34.532818733], [-85.830131658, 34.532680341], [-85.829874727, 34.530899891], [-85.829646319, 34.529648904], [-85.830157667, 34.5287746], [-85.830240904, 34.527751124], [-85.831444762, 34.526296599], [-85.830542017, 34.523152745], [-85.831278022, 34.522262255], [-85.831679607, 34.520944113], [-85.832199853, 34.520865257], [-85.833536774, 34.520402526], [-85.835615445, 34.520084747], [-85.836282749, 34.51985221], [-85.837162043, 34.519621342], [-85.839078427, 34.518747587], [-85.84069181, 34.518110805], [-85.84376985, 34.516708252], [-85.844486491, 34.516159584], [-85.845037905, 34.515096908], [-85.845558012, 34.513053434], [-85.845592785, 34.512042577], [-85.846220848, 34.50933611], [-85.846091596, 34.507094659], [-85.845991885, 34.506672798], [-85.84506282, 34.504846271], [-85.844269772, 34.502812392], [-85.844052797, 34.501119741], [-85.844525823, 34.498863446], [-85.844631185, 34.49806321], [-85.844521299, 34.497404364], [-85.844514508, 34.496434123], [-85.844474143, 34.494598801], [-85.844830578, 34.494033407], [-85.845225045, 34.493827578], [-85.846283691, 34.492958877], [-85.84782243, 34.492825628], [-85.848620744, 34.49151679], [-85.850018169, 34.489979932], [-85.850844028, 34.48832357], [-85.851238451, 34.488117719], [-85.85212333, 34.485383024], [-85.851829442, 34.484805073], [-85.851799908, 34.483849703], [-85.85343978, 34.482926318], [-85.853454227, 34.482501775], [-85.855098908, 34.480695562], [-85.856411709, 34.480350667], [-85.857225453, 34.47841074], [-85.857315751, 34.475697263], [-85.857675187, 34.474143466], [-85.860216845, 34.472712725], [-85.860407155, 34.47260286], [-85.861367225, 34.472638179], [-85.863731983, 34.472336542], [-85.865946325, 34.472116594], [-85.869328822, 34.470149832], [-85.870640263, 34.469182834], [-85.872458016, 34.469067308], [-85.873881792, 34.468426261], [-85.879045993, 34.46854752], [-85.88072991, 34.467756213], [-85.881124145, 34.466386686], [-85.881945865, 34.465484413], [-85.881910426, 34.463782343], [-85.883255823, 34.463284028], [-85.883977692, 34.463182486], [-85.884969857, 34.463129774], [-85.886535159, 34.462551503], [-85.889827017, 34.461782038], [-85.891699959, 34.459782349], [-85.892298983, 34.458900681], [-85.893814637, 34.45771303], [-85.895094002, 34.45625607], [-85.89505338, 34.454433409], [-85.897293499, 34.453675531], [-85.898577805, 34.453325619], [-85.899615837, 34.453909155], [-85.902636293, 34.454024263], [-85.90341337, 34.452550953], [-85.903945449, 34.45223887], [-85.904272679, 34.452267318], [-85.904307573, 34.452000541], [-85.905455234, 34.452220457], [-85.90675713, 34.452763627], [-85.908004612, 34.454929337], [-85.908251714, 34.456084849], [-85.911114714, 34.457029193], [-85.912473083, 34.457596162], [-85.913357553, 34.458722696], [-85.915154204, 34.459003082], [-85.917345143, 34.460580269], [-85.917922766, 34.460592471], [-85.918516724, 34.460934911], [-85.919004353, 34.461101599], [-85.918969506, 34.461368378], [-85.920061804, 34.462112394], [-85.920431663, 34.462844293], [-85.920752393, 34.463120851], [-85.921547677, 34.464060395], [-85.922525347, 34.464910364], [-85.926441098, 34.464984449], [-85.926612091, 34.4648433], [-85.92922962, 34.465571936], [-85.932178339, 34.464931745], [-85.934795148, 34.464892952], [-85.937045825, 34.466293616], [-85.938699185, 34.467516025], [-85.940631098, 34.467375612], [-85.941659032, 34.466452897], [-85.942648268, 34.464993556], [-85.943014585, 34.46480185], [-85.943495223, 34.464447203], [-85.945272818, 34.464061504], [-85.949752585, 34.462543792], [-85.95046019, 34.462352086], [-85.951321377, 34.462013473], [-85.952783924, 34.461385419], [-85.953096743, 34.461087883], [-85.955018906, 34.460822046], [-85.956737848, 34.461084514], [-85.961920941, 34.461193229], [-85.963226303, 34.460739056], [-85.964651105, 34.460957017], [-85.96663554, 34.459435949], [-85.967572806, 34.459247122], [-85.969347102, 34.459958915], [-85.970386482, 34.459979118], [-85.97364704, 34.459480774], [-85.9748213, 34.45945778], [-85.975780482, 34.459995833], [-85.977012976, 34.461893746], [-85.977927986, 34.462533348], [-85.978040382, 34.462703231], [-85.978500641, 34.462563789], [-85.979056927, 34.462521152], [-85.980012417, 34.461674089], [-85.981828886, 34.459731513], [-85.983636953, 34.458789343], [-85.985952868, 34.458755088], [-85.987724078, 34.459491614], [-85.98926729, 34.459833293], [-85.991318908, 34.459803549], [-85.994208773, 34.459390727], [-85.994933907, 34.459122289], [-85.99553436, 34.459237241], [-85.996518708, 34.459222963], [-85.998485026, 34.458494436], [-85.999655455, 34.457941843], [-86.000541533, 34.457628215], [-86.001387656, 34.458900312], [-86.002962988, 34.460171935], [-86.004994894, 34.461432236], [-86.005421071, 34.46197474], [-86.005910159, 34.462370906], [-86.00820033, 34.462336093], [-86.010547518, 34.462000534], [-86.01435947, 34.46193418], [-86.017171896, 34.46285879], [-86.018936235, 34.462831263], [-86.020816168, 34.462069659], [-86.021766907, 34.461095429], [-86.02245996, 34.458674318], [-86.025337875, 34.455930818], [-86.027517445, 34.454729072], [-86.029458729, 34.45401055], [-86.030185694, 34.454146721], [-86.031610436, 34.453944444], [-86.034622472, 34.453962658], [-86.035803617, 34.453644588], [-86.036130901, 34.453672666], [-86.03609646, 34.453939482], [-86.036370199, 34.454302286], [-86.03816034, 34.454774087], [-86.039238863, 34.455231198]]]}, "properties": {"arm": "56", "name": "South Sauty Creek", "comid": 19648816, "kind": "aboveHead"}}