{"type": "Feature", "geometry": {"type": "Polygon", "coordinates": [[[-85.811302882, 34.931049775], [-85.811577455, 34.932331594], [-85.812357038, 34.934257917], [-85.812584448, 34.935327024], [-85.813826134, 34.93573441], [-85.814498627, 34.936587339], [-85.815587941, 34.936966679], [-85.816743473, 34.9352806], [-85.818946875, 34.934971036], [-85.819833678, 34.934249709], [-85.820354434, 34.934168634], [-85.821746568, 34.933893728], [-85.82445934, 34.937724375], [-85.824693344, 34.939274402], [-85.826790875, 34.94115514], [-85.827829577, 34.942328487], [-85.82899443, 34.943080869], [-85.830049265, 34.944270341], [-85.832864193, 34.945629709], [-85.837713579, 34.948387839], [-85.840343929, 34.950552651], [-85.841054622, 34.951356025], [-85.842595149, 34.951416103], [-85.842873186, 34.952577979], [-85.84325492, 34.953546596], [-85.845390012, 34.952537405], [-85.846684391, 34.953296608], [-85.847425206, 34.952714111], [-85.848599154, 34.952417822], [-85.849598781, 34.952062147], [-85.850456689, 34.951892211], [-85.851536181, 34.952525257], [-85.854005664, 34.952861734], [-85.854437639, 34.953196279], [-85.854826686, 34.954287678], [-85.8556641, 34.955432714], [-85.856523502, 34.955389273], [-85.858204069, 34.95496196], [-85.860234564, 34.954859924], [-85.861294409, 34.955307869], [-85.862356982, 34.955204046], [-85.86277709, 34.955904118], [-85.862948354, 34.957777196], [-85.862630403, 34.959138043], [-85.862567234, 34.961051895], [-85.863041247, 34.961954673], [-85.865792453, 34.961973979], [-85.866987492, 34.962168113], [-85.867404119, 34.962383287], [-85.867458008, 34.963274925], [-85.86839728, 34.963927238], [-85.868669362, 34.964782997], [-85.869556633, 34.965376015], [-85.870710197, 34.965096695], [-85.870799242, 34.965525768], [-85.871190343, 34.966682561], [-85.869935749, 34.968021286], [-85.869252996, 34.969976256], [-85.868804355, 34.970455672], [-85.86909071, 34.971302123], [-85.870262876, 34.972773049], [-85.869960913, 34.97371813], [-85.871364111, 34.974170399], [-85.871257236, 34.977184376], [-85.869617102, 34.97942934], [-85.870018796, 34.980407958], [-85.86994829, 34.980941187], [-85.868492971, 34.98123652], [-85.867839823, 34.981135713], [-85.864634552, 34.982851089], [-85.863433347, 34.981992791], [-85.862805342, 34.982469288], [-85.860808638, 34.98337283], [-85.859472215, 34.981805422], [-85.858226882, 34.981615307], [-85.856193288, 34.98163704], [-85.855844698, 34.982146157], [-85.856362611, 34.983543629], [-85.856662025, 34.985332977], [-85.85500098, 34.9872789], [-85.853916988, 34.987540951], [-85.852284374, 34.986971682], [-85.85098514, 34.987541593], [-85.850226496, 34.988767254], [-85.84989754, 34.988911475], [-85.849121392, 34.991153196], [-85.848314914, 34.992012327], [-85.848014249, 34.993062815], [-85.848181289, 34.993197396], [-85.848834533, 34.994025157], [-85.849687529, 34.994406746], [-85.850411259, 34.99484032], [-85.849928235, 34.996500707], [-85.851038359, 34.997909522], [-85.851810322, 34.998136587], [-85.853491082, 34.998501441], [-85.854263058, 34.99872849], [-85.854575574, 34.999141124], [-85.855804812, 34.999671151], [-85.855606445, 35.002525474], [-85.856040176, 35.002927541], [-85.855863617, 35.004260562], [-85.857226376, 35.005356212], [-85.858428922, 35.007602989], [-85.85862969, 35.008545246], [-85.85846334, 35.00868041], [-85.857736685, 35.008857609], [-85.856795211, 35.00920158], [-85.856837612, 35.011221406], [-85.856243806, 35.013266148], [-85.855695877, 35.013863321], [-85.855093877, 35.013747942], [-85.854425838, 35.013993407], [-85.853699124, 35.014170581], [-85.852327894, 35.014671086], [-85.85200236, 35.015791037], [-85.849490328, 35.015229816], [-85.848376679, 35.015476632], [-85.848010692, 35.016763714], [-85.847970829, 35.017948463], [-85.846420884, 35.018479754], [-85.845090839, 35.018275888], [-85.842902179, 35.019046667], [-85.84266823, 35.019416116], [-85.842087855, 35.021552564], [-85.84138278, 35.022959783], [-85.840744026, 35.023317272], [-85.841626212, 35.024992854], [-85.841761262, 35.026291794], [-85.840622797, 35.027332747], [-85.840245378, 35.027860386], [-85.838380087, 35.029784167], [-85.83660733, 35.029950503], [-85.834174841, 35.030788462], [-85.83374521, 35.031610709], [-85.833515776, 35.031984748], [-85.833354382, 35.031846434], [-85.832885605, 35.031295889], [-85.831522168, 35.031086881], [-85.830674379, 35.032056087], [-85.830102998, 35.03380773], [-85.828431682, 35.03473909], [-85.827336595, 35.035568811], [-85.825193639, 35.036088358], [-85.822888563, 35.035142212], [-85.820725143, 35.03334666], [-85.818664913, 35.032166785], [-85.818503545, 35.032028451], [-85.817400685, 35.032994352], [-85.816585974, 35.034183348], [-85.815711571, 35.035135399], [-85.814513329, 35.035427235], [-85.812104753, 35.036669247], [-85.811144512, 35.036092694], [-85.810197378, 35.035770088], [-85.810638711, 35.037837344], [-85.809913199, 35.038981393], [-85.810480958, 35.041645331], [-85.80846629, 35.043410337], [-85.807331843, 35.044689427], [-85.806007807, 35.045865625], [-85.80510833, 35.04608437], [-85.804597297, 35.047103804], [-85.80295243, 35.04724499], [-85.802785899, 35.04738007], [-85.802323337, 35.047194418], [-85.801097031, 35.046775806], [-85.800852331, 35.045717947], [-85.80014494, 35.043810768], [-85.800211733, 35.040298214], [-85.798645832, 35.038381526], [-85.79795416, 35.036650545], [-85.79658824, 35.036322934], [-85.796394145, 35.036430321], [-85.795752595, 35.037939781], [-85.794278543, 35.038325363], [-85.793094596, 35.038860523], [-85.789560822, 35.039782792], [-85.786888343, 35.040185965], [-85.786493864, 35.040486542], [-85.786433563, 35.042246817], [-85.785207576, 35.043545129], [-85.783920809, 35.042623834], [-85.783201488, 35.04231246], [-85.782734806, 35.042665717], [-85.780823356, 35.042364062], [-85.77882975, 35.041077618], [-85.777075146, 35.039504399], [-85.776879591, 35.037437336], [-85.776064484, 35.036517086], [-85.773081862, 35.033858938], [-85.771757464, 35.032889941], [-85.771417624, 35.032508397], [-85.772384781, 35.031665862], [-85.773114158, 35.030886824], [-85.773644807, 35.030815195], [-85.774800734, 35.03103626], [-85.776185432, 35.031612288], [-85.779568177, 35.031566351], [-85.781464383, 35.030809071], [-85.782498355, 35.030558007], [-85.784040479, 35.030852717], [-85.785026529, 35.030492106], [-85.786363991, 35.029079218], [-85.787527325, 35.028131491], [-85.787931475, 35.027328215], [-85.789871332, 35.025870927], [-85.789842869, 35.024541116], [-85.791205032, 35.023058702], [-85.792003247, 35.021468101], [-85.790646638, 35.019744342], [-85.790236263, 35.01782078], [-85.789643783, 35.016989549], [-85.78905084, 35.015966545], [-85.789468704, 35.014532389], [-85.789436721, 35.013033704], [-85.79057814, 35.012756144], [-85.791832081, 35.012298768], [-85.791482629, 35.010660727], [-85.79209903, 35.009690541], [-85.793053062, 35.009196462], [-85.793219528, 35.009061391], [-85.792526777, 35.007321772], [-85.791323726, 35.006753313], [-85.789966729, 35.005581474], [-85.789432925, 35.004955499], [-85.790033253, 35.004047125], [-85.790634777, 35.003442248], [-85.791646571, 35.003393567], [-85.792588729, 35.002382266], [-85.792990538, 35.002181341], [-85.793354373, 35.001639996], [-85.793791703, 35.001172482], [-85.794611134, 34.999948199], [-85.79486356, 34.999226474], [-85.795328044, 34.997421326], [-85.795378685, 34.995946687], [-85.797138935, 34.993934278], [-85.797183421, 34.992642402], [-85.798188833, 34.990998181], [-85.798119042, 34.989801684], [-85.797860579, 34.989239774], [-85.79750103, 34.988987194], [-85.797159883, 34.988479171], [-85.795440901, 34.987309496], [-85.794921012, 34.98628653], [-85.793899469, 34.985491592], [-85.79315738, 34.984514543], [-85.792117463, 34.98397503], [-85.790592825, 34.983751389], [-85.788712249, 34.983736853], [-85.785143346, 34.983086066], [-85.783012676, 34.981315557], [-85.780406242, 34.98016503], [-85.780643792, 34.979496797], [-85.781512582, 34.978253717], [-85.781916533, 34.977450421], [-85.78265976, 34.976640939], [-85.783716143, 34.973014365], [-85.782841437, 34.97065187], [-85.781516624, 34.96836592], [-85.780628621, 34.967118943], [-85.780350082, 34.965596516], [-85.780308502, 34.964893352], [-85.780198501, 34.964234778], [-85.779838309, 34.96369551], [-85.778892059, 34.963783487], [-85.77836459, 34.962995714], [-85.777525788, 34.963078321], [-85.776872491, 34.96294115], [-85.77567283, 34.96297745], [-85.773948877, 34.962222005], [-85.773824799, 34.962059449], [-85.773166101, 34.962001851], [-85.771434509, 34.96171346], [-85.769481946, 34.960253154], [-85.76859913, 34.959866185], [-85.768021667, 34.959512246], [-85.767247069, 34.959172661], [-85.766935184, 34.958759778], [-85.762357366, 34.958500289], [-85.76054738, 34.958312325], [-85.755192865, 34.958138361], [-85.754020111, 34.958168364], [-85.753566287, 34.957435365], [-85.753112019, 34.956082836], [-85.752792491, 34.954520863], [-85.751796271, 34.953776141], [-85.750352933, 34.952891077], [-85.749964539, 34.951805579], [-85.747835278, 34.950872991], [-85.7472847, 34.950144113], [-85.747115078, 34.950011241], [-85.747657013, 34.947886305], [-85.746749086, 34.946599301], [-85.745828307, 34.945389124], [-85.744918893, 34.942888248], [-85.746714703, 34.937537648], [-85.745785719, 34.936486874], [-85.744426728, 34.936432988], [-85.743824175, 34.936093553], [-85.741365403, 34.93523513], [-85.741452981, 34.933744611], [-85.741317614, 34.933589444], [-85.741136637, 34.933463988], [-85.740870113, 34.93261669], [-85.739304088, 34.932224276], [-85.738456253, 34.931559842], [-85.737383572, 34.931233884], [-85.736519684, 34.930631239], [-85.736407138, 34.93046121], [-85.736606932, 34.930057312], [-85.737044199, 34.929589975], [-85.737495325, 34.928474835], [-85.73957179, 34.926724816], [-85.740928389, 34.926542559], [-85.741236679, 34.925619269], [-85.740695961, 34.924176845], [-85.741560807, 34.922944177], [-85.742730182, 34.921982665], [-85.74395564, 34.920212683], [-85.744364264, 34.919414086], [-85.745229621, 34.918449055], [-85.745233709, 34.917718214], [-85.745575297, 34.916700903], [-85.745887358, 34.916410094], [-85.746832797, 34.915993631], [-85.747497971, 34.914560082], [-85.748235768, 34.914237077], [-85.748866239, 34.913354672], [-85.748900512, 34.912358862], [-85.750708577, 34.911735669], [-85.751797486, 34.911451865], [-85.750871349, 34.910245398], [-85.751048358, 34.909485469], [-85.750642392, 34.908708126], [-85.751628635, 34.904948954], [-85.753314475, 34.904791245], [-85.753291335, 34.902667248], [-85.753077513, 34.901055438], [-85.753866974, 34.900850727], [-85.755113123, 34.900420542], [-85.75671721, 34.900270375], [-85.758358653, 34.899626159], [-85.758529528, 34.899495738], [-85.759187681, 34.899553422], [-85.75922328, 34.899286819], [-85.759758924, 34.899424373], [-85.761213466, 34.900179783], [-85.763601103, 34.900570192], [-85.764104029, 34.900972472], [-85.765297865, 34.901167653], [-85.765563928, 34.900830626], [-85.765840413, 34.899596847], [-85.766379335, 34.899534473], [-85.767680356, 34.899218542], [-85.769629555, 34.896890087], [-85.770341172, 34.895357246], [-85.770758532, 34.89517253], [-85.770081652, 34.89391006], [-85.769984706, 34.893486453], [-85.770689286, 34.893371137], [-85.772855092, 34.892673605], [-85.774181072, 34.893183709], [-85.776887066, 34.893681798], [-85.778860031, 34.893045253], [-85.781857398, 34.892976599], [-85.781339918, 34.891922005], [-85.781234368, 34.891503981], [-85.781737593, 34.890498619], [-85.782402506, 34.889958331], [-85.783595057, 34.889341964], [-85.785751049, 34.887583445], [-85.787287065, 34.886906464], [-85.78807124, 34.88629018], [-85.790089988, 34.886108401], [-85.791085023, 34.887326902], [-85.791908551, 34.887704399], [-85.793377669, 34.888936902], [-85.796231382, 34.89023974], [-85.796819846, 34.890586131], [-85.798593535, 34.891132939], [-85.798690636, 34.891556523], [-85.800636901, 34.893856743], [-85.800768399, 34.896251377], [-85.802865628, 34.89696752], [-85.803761856, 34.897484008], [-85.804055644, 34.898776016], [-85.802063616, 34.902040982], [-85.802687969, 34.903233302], [-85.801488911, 34.905541293], [-85.801508794, 34.90676093], [-85.801577315, 34.907517035], [-85.802702749, 34.909147096], [-85.803053802, 34.910673757], [-85.803371069, 34.912865409], [-85.805088669, 34.914894755], [-85.807019042, 34.916557028], [-85.809493909, 34.918351014], [-85.809894645, 34.918820004], [-85.809580321, 34.919736558], [-85.809595215, 34.920015987], [-85.809352861, 34.920390983], [-85.809217021, 34.922313407], [-85.809727759, 34.92258128], [-85.80960665, 34.924608229], [-85.809798557, 34.925943963], [-85.809856145, 34.928681802], [-85.811302882, 34.931049775]]]}, "properties": {"arm": "58", "name": "Widows Creek", "comid": 19644694, "kind": "aboveHead"}}