{"type": "Feature", "geometry": {"type": "Polygon", "coordinates": [[[-85.743074362, 34.890587654], [-85.742793282, 34.89097811], [-85.743743611, 34.892098314], [-85.743915879, 34.892716114], [-85.744933424, 34.893100449], [-85.74531455, 34.893751327], [-85.745491096, 34.894278886], [-85.745586255, 34.896232233], [-85.742977546, 34.897710132], [-85.740661616, 34.897270793], [-85.73991526, 34.896783804], [-85.738690433, 34.89736532], [-85.737964553, 34.897541798], [-85.73763191, 34.897811814], [-85.737215418, 34.898028105], [-85.738594764, 34.899693874], [-85.738848867, 34.900885718], [-85.739531722, 34.901847587], [-85.73830277, 34.902848084], [-85.735527108, 34.903860224], [-85.733417035, 34.90415531], [-85.732426173, 34.904367482], [-85.730578692, 34.904624481], [-85.729983373, 34.904932505], [-85.729001686, 34.905969398], [-85.727787339, 34.906956332], [-85.724835107, 34.907672451], [-85.724434439, 34.909051203], [-85.72466693, 34.910150569], [-85.723860615, 34.91086779], [-85.723282022, 34.911710395], [-85.721983431, 34.911461328], [-85.720188694, 34.912312857], [-85.719653032, 34.912175124], [-85.718614607, 34.91163492], [-85.718451764, 34.9108704], [-85.716929608, 34.909029566], [-85.715230934, 34.906682164], [-85.71519433, 34.904860339], [-85.717975007, 34.903425528], [-85.718806844, 34.902750628], [-85.723271618, 34.900374397], [-85.725743669, 34.898697334], [-85.731724595, 34.895794542], [-85.738111257, 34.892849144], [-85.741089185, 34.89131316], [-85.742087266, 34.890500991], [-85.742646772, 34.890459502], [-85.743110012, 34.890321053], [-85.743074362, 34.890587654]]]}, "properties": {"arm": "58", "name": "Widows Creek", "comid": 19646328, "kind": "atMouth"}}