{"type": "Feature", "geometry": {"type": "Polygon", "coordinates": [[[-86.044990297, 34.648456242], [-86.0453599, 34.648945075], [-86.048082493, 34.649837275], [-86.048669175, 34.650190826], [-86.049845772, 34.65017125], [-86.051649542, 34.650512871], [-86.052508114, 34.651991625], [-86.053969287, 34.652497794], [-86.056329375, 34.651382396], [-86.056533926, 34.652326968], [-86.056979787, 34.652607345], [-86.057306386, 34.653770932], [-86.058700573, 34.654294494], [-86.062234802, 34.654804694], [-86.062561861, 34.654459652], [-86.062890005, 34.654487648], [-86.064291904, 34.65527307], [-86.065478549, 34.656200247], [-86.066762375, 34.657137803], [-86.066389812, 34.658960215], [-86.068018683, 34.66041811], [-86.069544714, 34.660845306], [-86.070146548, 34.661183166], [-86.071385003, 34.661227629], [-86.07207863, 34.661617548], [-86.07403596, 34.662037192], [-86.075927159, 34.663371924], [-86.075473366, 34.665604601], [-86.076404883, 34.666823837], [-86.076607234, 34.667667012], [-86.078680745, 34.670062264], [-86.078875294, 34.672031992], [-86.080022909, 34.671978013], [-86.082520156, 34.67207263], [-86.083288777, 34.672787], [-86.084690085, 34.674305283], [-86.08561135, 34.675163253], [-86.086187109, 34.675785334], [-86.088196198, 34.67967079], [-86.09454667, 34.680507908], [-86.095951099, 34.680937008], [-86.097668827, 34.681873089], [-86.098673326, 34.681924739], [-86.099326925, 34.682003452], [-86.10022574, 34.682050323], [-86.102997648, 34.680556037], [-86.104031235, 34.682316692], [-86.104415961, 34.683841038], [-86.104169963, 34.68522965], [-86.105877795, 34.687776504], [-86.109525327, 34.690161394], [-86.111520711, 34.691118688], [-86.112959253, 34.690840442], [-86.113145146, 34.690725589], [-86.115578958, 34.690854092], [-86.119239693, 34.689908857], [-86.123900968, 34.692176939], [-86.125946456, 34.69262415], [-86.126978843, 34.694055757], [-86.129633408, 34.697032084], [-86.129083087, 34.700128807], [-86.130451383, 34.700802977], [-86.132887655, 34.702673599], [-86.133381481, 34.704626241], [-86.134491988, 34.706098059], [-86.13765019, 34.706870934], [-86.139869071, 34.708760896], [-86.140669549, 34.709698686], [-86.142115344, 34.710943848], [-86.14331756, 34.712349571], [-86.145121036, 34.713900906], [-86.146968584, 34.714339373], [-86.148884697, 34.715194411], [-86.150536488, 34.717931537], [-86.150884136, 34.720280375], [-86.151534016, 34.722355586], [-86.15310118, 34.723486518], [-86.153627325, 34.724360982], [-86.154274393, 34.72491912], [-86.154148993, 34.725473118], [-86.154140501, 34.725742055], [-86.154080151, 34.726010826], [-86.154138216, 34.726955303], [-86.152615362, 34.726936248], [-86.151234817, 34.727689702], [-86.149004601, 34.72689458], [-86.148282323, 34.72696417], [-86.147033518, 34.726142376], [-86.146256286, 34.726215735], [-86.144320498, 34.72565396], [-86.142850301, 34.725892029], [-86.141655947, 34.7259006], [-86.141327471, 34.725872827], [-86.141140764, 34.725629517], [-86.139459234, 34.724905871], [-86.137713551, 34.722558816], [-86.134295526, 34.720004908], [-86.130020282, 34.719402883], [-86.129108856, 34.719026562], [-86.127789661, 34.718674693], [-86.126255625, 34.717975959], [-86.123351385, 34.717464501], [-86.120914004, 34.716489013], [-86.118678259, 34.713661848], [-86.117146872, 34.712499707], [-86.116690485, 34.711247505], [-86.114475669, 34.708643206], [-86.113569214, 34.707140023], [-86.112213632, 34.707113526], [-86.110861523, 34.707584516], [-86.108191709, 34.707996348], [-86.107041931, 34.707176131], [-86.105598766, 34.707911115], [-86.104364946, 34.707724211], [-86.10216848, 34.708911376], [-86.101674657, 34.709604726], [-86.101627179, 34.711182921], [-86.10074762, 34.71501428], [-86.099587342, 34.715988118], [-86.098768109, 34.717576607], [-86.097204673, 34.719021819], [-86.096542545, 34.719953672], [-86.095391126, 34.72101882], [-86.095049061, 34.721680794], [-86.093385292, 34.720903172], [-86.08766427, 34.720791909], [-86.085390631, 34.720017087], [-86.083592888, 34.71921317], [-86.082285236, 34.718853325], [-86.08080324, 34.717793901], [-86.079111057, 34.717218001], [-86.076751005, 34.714440428], [-86.076236913, 34.713157821], [-86.074998987, 34.711394311], [-86.074047328, 34.710849763], [-86.073068249, 34.710517775], [-86.071557965, 34.709559029], [-86.070755766, 34.709183091], [-86.068392842, 34.707496415], [-86.067236226, 34.707033363], [-86.066418356, 34.706839356], [-86.063954353, 34.706880063], [-86.062505449, 34.707434972], [-86.060746538, 34.708401671], [-86.060266481, 34.708202716], [-86.060069871, 34.70735582], [-86.059495616, 34.706862285], [-86.060365267, 34.703082865], [-86.060143149, 34.701450005], [-86.05998204, 34.701311955], [-86.059522569, 34.700773422], [-86.05812442, 34.700213812], [-86.054307195, 34.699188616], [-86.049965255, 34.698451391], [-86.050384566, 34.696633052], [-86.049458832, 34.693785439], [-86.048553635, 34.692724181], [-86.04605758, 34.690570458], [-86.046376991, 34.689183943], [-86.045895545, 34.688616067], [-86.0450931, 34.687923842], [-86.044692135, 34.687455543], [-86.043241668, 34.686701616], [-86.043154312, 34.686515055], [-86.042144945, 34.686580507], [-86.03983241, 34.687358412], [-86.037904476, 34.687288419], [-86.032507695, 34.685832379], [-86.028710525, 34.685279938], [-86.028564233, 34.684888149], [-86.028362379, 34.68376467], [-86.02408849, 34.679690382], [-86.022656276, 34.679258004], [-86.021774193, 34.678862186], [-86.020608662, 34.678652792], [-86.019895001, 34.677658222], [-86.019664315, 34.677077974], [-86.019287492, 34.676365102], [-86.02102524, 34.674760855], [-86.020770479, 34.673666521], [-86.020383545, 34.672931712], [-86.021576769, 34.67238704], [-86.022278517, 34.6724935], [-86.024395688, 34.671300983], [-86.02593644, 34.669894728], [-86.026935093, 34.669630448], [-86.027413185, 34.668301765], [-86.028196196, 34.66758074], [-86.028778458, 34.665767908], [-86.030778878, 34.664974073], [-86.031420706, 34.662980903], [-86.034396766, 34.662959522], [-86.035059123, 34.660706813], [-86.036417355, 34.660346798], [-86.037658086, 34.658291045], [-86.036504257, 34.657292621], [-86.036527163, 34.656554988], [-86.039835006, 34.654688662], [-86.039849537, 34.654215808], [-86.041156379, 34.652709305], [-86.041891962, 34.651491084], [-86.042165333, 34.650559941], [-86.042110571, 34.648338584], [-86.041653042, 34.647968646], [-86.041526073, 34.647808185], [-86.041482286, 34.64710488], [-86.041370511, 34.646446331], [-86.04341699, 34.64675406], [-86.044309586, 34.64792817], [-86.044990297, 34.648456242]]]}, "properties": {"arm": "62", "name": "Roseberry Creek", "comid": 19647204, "kind": "aboveHead"}}