{"type": "Feature", "geometry": {"type": "Polygon", "coordinates": [[[-86.045989981, 34.595325365], [-86.045783501, 34.595720719], [-86.04531054, 34.596514723], [-86.045273567, 34.597181657], [-86.046631487, 34.597837249], [-86.048181503, 34.59752729], [-86.049217995, 34.597363053], [-86.049889906, 34.597133921], [-86.050660373, 34.596923748], [-86.051479145, 34.596319437], [-86.052538419, 34.595697749], [-86.054288675, 34.596243495], [-86.056501008, 34.595496947], [-86.057877988, 34.595684128], [-86.059228907, 34.5957321], [-86.060752325, 34.596330013], [-86.061865571, 34.59711624], [-86.061626017, 34.598290555], [-86.062686972, 34.60257442], [-86.064202479, 34.604560213], [-86.064199156, 34.607035837], [-86.065329945, 34.608048967], [-86.066741016, 34.610725357], [-86.066626372, 34.611292929], [-86.067231958, 34.612482458], [-86.067603483, 34.612815479], [-86.067713032, 34.613231503], [-86.067943459, 34.614056086], [-86.067898413, 34.614345134], [-86.06418941, 34.617372635], [-86.061917072, 34.619262621], [-86.061178782, 34.620225765], [-86.057422382, 34.624378453], [-86.056528988, 34.625237719], [-86.055904595, 34.626381239], [-86.055870146, 34.626648009], [-86.05750414, 34.627036198], [-86.059174391, 34.627705598], [-86.062614174, 34.627773777], [-86.063444121, 34.628249175], [-86.064094082, 34.628553281], [-86.065570945, 34.629718102], [-86.06638032, 34.631196802], [-86.068818629, 34.633908012], [-86.07211916, 34.635460029], [-86.074589177, 34.635797018], [-86.075146657, 34.635753932], [-86.075607771, 34.635614133], [-86.076096841, 34.635780131], [-86.077018353, 34.636149437], [-86.081719546, 34.63694819], [-86.083965851, 34.637674683], [-86.084137819, 34.638049629], [-86.084243905, 34.638956259], [-86.084415876, 34.639331204], [-86.084542921, 34.639491621], [-86.084823297, 34.641399175], [-86.086411518, 34.64341385], [-86.088920108, 34.644419605], [-86.089502345, 34.644768348], [-86.09032528, 34.644958475], [-86.090584717, 34.645519943], [-86.091152099, 34.646366771], [-86.09223451, 34.647118349], [-86.092347425, 34.647288086], [-86.0924282, 34.648472766], [-86.092004084, 34.649955826], [-86.091827801, 34.652513458], [-86.091982584, 34.655036037], [-86.092896024, 34.657484077], [-86.092653293, 34.658544306], [-86.093584113, 34.660877921], [-86.089797828, 34.663792157], [-86.088167082, 34.665686632], [-86.086748847, 34.666876484], [-86.084238528, 34.670647106], [-86.082520156, 34.67207263], [-86.083288777, 34.672787], [-86.084690085, 34.674305283], [-86.08561135, 34.675163253], [-86.086187109, 34.675785334], [-86.088196198, 34.67967079], [-86.09454667, 34.680507908], [-86.095951099, 34.680937008], [-86.097668827, 34.681873089], [-86.098673326, 34.681924739], [-86.099326925, 34.682003452], [-86.10022574, 34.682050323], [-86.102997648, 34.680556037], [-86.104031235, 34.682316692], [-86.104415961, 34.683841038], [-86.104169963, 34.68522965], [-86.105877795, 34.687776504], [-86.109525327, 34.690161394], [-86.111520711, 34.691118688], [-86.112959253, 34.690840442], [-86.113145146, 34.690725589], [-86.115578958, 34.690854092], [-86.119239693, 34.689908857], [-86.123900968, 34.692176939], [-86.125946456, 34.69262415], [-86.126978843, 34.694055757], [-86.129633408, 34.697032084], [-86.129083087, 34.700128807], [-86.130451383, 34.700802977], [-86.132887655, 34.702673599], [-86.133381481, 34.704626241], [-86.134491988, 34.706098059], [-86.13765019, 34.706870934], [-86.139869071, 34.708760896], [-86.140669549, 34.709698686], [-86.142115344, 34.710943848], [-86.14331756, 34.712349571], [-86.145121036, 34.713900906], [-86.146968584, 34.714339373], [-86.148884697, 34.715194411], [-86.150536488, 34.717931537], [-86.150884136, 34.720280375], [-86.151534016, 34.722355586], [-86.15310118, 34.723486518], [-86.153627325, 34.724360982], [-86.154274393, 34.72491912], [-86.154148993, 34.725473118], [-86.154140501, 34.725742055], [-86.154080151, 34.726010826], [-86.154138216, 34.726955303], [-86.152615362, 34.726936248], [-86.151234817, 34.727689702], [-86.149004601, 34.72689458], [-86.148282323, 34.72696417], [-86.147033518, 34.726142376], [-86.146256286, 34.726215735], [-86.144320498, 34.72565396], [-86.142850301, 34.725892029], [-86.141655947, 34.7259006], [-86.141327471, 34.725872827], [-86.141140764, 34.725629517], [-86.139459234, 34.724905871], [-86.137713551, 34.722558816], [-86.134295526, 34.720004908], [-86.130020282, 34.719402883], [-86.129108856, 34.719026562], [-86.127789661, 34.718674693], [-86.126255625, 34.717975959], [-86.123351385, 34.717464501], [-86.120914004, 34.716489013], [-86.118678259, 34.713661848], [-86.117146872, 34.712499707], [-86.116690485, 34.711247505], [-86.114475669, 34.708643206], [-86.113569214, 34.707140023], [-86.112213632, 34.707113526], [-86.110861523, 34.707584516], [-86.108191709, 34.707996348], [-86.107041931, 34.707176131], [-86.105598766, 34.707911115], [-86.104364946, 34.707724211], [-86.10216848, 34.708911376], [-86.101674657, 34.709604726], [-86.101627179, 34.711182921], [-86.10074762, 34.71501428], [-86.099587342, 34.715988118], [-86.098768109, 34.717576607], [-86.097204673, 34.719021819], [-86.096542545, 34.719953672], [-86.095391126, 34.72101882], [-86.095049061, 34.721680794], [-86.093385292, 34.720903172], [-86.08766427, 34.720791909], [-86.085390631, 34.720017087], [-86.083592888, 34.71921317], [-86.082285236, 34.718853325], [-86.08080324, 34.717793901], [-86.079111057, 34.717218001], [-86.076751005, 34.714440428], [-86.076236913, 34.713157821], [-86.074998987, 34.711394311], [-86.074047328, 34.710849763], [-86.073068249, 34.710517775], [-86.071557965, 34.709559029], [-86.070755766, 34.709183091], [-86.068392842, 34.707496415], [-86.067236226, 34.707033363], [-86.066418356, 34.706839356], [-86.063954353, 34.706880063], [-86.062505449, 34.707434972], [-86.060746538, 34.708401671], [-86.060266481, 34.708202716], [-86.058459411, 34.709441285], [-86.057129508, 34.709997855], [-86.051822406, 34.710581652], [-86.049011465, 34.710916915], [-86.046208227, 34.710631218], [-86.045155901, 34.71082579], [-86.044131651, 34.711003789], [-86.042747031, 34.711260558], [-86.039843863, 34.713829538], [-86.034021812, 34.717923018], [-86.033092501, 34.721931077], [-86.032386354, 34.723476208], [-86.029127048, 34.726444327], [-86.026725441, 34.728398548], [-86.022508777, 34.73074312], [-86.021172008, 34.73060765], [-86.020184488, 34.730539983], [-86.018761022, 34.73039285], [-86.017569784, 34.73061534], [-86.015066651, 34.732328888], [-86.012076854, 34.736229887], [-86.011608828, 34.737755278], [-86.010187848, 34.737488167], [-86.008586905, 34.736569309], [-86.007280866, 34.735597739], [-86.005677587, 34.734617529], [-86.004465251, 34.732825901], [-86.003364214, 34.73219422], [-86.00041398, 34.733152767], [-85.997854997, 34.734593602], [-85.995831731, 34.735186978], [-85.990348418, 34.737562975], [-85.988408197, 34.738892392], [-85.984589893, 34.741012864], [-85.983044387, 34.742856507], [-85.981338289, 34.744159577], [-85.979411833, 34.745241416], [-85.978438707, 34.746375657], [-85.975199094, 34.748749971], [-85.972619779, 34.752805504], [-85.97204276, 34.754542653], [-85.970865716, 34.755964825], [-85.969486304, 34.757803632], [-85.968511563, 34.758729067], [-85.967820393, 34.759649387], [-85.967139918, 34.76036835], [-85.966107575, 34.75956737], [-85.965616715, 34.758197711], [-85.964759762, 34.756809189], [-85.963734795, 34.754799369], [-85.963565231, 34.754666783], [-85.964574761, 34.751546724], [-85.963693231, 34.749949571], [-85.962769912, 34.748593227], [-85.962403869, 34.746189164], [-85.959880763, 34.743928093], [-85.959839912, 34.740862982], [-85.958957136, 34.740369765], [-85.957430915, 34.740670283], [-85.955092762, 34.737889793], [-85.954761474, 34.736790842], [-85.954561382, 34.734727597], [-85.954247917, 34.734445629], [-85.955044192, 34.73343539], [-85.956403712, 34.732085958], [-85.958547284, 34.72952081], [-85.960581922, 34.727609989], [-85.961824786, 34.727331407], [-85.963160587, 34.727612877], [-85.964386466, 34.726529998], [-85.966055055, 34.723982843], [-85.966489764, 34.723514551], [-85.967283865, 34.722200628], [-85.967724503, 34.721726521], [-85.967710163, 34.72143872], [-85.968220927, 34.720427011], [-85.968453756, 34.719755913], [-85.968651402, 34.719652815], [-85.969697296, 34.718794612], [-85.970378989, 34.716432189], [-85.971350584, 34.715367404], [-85.972761816, 34.714631214], [-85.974129192, 34.711883153], [-85.973793961, 34.711489785], [-85.972668162, 34.710773445], [-85.972134916, 34.710148109], [-85.970231672, 34.708650532], [-85.966625165, 34.706350978], [-85.968080813, 34.704676775], [-85.967881602, 34.702525081], [-85.965822508, 34.702482673], [-85.964341561, 34.701786222], [-85.964352295, 34.701405749], [-85.965214845, 34.698492057], [-85.966574605, 34.697353262], [-85.967903479, 34.695973684], [-85.968619446, 34.695873066], [-85.967890092, 34.69456494], [-85.968200004, 34.693481139], [-85.971447305, 34.69337925], [-85.971427188, 34.692538865], [-85.969691666, 34.689698623], [-85.97147434, 34.688098889], [-85.972497742, 34.686593937], [-85.973009621, 34.684815274], [-85.973044383, 34.684548546], [-85.9718667, 34.684571516], [-85.969226351, 34.684675067], [-85.967596898, 34.684225017], [-85.966670207, 34.683854427], [-85.966321305, 34.683845453], [-85.965710851, 34.683495765], [-85.962260513, 34.681877339], [-85.958356654, 34.681271215], [-85.95776339, 34.680929283], [-85.956946071, 34.680734506], [-85.957935701, 34.67986734], [-85.959208865, 34.677880377], [-85.960079725, 34.676094742], [-85.960911074, 34.675386707], [-85.963511494, 34.674772088], [-85.963354861, 34.672474352], [-85.961933239, 34.671605899], [-85.961809233, 34.671443492], [-85.961381439, 34.67114533], [-85.961766455, 34.6704199], [-85.962940867, 34.669307324], [-85.964550569, 34.66897188], [-85.96492139, 34.668076639], [-85.964398356, 34.667296152], [-85.96294589, 34.666307036], [-85.962833232, 34.666137177], [-85.963111639, 34.665075931], [-85.964051961, 34.663968461], [-85.965403871, 34.66372038], [-85.966091676, 34.663077917], [-85.966585079, 34.662216408], [-85.967517964, 34.661344286], [-85.968082015, 34.660358207], [-85.968590071, 34.660159631], [-85.969032695, 34.65897133], [-85.97122234, 34.656471035], [-85.972749192, 34.655236998], [-85.973648946, 34.653563332], [-85.974775224, 34.652199959], [-85.975417521, 34.651009859], [-85.977470024, 34.648942289], [-85.978908263, 34.648665679], [-85.979862852, 34.649137659], [-85.981188624, 34.650581395], [-85.982099913, 34.650689289], [-85.983088278, 34.650742695], [-85.984813735, 34.650947986], [-85.98544714, 34.650562043], [-85.986326634, 34.649938067], [-85.988032301, 34.648900451], [-85.988558698, 34.648260854], [-85.988981691, 34.64747961], [-85.990206903, 34.645631523], [-85.989690257, 34.644581961], [-85.989445457, 34.643056347], [-85.986687085, 34.642165941], [-85.985783627, 34.641540362], [-85.985004683, 34.641153068], [-85.986167965, 34.639980329], [-85.987665695, 34.639822534], [-85.988896021, 34.639249782], [-85.989826085, 34.638375155], [-85.990971869, 34.63741581], [-85.991405468, 34.636572249], [-85.992962713, 34.635696721], [-85.99303395, 34.63333429], [-85.994371851, 34.632869775], [-85.995567027, 34.63268589], [-85.995976112, 34.631890782], [-85.996841632, 34.631092744], [-85.996874479, 34.630081977], [-85.998020595, 34.629118386], [-85.998044004, 34.628359678], [-85.99951733, 34.627609622], [-86.000274072, 34.627409108], [-86.001809214, 34.626122772], [-86.003172184, 34.624206316], [-86.004300866, 34.623974498], [-86.006179399, 34.6237944], [-86.006758218, 34.623127622], [-86.007132522, 34.622599224], [-86.009007514, 34.621108072], [-86.010896865, 34.619146102], [-86.012235571, 34.618392781], [-86.01349236, 34.617232043], [-86.013696771, 34.616834451], [-86.015469749, 34.616807421], [-86.015872074, 34.615402681], [-86.015383263, 34.615236427], [-86.013613648, 34.613839239], [-86.012436536, 34.613287293], [-86.012468951, 34.609581292], [-86.012559268, 34.609184446], [-86.01258362, 34.608377345], [-86.012829583, 34.607319528], [-86.012864285, 34.606112931], [-86.013251039, 34.604928112], [-86.013661705, 34.604577717], [-86.014503536, 34.604378107], [-86.017238876, 34.602779429], [-86.019633341, 34.602211419], [-86.022233928, 34.600691693], [-86.023859115, 34.599962822], [-86.024624606, 34.599311968], [-86.025698828, 34.600137365], [-86.026506493, 34.601201206], [-86.029151208, 34.600839893], [-86.029492105, 34.599847083], [-86.030109236, 34.599261455], [-86.031364892, 34.598705233], [-86.032425982, 34.597670847], [-86.034150383, 34.597635196], [-86.03483082, 34.596679878], [-86.034908826, 34.59413468], [-86.035566714, 34.593373401], [-86.038286623, 34.593108955], [-86.041140744, 34.59240709], [-86.044574827, 34.592928506], [-86.045293541, 34.59472213], [-86.045989981, 34.595325365]]]}, "properties": {"arm": "62", "name": "Roseberry Creek", "comid": 19647498, "kind": "atMouth"}}