{"type": "Feature", "geometry": {"type": "Polygon", "coordinates": [[[-86.161727535, 34.43659572], [-86.162629707, 34.435822894], [-86.164023342, 34.435289781], [-86.164865767, 34.43508718], [-86.165441961, 34.433403754], [-86.167027848, 34.432983828], [-86.170736668, 34.43291851], [-86.172572372, 34.434230799], [-86.174106049, 34.434261539], [-86.175559473, 34.434841799], [-86.177264986, 34.436183024], [-86.177875969, 34.436194665], [-86.179539922, 34.438147662], [-86.17975776, 34.439076431], [-86.181550959, 34.442066556], [-86.185005882, 34.442131007], [-86.186436075, 34.442346694], [-86.188615727, 34.444901514], [-86.190562649, 34.445363091], [-86.191643253, 34.445869481], [-86.191297728, 34.447266903], [-86.190733243, 34.448129557], [-86.189486791, 34.447870452], [-86.187426786, 34.448155811], [-86.185800604, 34.449603063], [-86.187395681, 34.451796604], [-86.186711321, 34.453255998], [-86.185023834, 34.453903634], [-86.183548789, 34.453429184], [-86.182021598, 34.452490925], [-86.180149488, 34.452659292], [-86.178600749, 34.456055887], [-86.178073296, 34.456321055], [-86.177843075, 34.456992765], [-86.177031646, 34.458270681], [-86.175837133, 34.458435178], [-86.174394077, 34.459800844], [-86.172543071, 34.460735821], [-86.173107652, 34.463042549], [-86.172998857, 34.46338947], [-86.174298896, 34.465178903], [-86.172982633, 34.466258157], [-86.172589994, 34.467067839], [-86.171475203, 34.467335977], [-86.170584108, 34.46836478], [-86.170132596, 34.468174857], [-86.16836432, 34.467605887], [-86.167514144, 34.466486635], [-86.168476355, 34.465630344], [-86.168009458, 34.463470935], [-86.166773488, 34.463067093], [-86.165611055, 34.46237023], [-86.164290545, 34.461777976], [-86.163542905, 34.461295325], [-86.161813463, 34.460565155], [-86.159157029, 34.460658346], [-86.15749003, 34.460310601], [-86.156503359, 34.460547305], [-86.155348369, 34.460988894], [-86.153774224, 34.460541492], [-86.153359163, 34.458546524], [-86.152561007, 34.458055296], [-86.15140974, 34.457839682], [-86.151282855, 34.457679306], [-86.150561418, 34.457356829], [-86.150128598, 34.456190609], [-86.148520273, 34.453398992], [-86.146881258, 34.452448645], [-86.146519843, 34.449994553], [-86.146965516, 34.44842657], [-86.146939156, 34.447336947], [-86.147964082, 34.445948755], [-86.149502031, 34.445988591], [-86.149961881, 34.445848469], [-86.151140916, 34.445419518], [-86.151882764, 34.442359351], [-86.153344339, 34.44082902], [-86.154220756, 34.439590452], [-86.156090043, 34.438145233], [-86.160141108, 34.437323206], [-86.161366276, 34.436834852], [-86.161400278, 34.436567994], [-86.161727535, 34.43659572]]]}, "properties": {"arm": "67", "name": "Minky Creek", "comid": 19648888, "kind": "aboveHead"}}