{"type": "Feature", "geometry": {"type": "Polygon", "coordinates": [[[-86.199178818, 34.416435014], [-86.199690433, 34.417472847], [-86.199923352, 34.418386], [-86.20043499, 34.419423826], [-86.200667924, 34.420336975], [-86.20183774, 34.423335318], [-86.204188021, 34.423912939], [-86.207240502, 34.427225949], [-86.207014663, 34.427600959], [-86.206473451, 34.429464481], [-86.203834975, 34.429568543], [-86.203638028, 34.430428545], [-86.203611578, 34.431431472], [-86.202157977, 34.432257095], [-86.204133322, 34.434672177], [-86.203397672, 34.436702608], [-86.202402542, 34.436683979], [-86.201375501, 34.436529894], [-86.200189217, 34.436775381], [-86.198548727, 34.436527356], [-86.197433316, 34.436825156], [-86.196824376, 34.437530257], [-86.196373385, 34.438619564], [-86.193792119, 34.43902327], [-86.193131189, 34.439791396], [-86.193805785, 34.441072672], [-86.191967524, 34.442116466], [-86.192196499, 34.443345364], [-86.193078852, 34.444618895], [-86.191835319, 34.445761373], [-86.191643253, 34.445869481], [-86.191297728, 34.447266903], [-86.190733243, 34.448129557], [-86.189486791, 34.447870452], [-86.187426786, 34.448155811], [-86.185800604, 34.449603063], [-86.187395681, 34.451796604], [-86.186711321, 34.453255998], [-86.185023834, 34.453903634], [-86.183548789, 34.453429184], [-86.182021598, 34.452490925], [-86.180149488, 34.452659292], [-86.178600749, 34.456055887], [-86.178073296, 34.456321055], [-86.177843075, 34.456992765], [-86.177031646, 34.458270681], [-86.175837133, 34.458435178], [-86.174394077, 34.459800844], [-86.172543071, 34.460735821], [-86.173107652, 34.463042549], [-86.172998857, 34.46338947], [-86.174298896, 34.465178903], [-86.172982633, 34.466258157], [-86.172589994, 34.467067839], [-86.171475203, 34.467335977], [-86.170584108, 34.46836478], [-86.170132596, 34.468174857], [-86.16836432, 34.467605887], [-86.167514144, 34.466486635], [-86.168476355, 34.465630344], [-86.168009458, 34.463470935], [-86.166773488, 34.463067093], [-86.165611055, 34.46237023], [-86.164290545, 34.461777976], [-86.163542905, 34.461295325], [-86.161813463, 34.460565155], [-86.159157029, 34.460658346], [-86.15749003, 34.460310601], [-86.156503359, 34.460547305], [-86.155348369, 34.460988894], [-86.153774224, 34.460541492], [-86.153359163, 34.458546524], [-86.152561007, 34.458055296], [-86.15140974, 34.457839682], [-86.151282855, 34.457679306], [-86.150561418, 34.457356829], [-86.150128598, 34.456190609], [-86.148520273, 34.453398992], [-86.146881258, 34.452448645], [-86.146519843, 34.449994553], [-86.146965516, 34.44842657], [-86.146939156, 34.447336947], [-86.147964082, 34.445948755], [-86.149502031, 34.445988591], [-86.149961881, 34.445848469], [-86.151140916, 34.445419518], [-86.151882764, 34.442359351], [-86.153344339, 34.44082902], [-86.154220756, 34.439590452], [-86.156090043, 34.438145233], [-86.160141108, 34.437323206], [-86.161366276, 34.436834852], [-86.161400278, 34.436567994], [-86.161727535, 34.43659572], [-86.162629707, 34.435822894], [-86.164023342, 34.435289781], [-86.164865767, 34.43508718], [-86.165441961, 34.433403754], [-86.165507595, 34.431894139], [-86.165182627, 34.430671755], [-86.165702778, 34.429752756], [-86.169056311, 34.427402562], [-86.169236512, 34.4269816], [-86.17177368, 34.426821282], [-86.173761378, 34.426409998], [-86.174799897, 34.426249217], [-86.175930559, 34.426014038], [-86.176798491, 34.425345692], [-86.177587356, 34.42513637], [-86.178496436, 34.424184898], [-86.178570377, 34.419641426], [-86.178898168, 34.418628131], [-86.183064838, 34.418837229], [-86.185099196, 34.417934494], [-86.186541953, 34.417519089], [-86.187999719, 34.416476954], [-86.19263949, 34.416418034], [-86.196338233, 34.415529269], [-86.198518891, 34.415161282], [-86.198930644, 34.415866166], [-86.199178818, 34.416435014]]]}, "properties": {"arm": "67", "name": "Minky Creek", "comid": 19650232, "kind": "atMouth"}}