{"type": "Feature", "geometry": {"type": "Polygon", "coordinates": [[[-85.95776339, 34.680929283], [-85.958356654, 34.681271215], [-85.962260513, 34.681877339], [-85.965710851, 34.683495765], [-85.966321305, 34.683845453], [-85.966670207, 34.683854427], [-85.967596898, 34.684225017], [-85.969226351, 34.684675067], [-85.9718667, 34.684571516], [-85.973044383, 34.684548546], [-85.973009621, 34.684815274], [-85.972497742, 34.686593937], [-85.97147434, 34.688098889], [-85.969691666, 34.689698623], [-85.971427188, 34.692538865], [-85.971447305, 34.69337925], [-85.968200004, 34.693481139], [-85.967890092, 34.69456494], [-85.968619446, 34.695873066], [-85.967903479, 34.695973684], [-85.966574605, 34.697353262], [-85.965214845, 34.698492057], [-85.964352295, 34.701405749], [-85.964341561, 34.701786222], [-85.965822508, 34.702482673], [-85.967881602, 34.702525081], [-85.968080813, 34.704676775], [-85.966625165, 34.706350978], [-85.970231672, 34.708650532], [-85.972134916, 34.710148109], [-85.972668162, 34.710773445], [-85.973793961, 34.711489785], [-85.974129192, 34.711883153], [-85.972761816, 34.714631214], [-85.971350584, 34.715367404], [-85.970378989, 34.716432189], [-85.969697296, 34.718794612], [-85.968651402, 34.719652815], [-85.968453756, 34.719755913], [-85.968001272, 34.719565261], [-85.965035211, 34.71907397], [-85.964058877, 34.718345136], [-85.961448031, 34.718432184], [-85.959500801, 34.717609157], [-85.958213229, 34.717913353], [-85.956533744, 34.718794842], [-85.955396638, 34.717291395], [-85.953716168, 34.716750431], [-85.953139677, 34.716397313], [-85.951907948, 34.715857067], [-85.95135712, 34.715128969], [-85.950845916, 34.714733001], [-85.950745365, 34.714311327], [-85.950289518, 34.712797004], [-85.951236789, 34.711205578], [-85.950619821, 34.70999133], [-85.953723241, 34.708176978], [-85.951684206, 34.705497867], [-85.951355398, 34.704401173], [-85.950963575, 34.70277435], [-85.949459238, 34.702476051], [-85.949793509, 34.701982292], [-85.950341834, 34.700664111], [-85.950167399, 34.699418462], [-85.951001693, 34.698293514], [-85.950747966, 34.697972411], [-85.949680378, 34.697111212], [-85.95032345, 34.695405042], [-85.9509957, 34.694666489], [-85.951361562, 34.694129091], [-85.952136774, 34.693277192], [-85.951606507, 34.692531871], [-85.950278591, 34.692175023], [-85.950992456, 34.69074046], [-85.949612473, 34.689631044], [-85.948378288, 34.689648911], [-85.945375339, 34.686869562], [-85.944552316, 34.686678424], [-85.945040259, 34.685266532], [-85.946308273, 34.684632095], [-85.947073448, 34.683062893], [-85.948784355, 34.682829092], [-85.9497303, 34.681404013], [-85.950964353, 34.683033996], [-85.952751861, 34.68284889], [-85.954276427, 34.682274427], [-85.954602799, 34.681999125], [-85.956403872, 34.681848851], [-85.956946071, 34.680734506], [-85.95776339, 34.680929283]]]}, "properties": {"arm": "68", "name": "Town Creek", "comid": 19645450, "kind": "aboveHead"}}