{"type": "Feature", "geometry": {"type": "Polygon", "coordinates": [[[-85.965710851, 34.683495765], [-85.966321305, 34.683845453], [-85.966670207, 34.683854427], [-85.967596898, 34.684225017], [-85.969226351, 34.684675067], [-85.9718667, 34.684571516], [-85.973044383, 34.684548546], [-85.973009621, 34.684815274], [-85.972497742, 34.686593937], [-85.97147434, 34.688098889], [-85.969691666, 34.689698623], [-85.971427188, 34.692538865], [-85.971447305, 34.69337925], [-85.968200004, 34.693481139], [-85.967890092, 34.69456494], [-85.968619446, 34.695873066], [-85.967903479, 34.695973684], [-85.966574605, 34.697353262], [-85.965214845, 34.698492057], [-85.964352295, 34.701405749], [-85.964341561, 34.701786222], [-85.965822508, 34.702482673], [-85.967881602, 34.702525081], [-85.968080813, 34.704676775], [-85.966625165, 34.706350978], [-85.970231672, 34.708650532], [-85.972134916, 34.710148109], [-85.972668162, 34.710773445], [-85.973793961, 34.711489785], [-85.974129192, 34.711883153], [-85.972761816, 34.714631214], [-85.971350584, 34.715367404], [-85.970378989, 34.716432189], [-85.969697296, 34.718794612], [-85.968651402, 34.719652815], [-85.968453756, 34.719755913], [-85.968220927, 34.720427011], [-85.967710163, 34.72143872], [-85.967724503, 34.721726521], [-85.967283865, 34.722200628], [-85.966489764, 34.723514551], [-85.966055055, 34.723982843], [-85.964386466, 34.726529998], [-85.963160587, 34.727612877], [-85.961824786, 34.727331407], [-85.960581922, 34.727609989], [-85.958547284, 34.72952081], [-85.956403712, 34.732085958], [-85.955044192, 34.73343539], [-85.954247917, 34.734445629], [-85.954561382, 34.734727597], [-85.954761474, 34.736790842], [-85.955092762, 34.737889793], [-85.957430915, 34.740670283], [-85.958957136, 34.740369765], [-85.959839912, 34.740862982], [-85.959880763, 34.743928093], [-85.962403869, 34.746189164], [-85.962769912, 34.748593227], [-85.963693231, 34.749949571], [-85.964574761, 34.751546724], [-85.963565231, 34.754666783], [-85.963734795, 34.754799369], [-85.964759762, 34.756809189], [-85.965616715, 34.758197711], [-85.966107575, 34.75956737], [-85.967139918, 34.76036835], [-85.967820393, 34.759649387], [-85.968511563, 34.758729067], [-85.969486304, 34.757803632], [-85.970865716, 34.755964825], [-85.97204276, 34.754542653], [-85.972619779, 34.752805504], [-85.975199094, 34.748749971], [-85.978438707, 34.746375657], [-85.979411833, 34.745241416], [-85.981338289, 34.744159577], [-85.983044387, 34.742856507], [-85.984589893, 34.741012864], [-85.988408197, 34.738892392], [-85.990348418, 34.737562975], [-85.995831731, 34.735186978], [-85.997854997, 34.734593602], [-86.00041398, 34.733152767], [-86.003364214, 34.73219422], [-86.004465251, 34.732825901], [-86.005677587, 34.734617529], [-86.007280866, 34.735597739], [-86.008586905, 34.736569309], [-86.010187848, 34.737488167], [-86.011608828, 34.737755278], [-86.012627806, 34.738700096], [-86.013384828, 34.740463147], [-86.013059095, 34.74590702], [-86.013957079, 34.747724257], [-86.013242523, 34.751706292], [-86.013385865, 34.752201055], [-86.013965767, 34.752431906], [-86.01513568, 34.75245622], [-86.019975232, 34.750542291], [-86.023902714, 34.751874878], [-86.025831422, 34.753531527], [-86.026588341, 34.755418724], [-86.028742099, 34.755461708], [-86.030467856, 34.755723003], [-86.032130232, 34.758094165], [-86.03243933, 34.760193746], [-86.032355136, 34.762183867], [-86.035983576, 34.762645558], [-86.038425558, 34.764050818], [-86.038606621, 34.764175836], [-86.040624622, 34.764767408], [-86.041770085, 34.765522533], [-86.042524609, 34.765749167], [-86.042665961, 34.765900284], [-86.045268038, 34.768315571], [-86.045730456, 34.770156363], [-86.046958333, 34.772380583], [-86.051240331, 34.774174225], [-86.052547377, 34.774886111], [-86.053581994, 34.776539664], [-86.05430419, 34.777618807], [-86.055170928, 34.778423741], [-86.055347358, 34.779146656], [-86.057377273, 34.78245874], [-86.060466551, 34.784226163], [-86.060249241, 34.788113569], [-86.058505987, 34.790590075], [-86.057527261, 34.792234223], [-86.057113363, 34.793024802], [-86.056922543, 34.793134949], [-86.057003342, 34.793915008], [-86.05805928, 34.796048504], [-86.058750265, 34.797651599], [-86.060317004, 34.802862239], [-86.063774131, 34.803438899], [-86.064883562, 34.803053012], [-86.066417966, 34.803537538], [-86.06612192, 34.804822707], [-86.066253332, 34.805794544], [-86.067409557, 34.806010916], [-86.068177235, 34.806480724], [-86.069854501, 34.806423294], [-86.070858269, 34.805569104], [-86.072079949, 34.805279073], [-86.073263236, 34.805527181], [-86.075197128, 34.805091234], [-86.077944719, 34.804949842], [-86.079947242, 34.803841307], [-86.081624929, 34.803699483], [-86.082119972, 34.803907975], [-86.08350583, 34.804236392], [-86.085957454, 34.806266905], [-86.087617264, 34.807551777], [-86.088492686, 34.808576208], [-86.089054251, 34.810966464], [-86.089690697, 34.812172823], [-86.090455196, 34.812829685], [-86.090588214, 34.812986333], [-86.091156829, 34.813833009], [-86.092963831, 34.815086028], [-86.093532488, 34.81593269], [-86.0936226, 34.816361658], [-86.09399168, 34.817003893], [-86.095348317, 34.816956792], [-86.096822869, 34.818895665], [-86.0980181, 34.819818617], [-86.098360384, 34.820850383], [-86.098530308, 34.822876581], [-86.098065718, 34.82450559], [-86.099308712, 34.825502082], [-86.100266163, 34.827142129], [-86.101988492, 34.827705247], [-86.102646284, 34.827761008], [-86.102474393, 34.829094635], [-86.102256662, 34.829232064], [-86.100448187, 34.831029423], [-86.098433229, 34.834709364], [-86.096097235, 34.836183868], [-86.097215979, 34.83768171], [-86.095282716, 34.839255657], [-86.094497666, 34.840688935], [-86.093881495, 34.841578297], [-86.094042958, 34.841716279], [-86.094938799, 34.842988783], [-86.095958242, 34.843867301], [-86.098449948, 34.844712649], [-86.10030872, 34.847444399], [-86.100113733, 34.848291545], [-86.101662885, 34.850866403], [-86.101396823, 34.851640116], [-86.09987162, 34.852989618], [-86.099605133, 34.853927599], [-86.099766632, 34.854065572], [-86.100073474, 34.854426514], [-86.099799632, 34.855622971], [-86.101342386, 34.857845474], [-86.10109941, 34.85890341], [-86.099313763, 34.859611527], [-86.099599048, 34.860522541], [-86.099693274, 34.862169379], [-86.099785985, 34.86284078], [-86.10053968, 34.863464978], [-86.100563536, 34.866302326], [-86.102526144, 34.867387041], [-86.102794254, 34.868532504], [-86.103385579, 34.869650576], [-86.102777096, 34.871406377], [-86.100814728, 34.874107021], [-86.100405438, 34.874902289], [-86.099950095, 34.875651523], [-86.099386003, 34.877404748], [-86.096437479, 34.879667876], [-86.095554867, 34.880585207], [-86.094778617, 34.881020744], [-86.094163985, 34.882036615], [-86.095755403, 34.882575956], [-86.0970386, 34.883308223], [-86.096765416, 34.884498386], [-86.097273013, 34.885459815], [-86.096473228, 34.886782289], [-86.096440451, 34.887902246], [-86.095956856, 34.889997192], [-86.094457646, 34.891239311], [-86.093441785, 34.891395441], [-86.092446305, 34.892541212], [-86.091721998, 34.894546224], [-86.089702369, 34.895247047], [-86.085878998, 34.895238738], [-86.084634716, 34.896980536], [-86.08437941, 34.897125285], [-86.082830317, 34.896658921], [-86.080636104, 34.895189874], [-86.080523634, 34.894531537], [-86.080513835, 34.893561731], [-86.082066948, 34.892166361], [-86.082571397, 34.889691942], [-86.082622628, 34.88875259], [-86.082721113, 34.888272247], [-86.082187915, 34.884252069], [-86.081330932, 34.882576292], [-86.082226907, 34.881516947], [-86.081986275, 34.879758667], [-86.080992174, 34.878359826], [-86.079566481, 34.877444634], [-86.079352303, 34.874999752], [-86.080853965, 34.874120339], [-86.080258771, 34.873054468], [-86.079268477, 34.872169906], [-86.078059009, 34.870809605], [-86.07697251, 34.87076999], [-86.076154954, 34.870660522], [-86.075448529, 34.870636325], [-86.073744476, 34.868719957], [-86.073698291, 34.866826467], [-86.075006898, 34.865389345], [-86.07568153, 34.864031064], [-86.074890781, 34.863574172], [-86.074635994, 34.863253394], [-86.073751538, 34.862858047], [-86.073311238, 34.861680988], [-86.070959411, 34.860274048], [-86.067849426, 34.860388837], [-86.065916215, 34.861972899], [-86.062314131, 34.861411616], [-86.062057387, 34.859681335], [-86.062415956, 34.858437358], [-86.061507331, 34.856744297], [-86.060913165, 34.8559143], [-86.060692996, 34.855326784], [-86.060393308, 34.854791485], [-86.059947765, 34.853375852], [-86.059527762, 34.852625968], [-86.05988427, 34.852441436], [-86.059759766, 34.852279164], [-86.058637409, 34.851796022], [-86.058437245, 34.851896954], [-86.057613949, 34.852595786], [-86.056195741, 34.852932187], [-86.054598435, 34.854289776], [-86.053651535, 34.854337648], [-86.052721222, 34.853114527], [-86.050979613, 34.852557501], [-86.0494298, 34.850521079], [-86.048327075, 34.849666628], [-86.047671915, 34.847845435], [-86.046486391, 34.847329393], [-86.045990025, 34.845947258], [-86.045307563, 34.845419304], [-86.044997692, 34.844562868], [-86.042984231, 34.844260602], [-86.042468026, 34.847058474], [-86.041621719, 34.848454653], [-86.041801998, 34.849428552], [-86.04214854, 34.850543026], [-86.03943597, 34.853044047], [-86.03831023, 34.854850344], [-86.037741969, 34.855284299], [-86.036299153, 34.855949115], [-86.034479705, 34.8568725], [-86.033560627, 34.856545496], [-86.03292212, 34.856179226], [-86.030941111, 34.856865467], [-86.030326819, 34.856773009], [-86.028862823, 34.857159959], [-86.02825261, 34.858856398], [-86.028224006, 34.859776675], [-86.027237465, 34.860528795], [-86.024468999, 34.860633677], [-86.023604459, 34.86230627], [-86.021779069, 34.863852544], [-86.021097824, 34.864234644], [-86.020725082, 34.863503386], [-86.019184733, 34.862457486], [-86.018715723, 34.860847933], [-86.017807556, 34.859497888], [-86.014844939, 34.857519278], [-86.012847557, 34.856971408], [-86.011245259, 34.857681287], [-86.01010751, 34.858755312], [-86.008532359, 34.85771891], [-86.007498019, 34.857299671], [-86.006832599, 34.856861425], [-86.003832819, 34.855789427], [-86.003058104, 34.856110758], [-86.002519679, 34.856174222], [-86.002054803, 34.855333871], [-86.001030613, 34.854418247], [-85.999815799, 34.853928706], [-85.997291869, 34.854251901], [-85.994779152, 34.854289486], [-85.992191805, 34.853484239], [-85.990614888, 34.852603309], [-85.98910245, 34.853280571], [-85.98653196, 34.853382548], [-85.984781718, 34.853969846], [-85.983477471, 34.8530511], [-85.981769946, 34.852036647], [-85.980551395, 34.850322523], [-85.97867652, 34.850252249], [-85.977695936, 34.850119646], [-85.976927782, 34.850091645], [-85.976377517, 34.851380131], [-85.976151611, 34.851756821], [-85.975163573, 34.850905137], [-85.974543208, 34.848989464], [-85.974099266, 34.848468892], [-85.970837182, 34.845730129], [-85.967288288, 34.841449679], [-85.966536528, 34.841336629], [-85.964660368, 34.841297603], [-85.962772074, 34.840775034], [-85.961678176, 34.840337582], [-85.960495469, 34.84057932], [-85.956770369, 34.84051181], [-85.955197699, 34.841708079], [-85.953896882, 34.841680448], [-85.953059545, 34.841288161], [-85.95303828, 34.839107815], [-85.95261799, 34.838407982], [-85.951761705, 34.838835737], [-85.950927635, 34.839728913], [-85.950152008, 34.843351316], [-85.949277597, 34.844710845], [-85.948598646, 34.846403224], [-85.946991634, 34.847244592], [-85.946098561, 34.847555374], [-85.943895109, 34.847593195], [-85.94300588, 34.848072836], [-85.941194499, 34.849501209], [-85.937589391, 34.850397885], [-85.936728262, 34.85052384], [-85.931811825, 34.850757438], [-85.930896755, 34.85044257], [-85.929965869, 34.849218249], [-85.927790303, 34.848211036], [-85.925359867, 34.848334279], [-85.923202207, 34.849151015], [-85.921933638, 34.849193244], [-85.920638744, 34.84892136], [-85.919135348, 34.848970681], [-85.917612755, 34.848651716], [-85.914253678, 34.848879962], [-85.913374635, 34.848509065], [-85.913855906, 34.845973823], [-85.914615241, 34.843517373], [-85.914595555, 34.842599143], [-85.915713707, 34.840991178], [-85.91509189, 34.839098087], [-85.914811157, 34.83757578], [-85.914040618, 34.837349091], [-85.91320185, 34.837167071], [-85.910846149, 34.836763374], [-85.908780067, 34.835579788], [-85.907457565, 34.835322201], [-85.906880037, 34.834694958], [-85.90156193, 34.829770321], [-85.898353034, 34.827539487], [-85.896425216, 34.826947034], [-85.894249895, 34.82632048], [-85.889963275, 34.824798866], [-85.888662074, 34.823986621], [-85.888520918, 34.823835328], [-85.885036833, 34.820956526], [-85.884628252, 34.81693872], [-85.883253528, 34.815443641], [-85.882188989, 34.815064801], [-85.880806658, 34.814791148], [-85.880597844, 34.813182175], [-85.880407084, 34.811199697], [-85.878878752, 34.809472082], [-85.877777538, 34.809431365], [-85.876879283, 34.809309207], [-85.875257291, 34.810066148], [-85.874503926, 34.810618181], [-85.872571969, 34.809253701], [-85.872156095, 34.809196542], [-85.871220354, 34.809161693], [-85.870545588, 34.808782845], [-85.866389964, 34.807617159], [-85.86458821, 34.807334269], [-85.864658594, 34.806800948], [-85.864001155, 34.80674385], [-85.864071542, 34.806210529], [-85.865021087, 34.805353198], [-85.867771068, 34.800692825], [-85.869355376, 34.800181365], [-85.87028568, 34.800689879], [-85.871338613, 34.800229196], [-85.872404194, 34.799790675], [-85.873451416, 34.799333694], [-85.875779486, 34.798380976], [-85.877735693, 34.796997706], [-85.879110309, 34.796164505], [-85.880382062, 34.79463333], [-85.881054953, 34.793389463], [-85.878852598, 34.791339935], [-85.879469422, 34.790285068], [-85.879039727, 34.789348036], [-85.879093187, 34.788094692], [-85.880109466, 34.786648822], [-85.879420654, 34.78600328], [-85.877026782, 34.784817869], [-85.874361668, 34.782420403], [-85.872841714, 34.781422414], [-85.872923751, 34.780445472], [-85.873948803, 34.779209017], [-85.873679879, 34.777506231], [-85.873458569, 34.776309089], [-85.873819991, 34.77431543], [-85.874077514, 34.770667009], [-85.874112657, 34.770400335], [-85.874094103, 34.769437829], [-85.872695398, 34.768349181], [-85.872646979, 34.767396722], [-85.873303814, 34.765761641], [-85.874821434, 34.763602827], [-85.874858029, 34.760980382], [-85.874363167, 34.75951503], [-85.874326691, 34.757545798], [-85.87384472, 34.756199561], [-85.873047612, 34.75509779], [-85.872900627, 34.7543812], [-85.872216007, 34.754159488], [-85.873026887, 34.751610574], [-85.872208581, 34.75143836], [-85.870213076, 34.753186871], [-85.869365977, 34.75409949], [-85.868266503, 34.754248419], [-85.867255091, 34.752961503], [-85.86690934, 34.751350999], [-85.865276752, 34.750602227], [-85.863672544, 34.750169882], [-85.864250297, 34.748209741], [-85.865203696, 34.747238959], [-85.865578781, 34.747012361], [-85.866191386, 34.746578815], [-85.867513591, 34.744818222], [-85.86891551, 34.743338491], [-85.875851771, 34.738322921], [-85.878608228, 34.736191539], [-85.883288704, 34.732216717], [-85.884680499, 34.732071965], [-85.885187257, 34.731711333], [-85.885518018, 34.730439834], [-85.887895016, 34.728427064], [-85.890281291, 34.727171572], [-85.890298196, 34.726648324], [-85.892467414, 34.724398297], [-85.892530844, 34.722494595], [-85.893425372, 34.721670235], [-85.894286531, 34.720467878], [-85.895215246, 34.719758156], [-85.896925609, 34.719082462], [-85.898814168, 34.717642492], [-85.899007319, 34.717534901], [-85.900516256, 34.715764882], [-85.903475384, 34.712670665], [-85.90391509, 34.712068139], [-85.907189081, 34.709300348], [-85.907628738, 34.708697806], [-85.90913618, 34.707292122], [-85.909377781, 34.706834687], [-85.910805857, 34.707160621], [-85.911729953, 34.707729503], [-85.91314151, 34.708102443], [-85.913652315, 34.708776724], [-85.914883663, 34.709317377], [-85.916051221, 34.71026552], [-85.916861521, 34.710238689], [-85.917504181, 34.709274372], [-85.918674181, 34.708324058], [-85.920142253, 34.708305634], [-85.920652793, 34.707260337], [-85.922321868, 34.70687575], [-85.922356815, 34.706609044], [-85.922169345, 34.706000694], [-85.922462931, 34.704730118], [-85.922518063, 34.703002717], [-85.923482937, 34.70302293], [-85.926301531, 34.703782877], [-85.926990731, 34.702818324], [-85.92818895, 34.702502542], [-85.929462896, 34.701786592], [-85.930128861, 34.699374442], [-85.931699986, 34.700112865], [-85.933104053, 34.700919017], [-85.933893981, 34.700591089], [-85.936973835, 34.697767865], [-85.937542023, 34.697132076], [-85.938500871, 34.696285575], [-85.938866828, 34.695748217], [-85.940326756, 34.694441335], [-85.940961611, 34.692422615], [-85.942015921, 34.692273398], [-85.94446758, 34.690997281], [-85.944256814, 34.689752679], [-85.943450379, 34.688621029], [-85.943231582, 34.688033188], [-85.942693865, 34.687068015], [-85.944026484, 34.686753156], [-85.944552316, 34.686678424], [-85.945040259, 34.685266532], [-85.946308273, 34.684632095], [-85.947073448, 34.683062893], [-85.948784355, 34.682829092], [-85.9497303, 34.681404013], [-85.950964353, 34.683033996], [-85.952751861, 34.68284889], [-85.954276427, 34.682274427], [-85.954602799, 34.681999125], [-85.956403872, 34.681848851], [-85.956946071, 34.680734506], [-85.95776339, 34.680929283], [-85.958356654, 34.681271215], [-85.962260513, 34.681877339], [-85.965710851, 34.683495765]]]}, "properties": {"arm": "68", "name": "Town Creek", "comid": 19646590, "kind": "atMouth"}}