{"type": "Feature", "geometry": {"type": "Polygon", "coordinates": [[[-85.847223965, 34.717351736], [-85.848455479, 34.718419977], [-85.848901522, 34.719542027], [-85.850689285, 34.720681859], [-85.85369673, 34.721152312], [-85.853829863, 34.723309215], [-85.852684325, 34.723928117], [-85.852670197, 34.726099593], [-85.8520702, 34.727067333], [-85.851663709, 34.727866467], [-85.850615885, 34.7280197], [-85.847565535, 34.728776167], [-85.846163145, 34.729275705], [-85.845115291, 34.729428889], [-85.843727784, 34.730070891], [-85.843324712, 34.730646917], [-85.842014378, 34.730979516], [-85.840708849, 34.7328467], [-85.839918844, 34.733561803], [-85.839351874, 34.7341994], [-85.83792769, 34.734391378], [-85.836583651, 34.735037094], [-85.83536097, 34.734804056], [-85.834261237, 34.733405795], [-85.831953962, 34.7346039], [-85.831229416, 34.735196109], [-85.829559553, 34.735832297], [-85.829718944, 34.737825055], [-85.831044814, 34.739514931], [-85.831523718, 34.741761032], [-85.830870933, 34.742673499], [-85.829055667, 34.743524606], [-85.828644656, 34.743001945], [-85.827253707, 34.743019686], [-85.826278113, 34.741781816], [-85.824955434, 34.741185908], [-85.823129101, 34.739591363], [-85.821756385, 34.739138563], [-85.821791694, 34.738871896], [-85.82146328, 34.738843226], [-85.820692067, 34.737650531], [-85.820145548, 34.737269839], [-85.819920654, 34.736929873], [-85.819740009, 34.736804514], [-85.820204568, 34.73472711], [-85.822547614, 34.734495438], [-85.822826214, 34.733567201], [-85.824030517, 34.733134932], [-85.824638351, 34.731464111], [-85.82662105, 34.731346325], [-85.827618591, 34.731142548], [-85.829128059, 34.730913883], [-85.829188075, 34.729106736], [-85.830760664, 34.728223937], [-85.832490036, 34.728058671], [-85.832008864, 34.726497252], [-85.83068977, 34.724875374], [-85.833425304, 34.722359581], [-85.83406494, 34.720602978], [-85.836053625, 34.720300125], [-85.836823076, 34.720034244], [-85.837647158, 34.718883787], [-85.838598713, 34.718633773], [-85.839994865, 34.717925154], [-85.841037994, 34.7177674], [-85.843864321, 34.717191811], [-85.846009227, 34.716451425], [-85.847223965, 34.717351736]]]}, "properties": {"arm": "69", "name": "Parton Branch", "comid": 19645396, "kind": "aboveHead"}}