{"type": "Feature", "geometry": {"type": "Polygon", "coordinates": [[[-85.848455479, 34.718419977], [-85.848901522, 34.719542027], [-85.850689285, 34.720681859], [-85.85369673, 34.721152312], [-85.853829863, 34.723309215], [-85.852684325, 34.723928117], [-85.852670197, 34.726099593], [-85.8520702, 34.727067333], [-85.851663709, 34.727866467], [-85.850615885, 34.7280197], [-85.847565535, 34.728776167], [-85.846163145, 34.729275705], [-85.845115291, 34.729428889], [-85.843727784, 34.730070891], [-85.843324712, 34.730646917], [-85.842014378, 34.730979516], [-85.840708849, 34.7328467], [-85.839918844, 34.733561803], [-85.839351874, 34.7341994], [-85.83792769, 34.734391378], [-85.836583651, 34.735037094], [-85.836318469, 34.73537434], [-85.835839442, 34.737309313], [-85.835309055, 34.7379838], [-85.835140049, 34.738417939], [-85.834953628, 34.738532344], [-85.834000936, 34.742105596], [-85.83276952, 34.745195123], [-85.833096712, 34.746332132], [-85.83028053, 34.746312039], [-85.826992151, 34.744956744], [-85.825035569, 34.743325594], [-85.823877532, 34.742779869], [-85.822333721, 34.740952869], [-85.82213964, 34.740105606], [-85.821756385, 34.739138563], [-85.82142797, 34.739109893], [-85.82146328, 34.738843226], [-85.820692067, 34.737650531], [-85.820145548, 34.737269839], [-85.819920654, 34.736929873], [-85.819740009, 34.736804514], [-85.820204568, 34.73472711], [-85.822547614, 34.734495438], [-85.822826214, 34.733567201], [-85.824030517, 34.733134932], [-85.824638351, 34.731464111], [-85.82662105, 34.731346325], [-85.827618591, 34.731142548], [-85.829128059, 34.730913883], [-85.829188075, 34.729106736], [-85.830760664, 34.728223937], [-85.832490036, 34.728058671], [-85.832008864, 34.726497252], [-85.83068977, 34.724875374], [-85.833425304, 34.722359581], [-85.83406494, 34.720602978], [-85.836053625, 34.720300125], [-85.836823076, 34.720034244], [-85.837647158, 34.718883787], [-85.838598713, 34.718633773], [-85.839994865, 34.717925154], [-85.841037994, 34.7177674], [-85.843864321, 34.717191811], [-85.846009227, 34.716451425], [-85.847223965, 34.717351736], [-85.848455479, 34.718419977]]]}, "properties": {"arm": "69", "name": "Parton Branch", "comid": 19646558, "kind": "atMouth"}}