{"type": "Feature", "geometry": {"type": "MultiPolygon", "coordinates": [[[[-85.903739754, 34.89283222], [-85.903953141, 34.893423729], [-85.904773996, 34.894556516], [-85.904969857, 34.894708276], [-85.905584464, 34.896499541], [-85.905997348, 34.898420852], [-85.906075823, 34.900077305], [-85.906172582, 34.90074511], [-85.907545123, 34.901796989], [-85.909568582, 34.903476006], [-85.912027536, 34.904158113], [-85.914666236, 34.905668911], [-85.915647112, 34.906002156], [-85.916536031, 34.906639268], [-85.917447207, 34.90706761], [-85.91975101, 34.907704549], [-85.921512949, 34.908823523], [-85.922213297, 34.909985771], [-85.922612346, 34.911699296], [-85.9246602, 34.912048597], [-85.925548954, 34.912034613], [-85.926011994, 34.911895445], [-85.927078094, 34.911778754], [-85.928100088, 34.912235512], [-85.92976133, 34.912597754], [-85.931314575, 34.911821438], [-85.932595029, 34.912171905], [-85.934017653, 34.911776164], [-85.934283669, 34.9120877], [-85.937624634, 34.912156263], [-85.939495554, 34.91290299], [-85.941282952, 34.91333491], [-85.945833823, 34.913062824], [-85.946800286, 34.914380499], [-85.946870995, 34.915309329], [-85.947003898, 34.915466124], [-85.946944819, 34.917325499], [-85.945427443, 34.919455512], [-85.945408453, 34.921385745], [-85.9455064, 34.921809193], [-85.945794168, 34.922352196], [-85.946249392, 34.923760713], [-85.946537172, 34.924303714], [-85.946944656, 34.925322589], [-85.949312304, 34.927363208], [-85.949952482, 34.928115559], [-85.951645269, 34.92851808], [-85.952107478, 34.928703166], [-85.953036175, 34.930430407], [-85.953110102, 34.931216233], [-85.953727212, 34.932343667], [-85.955847284, 34.933874085], [-85.957717222, 34.936063425], [-85.960433447, 34.937175154], [-85.961681016, 34.940284236], [-85.962812347, 34.941917092], [-85.96300762, 34.943267353], [-85.964103975, 34.94592311], [-85.96561619, 34.946436283], [-85.968132301, 34.948682926], [-85.968402295, 34.950536728], [-85.969808977, 34.95056469], [-85.9711543, 34.951101383], [-85.971286876, 34.952812774], [-85.97216756, 34.954335516], [-85.971383685, 34.955553323], [-85.971185059, 34.955957609], [-85.971493947, 34.957574566], [-85.972286802, 34.958893853], [-85.973017987, 34.959948734], [-85.971622269, 34.960730692], [-85.970701074, 34.962977368], [-85.972873612, 34.963717652], [-85.975072142, 34.965612407], [-85.974408809, 34.966067451], [-85.972424778, 34.966849555], [-85.972992228, 34.967763993], [-85.972444644, 34.96948235], [-85.973898294, 34.970367411], [-85.974579792, 34.972260619], [-85.974301524, 34.97313416], [-85.974517674, 34.9737699], [-85.975014369, 34.973932537], [-85.975903667, 34.975590747], [-85.976747064, 34.975968455], [-85.977331302, 34.976317635], [-85.978425559, 34.976807401], [-85.981356052, 34.976392726], [-85.982241817, 34.976068336], [-85.984013897, 34.977486075], [-85.987098436, 34.978202999], [-85.989231597, 34.977037381], [-85.990686299, 34.976382441], [-85.990852346, 34.976247085], [-85.991081483, 34.976445741], [-85.990631803, 34.978393695], [-85.99128021, 34.980484035], [-85.993348218, 34.983464646], [-85.993986834, 34.985052773], [-85.996893661, 34.98846943], [-85.997308034, 34.990240571], [-85.999227996, 34.991108228], [-85.999690894, 34.990214632], [-85.99986104, 34.990347133], [-86.000014329, 34.991546161], [-86.001163665, 34.992434288], [-86.00147689, 34.993305732], [-86.002423054, 34.99403535], [-86.003028569, 34.995719562], [-86.003449374, 34.996046195], [-86.003629018, 34.99690411], [-86.003988705, 34.997958554], [-86.006397317, 34.998994184], [-86.007371591, 35.000307518], [-86.007143096, 35.000681906], [-86.006529236, 35.00275275], [-86.005480048, 35.003549956], [-86.004479037, 35.003399173], [-86.00410919, 35.003679335], [-86.002814492, 35.003484496], [-86.002149043, 35.004413455], [-85.996008805, 35.00439643], [-85.993921793, 35.004944744], [-85.992391963, 35.005473259], [-85.990405397, 35.005172783], [-85.98962633, 35.005156707], [-85.988633738, 35.004762161], [-85.986603135, 35.00471905], [-85.982873916, 35.004145055], [-85.982972174, 35.004568436], [-85.983710523, 35.006767569], [-85.983872187, 35.007880969], [-85.984645461, 35.009813448], [-85.984670666, 35.011970491], [-85.982199408, 35.013861244], [-85.980819918, 35.015786423], [-85.980723041, 35.018895654], [-85.979982253, 35.021153535], [-85.979818393, 35.021291172], [-85.978757613, 35.021436291], [-85.978100205, 35.02168334], [-85.977003543, 35.021943333], [-85.975677583, 35.022442773], [-85.972105767, 35.023265924], [-85.970265751, 35.02498514], [-85.969632604, 35.025006728], [-85.969168563, 35.024811093], [-85.968307388, 35.024505594], [-85.966769116, 35.023324757], [-85.962351356, 35.023089294], [-85.957483986, 35.018675858], [-85.956527521, 35.0182041], [-85.955325209, 35.017283618], [-85.953309625, 35.016706197], [-85.952310259, 35.016085368], [-85.951910823, 35.016291223], [-85.950253651, 35.017646686], [-85.949702535, 35.018452505], [-85.949054721, 35.019161545], [-85.948602297, 35.02006852], [-85.947357085, 35.021082256], [-85.94616638, 35.021700425], [-85.945058026, 35.022603716], [-85.944442441, 35.022689871], [-85.944160575, 35.023289186], [-85.943333831, 35.024130285], [-85.943501112, 35.025652914], [-85.942211327, 35.025933923], [-85.94234973, 35.026982214], [-85.94274256, 35.027620527], [-85.9420182, 35.028276616], [-85.941364204, 35.028357352], [-85.941034355, 35.029361199], [-85.940991284, 35.030680381], [-85.941400131, 35.031989938], [-85.941526207, 35.03336999], [-85.941814364, 35.033912942], [-85.942270176, 35.035321315], [-85.944014994, 35.039391338], [-85.943219774, 35.042807147], [-85.943182346, 35.043964597], [-85.944551076, 35.044393894], [-85.945893666, 35.043375898], [-85.946460428, 35.044039644], [-85.946622052, 35.044177801], [-85.946828014, 35.045406695], [-85.945138974, 35.047673574], [-85.945309832, 35.04887207], [-85.944932321, 35.049425251], [-85.947600755, 35.050850791], [-85.949035286, 35.052010283], [-85.949292124, 35.054022904], [-85.950011639, 35.054000391], [-85.951297872, 35.05428559], [-85.952170309, 35.055738042], [-85.952132579, 35.056918613], [-85.951900277, 35.057913977], [-85.953658962, 35.060059612], [-85.95399609, 35.062355019], [-85.954707197, 35.064263318], [-85.95396715, 35.065295178], [-85.953126068, 35.065766491], [-85.954155727, 35.067769512], [-85.955294149, 35.06878552], [-85.95765387, 35.070504429], [-85.95839888, 35.071341332], [-85.959155774, 35.07182959], [-85.959670326, 35.071821032], [-85.962450119, 35.072345709], [-85.9633698, 35.072725715], [-85.964364423, 35.073051048], [-85.965904076, 35.073751646], [-85.967805458, 35.074257819], [-85.97034183, 35.074015807], [-85.973142041, 35.075340265], [-85.975058702, 35.075312614], [-85.975872561, 35.075466505], [-85.976875391, 35.075451202], [-85.978111654, 35.075683342], [-85.978867956, 35.075520554], [-85.979738623, 35.076713477], [-85.980358201, 35.078689527], [-85.980090291, 35.079620771], [-85.981774953, 35.080967531], [-85.982790131, 35.082709877], [-85.984953725, 35.084042758], [-85.986045672, 35.084024453], [-85.987858773, 35.085108263], [-85.989876972, 35.086856186], [-85.990999481, 35.087341734], [-85.991916199, 35.088782785], [-85.992086764, 35.090288583], [-85.99226567, 35.090415493], [-85.991901702, 35.091264823], [-85.991951133, 35.092202115], [-85.993407206, 35.093326928], [-85.993952467, 35.094041166], [-85.994143367, 35.096488067], [-85.99475949, 35.098295163], [-85.994835472, 35.099946616], [-85.992979622, 35.101378372], [-85.992780731, 35.101782636], [-85.992252104, 35.101857553], [-85.99158944, 35.102100051], [-85.990202146, 35.102221684], [-85.987874353, 35.103533024], [-85.986976755, 35.105330894], [-85.98737448, 35.106335846], [-85.987230743, 35.107035474], [-85.985384174, 35.108752261], [-85.986669973, 35.111259], [-85.986069176, 35.112262893], [-85.985877461, 35.112372888], [-85.983180366, 35.113275589], [-85.97830063, 35.116864553], [-85.976126918, 35.118009839], [-85.975174175, 35.121418397], [-85.973407737, 35.124209736], [-85.972681066, 35.126628722], [-85.97313007, 35.129489461], [-85.9735953, 35.129680895], [-85.97394013, 35.129676684], [-85.974362549, 35.129757037], [-85.974138631, 35.130529826], [-85.975444361, 35.132347504], [-85.977461825, 35.13231778], [-85.978583445, 35.133730026], [-85.978035773, 35.135420828], [-85.981709512, 35.138696066], [-85.982701063, 35.139330489], [-85.983248787, 35.139948051], [-85.983882096, 35.140509736], [-85.984014819, 35.14188587], [-85.984844067, 35.143978613], [-85.985110469, 35.145071294], [-85.984904503, 35.145468618], [-85.98405072, 35.146250802], [-85.981170633, 35.146689289], [-85.979777107, 35.147170487], [-85.977846635, 35.148045973], [-85.976886291, 35.149381353], [-85.976822873, 35.15141681], [-85.974794613, 35.153016844], [-85.973472387, 35.154862551], [-85.971544149, 35.156852304], [-85.971330655, 35.157027817], [-85.968734476, 35.156491984], [-85.967790833, 35.155928959], [-85.966365031, 35.155600588], [-85.965678353, 35.156121042], [-85.963645403, 35.157257145], [-85.96135035, 35.159335419], [-85.958636188, 35.160849123], [-85.958122836, 35.161241156], [-85.955717741, 35.161871384], [-85.954989929, 35.164113234], [-85.953297367, 35.165396277], [-85.95270903, 35.165484894], [-85.952833816, 35.165647228], [-85.952886757, 35.166713283], [-85.953290286, 35.167891506], [-85.953100189, 35.168483913], [-85.953185667, 35.170136164], [-85.953364278, 35.170663264], [-85.953329228, 35.170929853], [-85.952605911, 35.171072204], [-85.95132917, 35.170362584], [-85.95086019, 35.170575153], [-85.949697565, 35.171617107], [-85.948418076, 35.171444297], [-85.947509122, 35.171410642], [-85.945932943, 35.170795353], [-85.94494159, 35.172260547], [-85.944882683, 35.173283323], [-85.943762868, 35.173503266], [-85.942901534, 35.173385198], [-85.942111258, 35.173599677], [-85.938645918, 35.175598292], [-85.936342506, 35.176224251], [-85.934392431, 35.177971503], [-85.933499683, 35.178269811], [-85.931290576, 35.17847621], [-85.930767741, 35.1788589], [-85.929651712, 35.1795045], [-85.928797384, 35.181491049], [-85.927826816, 35.183111662], [-85.927806937, 35.183440632], [-85.927180315, 35.184174562], [-85.926420674, 35.185204577], [-85.925733053, 35.186499836], [-85.923579269, 35.189451049], [-85.924476826, 35.19095824], [-85.92571078, 35.193180923], [-85.924802846, 35.195710448], [-85.924739366, 35.196785478], [-85.924601591, 35.19745395], [-85.924725205, 35.197862634], [-85.92438046, 35.198833478], [-85.922262393, 35.199927963], [-85.921329362, 35.200806156], [-85.921631871, 35.201065923], [-85.920324692, 35.2065793], [-85.917204495, 35.208320596], [-85.916568509, 35.209024187], [-85.916165345, 35.209526629], [-85.915471521, 35.209738716], [-85.914167172, 35.209373895], [-85.912011417, 35.209445583], [-85.910744973, 35.208675376], [-85.909703332, 35.207903418], [-85.907582539, 35.206979682], [-85.906323076, 35.205327511], [-85.904593907, 35.204641694], [-85.904013974, 35.20428851], [-85.902191333, 35.204013753], [-85.899962803, 35.20475505], [-85.898246029, 35.20571307], [-85.897062468, 35.207357266], [-85.893834382, 35.209080278], [-85.892697404, 35.208733834], [-85.891119971, 35.208105116], [-85.890045942, 35.208703455], [-85.889524528, 35.209703242], [-85.888029065, 35.208849855], [-85.887044434, 35.208516479], [-85.886285547, 35.208036152], [-85.887162677, 35.207012264], [-85.889108677, 35.206158391], [-85.89027454, 35.204175733], [-85.89164784, 35.202341521], [-85.892039683, 35.201412709], [-85.892194862, 35.201265999], [-85.891872958, 35.199713335], [-85.892117264, 35.198538017], [-85.891621474, 35.196898757], [-85.891711216, 35.195392075], [-85.892624807, 35.194150134], [-85.894996436, 35.191378224], [-85.894941417, 35.187531628], [-85.894636467, 35.186521728], [-85.894331033, 35.185259028], [-85.893950213, 35.183994045], [-85.894098628, 35.183286476], [-85.894002966, 35.182549457], [-85.893884977, 35.182139097], [-85.893478855, 35.180532812], [-85.892106938, 35.179045521], [-85.890585643, 35.178510027], [-85.887601974, 35.175988582], [-85.886402908, 35.175562948], [-85.88547256, 35.175059365], [-85.884431386, 35.175392964], [-85.882990477, 35.175630998], [-85.881195229, 35.176514587], [-85.878931427, 35.176245579], [-85.875149155, 35.176070861], [-85.873924461, 35.174086281], [-85.874979211, 35.171070437], [-85.875300997, 35.169882838], [-85.874700553, 35.168013212], [-85.872807822, 35.166383774], [-85.872465648, 35.164909252], [-85.871948329, 35.163929347], [-85.871542367, 35.162188116], [-85.870548743, 35.160903768], [-85.870129407, 35.159854373], [-85.868528552, 35.157974098], [-85.868028036, 35.157812901], [-85.866655054, 35.156792735], [-85.864799805, 35.156851488], [-85.862341376, 35.156205082], [-85.861180976, 35.155451776], [-85.860599719, 35.154070258], [-85.860427998, 35.152532457], [-85.859881602, 35.151183433], [-85.85980097, 35.150748853], [-85.860038356, 35.150080572], [-85.860823588, 35.148842472], [-85.860300792, 35.145525953], [-85.861774858, 35.144326344], [-85.860599397, 35.142684888], [-85.860349142, 35.139615197], [-85.858291958, 35.13701062], [-85.858703867, 35.136363752], [-85.858626654, 35.13551027], [-85.8571211, 35.134804963], [-85.857150108, 35.133937495], [-85.857272424, 35.133408816], [-85.857292129, 35.132808066], [-85.858186052, 35.129392843], [-85.859469922, 35.12807149], [-85.85995015, 35.128285761], [-85.861210995, 35.127767079], [-85.861830521, 35.127186605], [-85.861722804, 35.126425273], [-85.861243932, 35.125669758], [-85.861754938, 35.124924018], [-85.861945367, 35.124510763], [-85.861591877, 35.124206348], [-85.862576046, 35.12091475], [-85.864713625, 35.119231132], [-85.865651358, 35.115855448], [-85.867593632, 35.114384508], [-85.869270463, 35.114129219], [-85.870322088, 35.112667622], [-85.871388361, 35.11144953], [-85.869721711, 35.110014205], [-85.870340966, 35.109079778], [-85.871352552, 35.108156083], [-85.871407191, 35.106444004], [-85.872120025, 35.105905253], [-85.874409925, 35.104681231], [-85.874890475, 35.104754347], [-85.875697371, 35.103859279], [-85.875674878, 35.103379159], [-85.874789672, 35.10250221], [-85.873658066, 35.102265405], [-85.873775664, 35.100727281], [-85.873688218, 35.099575888], [-85.870887561, 35.09879036], [-85.869806217, 35.099198239], [-85.868918511, 35.098655955], [-85.867010964, 35.097821145], [-85.866853627, 35.095781051], [-85.865275927, 35.094818842], [-85.864395106, 35.093280712], [-85.861959263, 35.09157433], [-85.861547965, 35.090428585], [-85.860571959, 35.090002865], [-85.860099582, 35.089180449], [-85.859720272, 35.088128042], [-85.858723323, 35.087919575], [-85.856344381, 35.088263458], [-85.855703051, 35.087417965], [-85.855532938, 35.087285267], [-85.855092203, 35.086598278], [-85.854719962, 35.085866658], [-85.8536765, 35.085085336], [-85.852711844, 35.084496208], [-85.849806537, 35.081832476], [-85.847529571, 35.08119279], [-85.845727263, 35.081592737], [-85.844564225, 35.080063634], [-85.843881069, 35.079534634], [-85.84394658, 35.078000368], [-85.843067167, 35.076691744], [-85.841844969, 35.076198147], [-85.841294736, 35.075375188], [-85.841113262, 35.075249905], [-85.840481607, 35.073469782], [-85.839650776, 35.072306476], [-85.839479051, 35.071008628], [-85.838202403, 35.068923942], [-85.839075509, 35.066863528], [-85.83965631, 35.064727192], [-85.840232064, 35.064100895], [-85.838119393, 35.062405024], [-85.838057712, 35.059454533], [-85.839160502, 35.057704761], [-85.840213511, 35.057448512], [-85.840539946, 35.056324475], [-85.840519456, 35.055300956], [-85.841185376, 35.054328554], [-85.841840464, 35.053614332], [-85.841777344, 35.052656634], [-85.842107107, 35.052685238], [-85.842213253, 35.051885477], [-85.842442704, 35.051511429], [-85.84292636, 35.050184032], [-85.843385242, 35.049435931], [-85.843833494, 35.048375115], [-85.84453881, 35.047222832], [-85.843182587, 35.046053961], [-85.842484602, 35.044303841], [-85.841111147, 35.043226136], [-85.839599226, 35.043191859], [-85.837754555, 35.041601313], [-85.838489628, 35.038831567], [-85.840793236, 35.036747785], [-85.842016515, 35.036933979], [-85.841495283, 35.034598746], [-85.840717514, 35.03368646], [-85.836724495, 35.033601129], [-85.8340503, 35.032962348], [-85.833515776, 35.031984748], [-85.83374521, 35.031610709], [-85.834174841, 35.030788462], [-85.83660733, 35.029950503], [-85.838380087, 35.029784167], [-85.840245378, 35.027860386], [-85.840622797, 35.027332747], [-85.841761262, 35.026291794], [-85.841626212, 35.024992854], [-85.840744026, 35.023317272], [-85.84138278, 35.022959783], [-85.842087855, 35.021552564], [-85.84266823, 35.019416116], [-85.842902179, 35.019046667], [-85.845090839, 35.018275888], [-85.846420884, 35.018479754], [-85.847970829, 35.017948463], [-85.848010692, 35.016763714], [-85.848376679, 35.015476632], [-85.849490328, 35.015229816], [-85.85200236, 35.015791037], [-85.852327894, 35.014671086], [-85.853699124, 35.014170581], [-85.854425838, 35.013993407], [-85.855093877, 35.013747942], [-85.855695877, 35.013863321], [-85.856243806, 35.013266148], [-85.856837612, 35.011221406], [-85.856795211, 35.00920158], [-85.857736685, 35.008857609], [-85.85846334, 35.00868041], [-85.85862969, 35.008545246], [-85.858428922, 35.007602989], [-85.857226376, 35.005356212], [-85.855863617, 35.004260562], [-85.856040176, 35.002927541], [-85.855606445, 35.002525474], [-85.855804812, 34.999671151], [-85.854575574, 34.999141124], [-85.854263058, 34.99872849], [-85.853491082, 34.998501441], [-85.851810322, 34.998136587], [-85.851038359, 34.997909522], [-85.849928235, 34.996500707], [-85.850411259, 34.99484032], [-85.849687529, 34.994406746], [-85.848834533, 34.994025157], [-85.848181289, 34.993197396], [-85.848014249, 34.993062815], [-85.848314914, 34.992012327], [-85.849121392, 34.991153196], [-85.84989754, 34.988911475], [-85.850226496, 34.988767254], [-85.85098514, 34.987541593], [-85.852284374, 34.986971682], [-85.853916988, 34.987540951], [-85.85500098, 34.9872789], [-85.856662025, 34.985332977], [-85.856362611, 34.983543629], [-85.855844698, 34.982146157], [-85.856193288, 34.98163704], [-85.858226882, 34.981615307], [-85.859472215, 34.981805422], [-85.860808638, 34.98337283], [-85.862805342, 34.982469288], [-85.863433347, 34.981992791], [-85.864634552, 34.982851089], [-85.867839823, 34.981135713], [-85.868492971, 34.98123652], [-85.86994829, 34.980941187], [-85.870018796, 34.980407958], [-85.869617102, 34.97942934], [-85.871257236, 34.977184376], [-85.871364111, 34.974170399], [-85.869960913, 34.97371813], [-85.870262876, 34.972773049], [-85.86909071, 34.971302123], [-85.868804355, 34.970455672], [-85.869252996, 34.969976256], [-85.869935749, 34.968021286], [-85.871190343, 34.966682561], [-85.870799242, 34.965525768], [-85.870710197, 34.965096695], [-85.869556633, 34.965376015], [-85.868669362, 34.964782997], [-85.86839728, 34.963927238], [-85.867458008, 34.963274925], [-85.867404119, 34.962383287], [-85.866987492, 34.962168113], [-85.865792453, 34.961973979], [-85.863041247, 34.961954673], [-85.862567234, 34.961051895], [-85.862630403, 34.959138043], [-85.862948354, 34.957777196], [-85.86277709, 34.955904118], [-85.862356982, 34.955204046], [-85.861294409, 34.955307869], [-85.860234564, 34.954859924], [-85.858204069, 34.95496196], [-85.856523502, 34.955389273], [-85.8556641, 34.955432714], [-85.854826686, 34.954287678], [-85.854437639, 34.953196279], [-85.854005664, 34.952861734], [-85.854315375, 34.951662405], [-85.854828051, 34.950836744], [-85.85342931, 34.948526341], [-85.853856801, 34.947577413], [-85.854648873, 34.946862376], [-85.855104359, 34.946212944], [-85.856267156, 34.944997019], [-85.857267477, 34.944458049], [-85.856463419, 34.94321898], [-85.855805926, 34.942917542], [-85.85487153, 34.941778814], [-85.852245283, 34.939896999], [-85.852229893, 34.937457973], [-85.851934024, 34.936528429], [-85.852113583, 34.935840306], [-85.852089491, 34.93462674], [-85.855105161, 34.932994344], [-85.855576457, 34.93208713], [-85.855999233, 34.931605514], [-85.856564488, 34.930813901], [-85.85731539, 34.929956223], [-85.856870762, 34.929108592], [-85.85741027, 34.928491722], [-85.858194839, 34.926985923], [-85.856530409, 34.925545757], [-85.855164679, 34.923598428], [-85.856260633, 34.921803619], [-85.858102125, 34.921078495], [-85.857945413, 34.920571877], [-85.857597744, 34.920269917], [-85.857231612, 34.91957657], [-85.857107234, 34.918196269], [-85.856612526, 34.917255783], [-85.857950859, 34.911818012], [-85.858156854, 34.911420818], [-85.858391221, 34.910750075], [-85.858827639, 34.910282276], [-85.859190576, 34.909740677], [-85.860155229, 34.908897315], [-85.860034254, 34.908395899], [-85.858994976, 34.907462943], [-85.858189172, 34.906554449], [-85.854645429, 34.904519151], [-85.854435993, 34.903133542], [-85.854189907, 34.902319954], [-85.854124912, 34.901631649], [-85.853420214, 34.901355552], [-85.849079536, 34.900765774], [-85.848127265, 34.900729405], [-85.847010027, 34.9002889], [-85.845245171, 34.900221936], [-85.843457653, 34.899520872], [-85.841136857, 34.899154788], [-85.840681971, 34.897680361], [-85.840077583, 34.8946253], [-85.838916781, 34.892944086], [-85.838433035, 34.889587641], [-85.83743574, 34.888419986], [-85.836955286, 34.888003139], [-85.83684491, 34.887344566], [-85.83683818, 34.886374735], [-85.837038725, 34.886274185], [-85.838051047, 34.884756664], [-85.840728971, 34.882128182], [-85.841128619, 34.881623529], [-85.841515903, 34.881408573], [-85.842776489, 34.880449903], [-85.84582953, 34.878795787], [-85.847033918, 34.878653942], [-85.847580484, 34.878138861], [-85.847809391, 34.877764736], [-85.848897458, 34.875672173], [-85.849854833, 34.874684982], [-85.852330564, 34.872793027], [-85.853069066, 34.870766987], [-85.854008427, 34.869797166], [-85.855338873, 34.869782084], [-85.856545582, 34.869326406], [-85.857768251, 34.869044879], [-85.858580422, 34.868879408], [-85.860850635, 34.869228197], [-85.863673394, 34.868857932], [-85.867434045, 34.867153044], [-85.86780179, 34.86613986], [-85.869210765, 34.866828863], [-85.87153987, 34.866573628], [-85.87273643, 34.866567815], [-85.872874935, 34.866975942], [-85.872789811, 34.867246687], [-85.872808989, 34.867652896], [-85.872304831, 34.869227368], [-85.872438301, 34.871919051], [-85.873643667, 34.87358062], [-85.873584281, 34.875271603], [-85.874080126, 34.875434682], [-85.87471511, 34.876237702], [-85.87571612, 34.877045048], [-85.876382173, 34.877888674], [-85.876524836, 34.879664577], [-85.876122809, 34.881056161], [-85.878093864, 34.882276218], [-85.879123128, 34.882614008], [-85.881066519, 34.884044412], [-85.883518867, 34.884612858], [-85.885424465, 34.886271666], [-85.885925449, 34.887619229], [-85.886479531, 34.888524713], [-85.887690392, 34.889438577], [-85.887713359, 34.890605695], [-85.888760696, 34.891419006], [-85.8903074, 34.891462242], [-85.891463699, 34.891113507], [-85.89167337, 34.891022087], [-85.894650318, 34.89068965], [-85.898360546, 34.89079135], [-85.899468808, 34.890333043], [-85.901098592, 34.890218982], [-85.901582216, 34.890100656], [-85.901952068, 34.890589816], [-85.903155535, 34.891521823], [-85.903435322, 34.892300264], [-85.903739754, 34.89283222]]], [[[-85.872806812, 34.866034522], [-85.873135788, 34.866063044], [-85.873065408, 34.866596338], [-85.87273643, 34.866567815], [-85.872806812, 34.866034522]]]]}, "properties": {"arm": "70", "name": "Crow Creek", "comid": 19644896, "kind": "aboveHead"}}