{"type": "Feature", "geometry": {"type": "Polygon", "coordinates": [[[-85.817918325, 34.774285546], [-85.819225678, 34.774648323], [-85.820917284, 34.775187914], [-85.824127898, 34.7752573], [-85.825502726, 34.776875533], [-85.828436468, 34.777879474], [-85.829029904, 34.778222026], [-85.829680203, 34.778527385], [-85.831188826, 34.779489179], [-85.832754343, 34.780413761], [-85.832886782, 34.780570707], [-85.833733705, 34.780214627], [-85.834271738, 34.780151933], [-85.834452507, 34.780277264], [-85.834719533, 34.781124484], [-85.836511628, 34.781573538], [-85.837400762, 34.782900615], [-85.837794265, 34.784146579], [-85.836753674, 34.785181222], [-85.836453005, 34.786276101], [-85.83620001, 34.786323602], [-85.835819699, 34.787902537], [-85.836405568, 34.788499359], [-85.836428828, 34.788971307], [-85.836393546, 34.789237964], [-85.83621021, 34.789367395], [-85.834631992, 34.788144655], [-85.833303739, 34.788585241], [-85.833240148, 34.789340428], [-85.83251815, 34.789850692], [-85.831858502, 34.789772133], [-85.830973984, 34.790607498], [-85.831484995, 34.792377895], [-85.83045337, 34.793166719], [-85.829103657, 34.792787771], [-85.827931587, 34.792146131], [-85.826660587, 34.792467312], [-85.825428185, 34.793006788], [-85.824549, 34.793330504], [-85.824137211, 34.794752837], [-85.825165957, 34.796064774], [-85.824418427, 34.796825642], [-85.822066062, 34.796858603], [-85.821510401, 34.795073726], [-85.820919295, 34.794242461], [-85.820746407, 34.792920853], [-85.818976657, 34.791615855], [-85.817000372, 34.791203156], [-85.81270777, 34.787125858], [-85.811286873, 34.786658283], [-85.810538298, 34.786173546], [-85.810461709, 34.784988853], [-85.810874251, 34.783562388], [-85.809587918, 34.781924313], [-85.809531953, 34.78123032], [-85.809567323, 34.780963669], [-85.809443461, 34.78080112], [-85.808826982, 34.780319472], [-85.808634565, 34.779381747], [-85.8076534, 34.778145405], [-85.808496677, 34.776427822], [-85.809726963, 34.775962099], [-85.811246199, 34.776606895], [-85.812661345, 34.775902299], [-85.813916034, 34.774018307], [-85.815228125, 34.773365799], [-85.817918325, 34.774285546]]]}, "properties": {"arm": "71", "name": "Nichols Branch", "comid": 19645222, "kind": "aboveHead"}}