{"type": "Feature", "geometry": {"type": "Polygon", "coordinates": [[[-85.85386819, 34.759120436], [-85.855056945, 34.759082659], [-85.855924512, 34.759649121], [-85.855247569, 34.760903082], [-85.853142832, 34.762176127], [-85.851957054, 34.768344248], [-85.851408017, 34.769906442], [-85.850984155, 34.771896765], [-85.850793094, 34.772006577], [-85.850031108, 34.774905211], [-85.850736376, 34.775246842], [-85.850444628, 34.776669151], [-85.849606427, 34.777156753], [-85.848922242, 34.777657752], [-85.848738188, 34.780819491], [-85.846927909, 34.783848136], [-85.846179747, 34.784282444], [-85.845735785, 34.784890732], [-85.845654256, 34.786293392], [-85.844910709, 34.787537281], [-85.844492365, 34.788324804], [-85.844163732, 34.788296199], [-85.844008178, 34.787960249], [-85.843177833, 34.788210377], [-85.8428492, 34.788181768], [-85.841534673, 34.788067322], [-85.841194125, 34.787559322], [-85.839829544, 34.78660602], [-85.839340071, 34.78706703], [-85.840351465, 34.78835414], [-85.84044298, 34.788781455], [-85.840028228, 34.789678856], [-85.839315995, 34.789762234], [-85.837353721, 34.788438656], [-85.836757461, 34.788999934], [-85.837967722, 34.789941936], [-85.838312919, 34.790905519], [-85.839691108, 34.791952734], [-85.840242595, 34.792809942], [-85.840029948, 34.793200233], [-85.836488424, 34.796391958], [-85.831813375, 34.799805126], [-85.829405464, 34.801845837], [-85.828715072, 34.8020575], [-85.82791185, 34.803062191], [-85.827221442, 34.803273844], [-85.826892752, 34.803245191], [-85.8266907, 34.803025279], [-85.823982834, 34.802877686], [-85.822301021, 34.804062814], [-85.821642787, 34.804462683], [-85.818767357, 34.80685227], [-85.818229125, 34.806914891], [-85.817381837, 34.807270849], [-85.81705088, 34.806984884], [-85.815048116, 34.804614321], [-85.817566739, 34.802016671], [-85.818231654, 34.801644802], [-85.818756117, 34.800784428], [-85.818448188, 34.799227669], [-85.819305626, 34.798931597], [-85.821033764, 34.798768373], [-85.824077257, 34.797969646], [-85.824418427, 34.796825642], [-85.822066062, 34.796858603], [-85.821510401, 34.795073726], [-85.820919295, 34.794242461], [-85.820746407, 34.792920853], [-85.818976657, 34.791615855], [-85.817000372, 34.791203156], [-85.81270777, 34.787125858], [-85.811286873, 34.786658283], [-85.810538298, 34.786173546], [-85.810461709, 34.784988853], [-85.810874251, 34.783562388], [-85.809587918, 34.781924313], [-85.809531953, 34.78123032], [-85.809567323, 34.780963669], [-85.809443461, 34.78080112], [-85.808826982, 34.780319472], [-85.808634565, 34.779381747], [-85.8076534, 34.778145405], [-85.808496677, 34.776427822], [-85.809726963, 34.775962099], [-85.811246199, 34.776606895], [-85.812661345, 34.775902299], [-85.813916034, 34.774018307], [-85.815228125, 34.773365799], [-85.817918325, 34.774285546], [-85.819225678, 34.774648323], [-85.820917284, 34.775187914], [-85.824127898, 34.7752573], [-85.825502726, 34.776875533], [-85.828436468, 34.777879474], [-85.829029904, 34.778222026], [-85.829680203, 34.778527385], [-85.831188826, 34.779489179], [-85.832754343, 34.780413761], [-85.832886782, 34.780570707], [-85.833733705, 34.780214627], [-85.834271738, 34.780151933], [-85.834508205, 34.779483452], [-85.835667181, 34.778535005], [-85.836305869, 34.776729909], [-85.836899147, 34.776720487], [-85.839524173, 34.778449544], [-85.840079909, 34.777840472], [-85.840556769, 34.776885255], [-85.841476447, 34.775880093], [-85.841439215, 34.774060366], [-85.843518542, 34.773769395], [-85.841889258, 34.771697241], [-85.842582383, 34.769380567], [-85.844418642, 34.767372047], [-85.844326785, 34.765650811], [-85.841945499, 34.763730199], [-85.84291377, 34.760647229], [-85.843628632, 34.759657932], [-85.844018378, 34.757965976], [-85.84484098, 34.757654075], [-85.846202267, 34.757941189], [-85.847628358, 34.756735626], [-85.848028744, 34.75653446], [-85.849296015, 34.75647197], [-85.850067816, 34.754893333], [-85.853542103, 34.755671915], [-85.853878011, 34.756116279], [-85.854375891, 34.756277603], [-85.853811494, 34.757937523], [-85.85386819, 34.759120436]], [[-85.836428828, 34.788971307], [-85.836393546, 34.789237964], [-85.836722181, 34.789266592], [-85.836757461, 34.788999934], [-85.836428828, 34.788971307]]]}, "properties": {"arm": "71", "name": "Nichols Branch", "comid": 19646522, "kind": "atMouth"}}