{"type": "Feature", "geometry": {"type": "Polygon", "coordinates": [[[-85.995831731, 34.735186978], [-85.997854997, 34.734593602], [-86.00041398, 34.733152767], [-86.003364214, 34.73219422], [-86.004465251, 34.732825901], [-86.005677587, 34.734617529], [-86.007280866, 34.735597739], [-86.008586905, 34.736569309], [-86.010187848, 34.737488167], [-86.011608828, 34.737755278], [-86.012627806, 34.738700096], [-86.013384828, 34.740463147], [-86.013059095, 34.74590702], [-86.013957079, 34.747724257], [-86.013242523, 34.751706292], [-86.013385865, 34.752201055], [-86.013965767, 34.752431906], [-86.01513568, 34.75245622], [-86.019975232, 34.750542291], [-86.023902714, 34.751874878], [-86.025831422, 34.753531527], [-86.026588341, 34.755418724], [-86.028742099, 34.755461708], [-86.030467856, 34.755723003], [-86.032130232, 34.758094165], [-86.03243933, 34.760193746], [-86.032355136, 34.762183867], [-86.035983576, 34.762645558], [-86.038425558, 34.764050818], [-86.038606621, 34.764175836], [-86.040624622, 34.764767408], [-86.041770085, 34.765522533], [-86.042524609, 34.765749167], [-86.042665961, 34.765900284], [-86.045268038, 34.768315571], [-86.045730456, 34.770156363], [-86.046958333, 34.772380583], [-86.051240331, 34.774174225], [-86.052547377, 34.774886111], [-86.053581994, 34.776539664], [-86.05430419, 34.777618807], [-86.055170928, 34.778423741], [-86.055347358, 34.779146656], [-86.057377273, 34.78245874], [-86.060466551, 34.784226163], [-86.060249241, 34.788113569], [-86.058505987, 34.790590075], [-86.057527261, 34.792234223], [-86.057113363, 34.793024802], [-86.056922543, 34.793134949], [-86.057003342, 34.793915008], [-86.05805928, 34.796048504], [-86.058750265, 34.797651599], [-86.060317004, 34.802862239], [-86.063774131, 34.803438899], [-86.064883562, 34.803053012], [-86.066417966, 34.803537538], [-86.06612192, 34.804822707], [-86.066253332, 34.805794544], [-86.067409557, 34.806010916], [-86.068177235, 34.806480724], [-86.069854501, 34.806423294], [-86.070858269, 34.805569104], [-86.072079949, 34.805279073], [-86.073263236, 34.805527181], [-86.075197128, 34.805091234], [-86.077944719, 34.804949842], [-86.079947242, 34.803841307], [-86.081624929, 34.803699483], [-86.082119972, 34.803907975], [-86.08350583, 34.804236392], [-86.085957454, 34.806266905], [-86.087617264, 34.807551777], [-86.088492686, 34.808576208], [-86.089054251, 34.810966464], [-86.089690697, 34.812172823], [-86.090455196, 34.812829685], [-86.090588214, 34.812986333], [-86.091156829, 34.813833009], [-86.092963831, 34.815086028], [-86.093532488, 34.81593269], [-86.0936226, 34.816361658], [-86.09399168, 34.817003893], [-86.095348317, 34.816956792], [-86.096822869, 34.818895665], [-86.0980181, 34.819818617], [-86.098360384, 34.820850383], [-86.098530308, 34.822876581], [-86.098065718, 34.82450559], [-86.099308712, 34.825502082], [-86.100266163, 34.827142129], [-86.101988492, 34.827705247], [-86.102646284, 34.827761008], [-86.102474393, 34.829094635], [-86.102256662, 34.829232064], [-86.100448187, 34.831029423], [-86.098433229, 34.834709364], [-86.096097235, 34.836183868], [-86.097215979, 34.83768171], [-86.095282716, 34.839255657], [-86.094497666, 34.840688935], [-86.093881495, 34.841578297], [-86.094042958, 34.841716279], [-86.094938799, 34.842988783], [-86.095958242, 34.843867301], [-86.098449948, 34.844712649], [-86.10030872, 34.847444399], [-86.100113733, 34.848291545], [-86.101662885, 34.850866403], [-86.101396823, 34.851640116], [-86.09987162, 34.852989618], [-86.099605133, 34.853927599], [-86.099766632, 34.854065572], [-86.100073474, 34.854426514], [-86.099799632, 34.855622971], [-86.101342386, 34.857845474], [-86.10109941, 34.85890341], [-86.099313763, 34.859611527], [-86.099599048, 34.860522541], [-86.099693274, 34.862169379], [-86.099785985, 34.86284078], [-86.10053968, 34.863464978], [-86.100563536, 34.866302326], [-86.102526144, 34.867387041], [-86.102794254, 34.868532504], [-86.103385579, 34.869650576], [-86.102777096, 34.871406377], [-86.100814728, 34.874107021], [-86.100405438, 34.874902289], [-86.099950095, 34.875651523], [-86.099386003, 34.877404748], [-86.096437479, 34.879667876], [-86.095554867, 34.880585207], [-86.094778617, 34.881020744], [-86.094163985, 34.882036615], [-86.095755403, 34.882575956], [-86.0970386, 34.883308223], [-86.096765416, 34.884498386], [-86.097273013, 34.885459815], [-86.096473228, 34.886782289], [-86.096440451, 34.887902246], [-86.095956856, 34.889997192], [-86.094457646, 34.891239311], [-86.093441785, 34.891395441], [-86.092446305, 34.892541212], [-86.091721998, 34.894546224], [-86.089702369, 34.895247047], [-86.085878998, 34.895238738], [-86.084634716, 34.896980536], [-86.08437941, 34.897125285], [-86.082830317, 34.896658921], [-86.080636104, 34.895189874], [-86.080523634, 34.894531537], [-86.080513835, 34.893561731], [-86.082066948, 34.892166361], [-86.082571397, 34.889691942], [-86.082622628, 34.88875259], [-86.082721113, 34.888272247], [-86.082187915, 34.884252069], [-86.081330932, 34.882576292], [-86.082226907, 34.881516947], [-86.081986275, 34.879758667], [-86.080992174, 34.878359826], [-86.079566481, 34.877444634], [-86.079352303, 34.874999752], [-86.080853965, 34.874120339], [-86.080258771, 34.873054468], [-86.079268477, 34.872169906], [-86.078059009, 34.870809605], [-86.07697251, 34.87076999], [-86.076154954, 34.870660522], [-86.075448529, 34.870636325], [-86.073744476, 34.868719957], [-86.073698291, 34.866826467], [-86.075006898, 34.865389345], [-86.07568153, 34.864031064], [-86.074890781, 34.863574172], [-86.074635994, 34.863253394], [-86.073751538, 34.862858047], [-86.073311238, 34.861680988], [-86.070959411, 34.860274048], [-86.067849426, 34.860388837], [-86.065916215, 34.861972899], [-86.062314131, 34.861411616], [-86.062057387, 34.859681335], [-86.062415956, 34.858437358], [-86.061507331, 34.856744297], [-86.060913165, 34.8559143], [-86.060692996, 34.855326784], [-86.060393308, 34.854791485], [-86.059947765, 34.853375852], [-86.059527762, 34.852625968], [-86.05988427, 34.852441436], [-86.059759766, 34.852279164], [-86.058637409, 34.851796022], [-86.058437245, 34.851896954], [-86.057613949, 34.852595786], [-86.056195741, 34.852932187], [-86.054598435, 34.854289776], [-86.053651535, 34.854337648], [-86.052721222, 34.853114527], [-86.050979613, 34.852557501], [-86.0494298, 34.850521079], [-86.048327075, 34.849666628], [-86.047671915, 34.847845435], [-86.046486391, 34.847329393], [-86.045990025, 34.845947258], [-86.045307563, 34.845419304], [-86.044997692, 34.844562868], [-86.042984231, 34.844260602], [-86.042468026, 34.847058474], [-86.041621719, 34.848454653], [-86.041801998, 34.849428552], [-86.04214854, 34.850543026], [-86.03943597, 34.853044047], [-86.03831023, 34.854850344], [-86.037741969, 34.855284299], [-86.036299153, 34.855949115], [-86.034479705, 34.8568725], [-86.033560627, 34.856545496], [-86.03292212, 34.856179226], [-86.030941111, 34.856865467], [-86.030326819, 34.856773009], [-86.028862823, 34.857159959], [-86.02825261, 34.858856398], [-86.028224006, 34.859776675], [-86.027237465, 34.860528795], [-86.024468999, 34.860633677], [-86.023604459, 34.86230627], [-86.021779069, 34.863852544], [-86.021097824, 34.864234644], [-86.020725082, 34.863503386], [-86.019184733, 34.862457486], [-86.018715723, 34.860847933], [-86.017807556, 34.859497888], [-86.014844939, 34.857519278], [-86.012847557, 34.856971408], [-86.011245259, 34.857681287], [-86.01010751, 34.858755312], [-86.008532359, 34.85771891], [-86.007498019, 34.857299671], [-86.006832599, 34.856861425], [-86.003832819, 34.855789427], [-86.003058104, 34.856110758], [-86.002519679, 34.856174222], [-86.002054803, 34.855333871], [-86.001030613, 34.854418247], [-85.999815799, 34.853928706], [-85.997291869, 34.854251901], [-85.994779152, 34.854289486], [-85.992191805, 34.853484239], [-85.990614888, 34.852603309], [-85.98910245, 34.853280571], [-85.98653196, 34.853382548], [-85.984781718, 34.853969846], [-85.983477471, 34.8530511], [-85.981769946, 34.852036647], [-85.980551395, 34.850322523], [-85.97867652, 34.850252249], [-85.977695936, 34.850119646], [-85.976927782, 34.850091645], [-85.976377517, 34.851380131], [-85.976151611, 34.851756821], [-85.975163573, 34.850905137], [-85.974543208, 34.848989464], [-85.974099266, 34.848468892], [-85.970837182, 34.845730129], [-85.967288288, 34.841449679], [-85.966536528, 34.841336629], [-85.964660368, 34.841297603], [-85.962772074, 34.840775034], [-85.961678176, 34.840337582], [-85.960495469, 34.84057932], [-85.956770369, 34.84051181], [-85.955197699, 34.841708079], [-85.953896882, 34.841680448], [-85.953059545, 34.841288161], [-85.95303828, 34.839107815], [-85.95261799, 34.838407982], [-85.953107291, 34.838163548], [-85.952988169, 34.835797796], [-85.953764333, 34.834731074], [-85.955615369, 34.833769462], [-85.955981787, 34.833034075], [-85.955028344, 34.831464583], [-85.952183898, 34.827688647], [-85.951004675, 34.825324323], [-85.951039576, 34.825057641], [-85.950710747, 34.825029336], [-85.950745649, 34.824762654], [-85.950416821, 34.824734348], [-85.951118666, 34.817961995], [-85.948169771, 34.814631958], [-85.947967627, 34.811711168], [-85.946865997, 34.809808517], [-85.947180625, 34.808813738], [-85.947509384, 34.808842054], [-85.947579196, 34.808308684], [-85.948356059, 34.801142357], [-85.946573003, 34.799486488], [-85.946394241, 34.797737036], [-85.945864243, 34.797242585], [-85.945581805, 34.796940127], [-85.945239373, 34.796619858], [-85.944085189, 34.793652774], [-85.94616376, 34.791878685], [-85.944229786, 34.792508487], [-85.942876959, 34.792130629], [-85.94200586, 34.791187457], [-85.940503298, 34.790029704], [-85.939518224, 34.7893822], [-85.939140819, 34.788972501], [-85.939175744, 34.788705813], [-85.938847074, 34.788677473], [-85.938381474, 34.787672304], [-85.936808274, 34.78733225], [-85.93673865, 34.786158946], [-85.936532136, 34.786050531], [-85.936799348, 34.785715381], [-85.937489297, 34.785503078], [-85.9376229, 34.785335502], [-85.939824816, 34.785434775], [-85.94028707, 34.785295532], [-85.940673593, 34.785080227], [-85.941294101, 34.784604858], [-85.942051321, 34.783144644], [-85.943965494, 34.782386762], [-85.946130248, 34.781816899], [-85.94738736, 34.780861173], [-85.948748116, 34.780502224], [-85.948397075, 34.779831444], [-85.948701914, 34.778513424], [-85.949609799, 34.778003777], [-85.951750083, 34.777798337], [-85.952554992, 34.777520001], [-85.95431152, 34.777787149], [-85.956777103, 34.775907161], [-85.957704236, 34.77538858], [-85.958200163, 34.774017461], [-85.958621432, 34.773535395], [-85.959209882, 34.770204278], [-85.960867761, 34.768741415], [-85.961343069, 34.767785698], [-85.96412316, 34.764805386], [-85.966067653, 34.763213307], [-85.966567631, 34.762207018], [-85.966846499, 34.761582042], [-85.967070285, 34.760901759], [-85.967139918, 34.76036835], [-85.967820393, 34.759649387], [-85.968511563, 34.758729067], [-85.969486304, 34.757803632], [-85.970865716, 34.755964825], [-85.97204276, 34.754542653], [-85.972619779, 34.752805504], [-85.975199094, 34.748749971], [-85.978438707, 34.746375657], [-85.979411833, 34.745241416], [-85.981338289, 34.744159577], [-85.983044387, 34.742856507], [-85.984589893, 34.741012864], [-85.988408197, 34.738892392], [-85.990348418, 34.737562975], [-85.995831731, 34.735186978]]]}, "properties": {"arm": "80", "name": "Mud Creek", "comid": 19645244, "kind": "aboveHead"}}