{"type": "Feature", "geometry": {"type": "Polygon", "coordinates": [[[-86.214394681, 34.343373321], [-86.212654359, 34.34421486], [-86.211930163, 34.344389778], [-86.211279239, 34.344638314], [-86.209412353, 34.344868504], [-86.209277165, 34.345936105], [-86.207014104, 34.345462645], [-86.206486271, 34.345839567], [-86.205929195, 34.346182405], [-86.205265134, 34.347430841], [-86.204504528, 34.348361324], [-86.203674066, 34.349679996], [-86.202238112, 34.350561853], [-86.201323456, 34.352686874], [-86.197417374, 34.355581238], [-86.197068633, 34.35623458], [-86.196302053, 34.356009628], [-86.192852413, 34.355608435], [-86.1921647, 34.355820044], [-86.192198561, 34.355553152], [-86.191871635, 34.355525509], [-86.187924275, 34.355425598], [-86.187553868, 34.355699848], [-86.186181505, 34.354898817], [-86.184049141, 34.354309535], [-86.181330716, 34.353029924], [-86.18075815, 34.351603152], [-86.179074957, 34.350811534], [-86.178942552, 34.350654905], [-86.177646347, 34.35096243], [-86.174190935, 34.352680324], [-86.171334608, 34.355045318], [-86.170745265, 34.355355763], [-86.168523952, 34.355567937], [-86.166133733, 34.356438049], [-86.164672143, 34.357110773], [-86.164018052, 34.355474666], [-86.163308762, 34.355368152], [-86.162649626, 34.355354403], [-86.161752934, 34.355219341], [-86.159663316, 34.355349786], [-86.158787774, 34.35565697], [-86.155898276, 34.355175735], [-86.153663536, 34.355938667], [-86.152493187, 34.355965766], [-86.152103507, 34.35628886], [-86.150517919, 34.356900307], [-86.150552589, 34.358228902], [-86.14859712, 34.358703541], [-86.145731896, 34.360907044], [-86.143435695, 34.362210434], [-86.141628827, 34.363705006], [-86.14113369, 34.364712491], [-86.14065371, 34.364831873], [-86.139332047, 34.364991414], [-86.138370977, 34.365906595], [-86.137090961, 34.366366818], [-86.136096908, 34.366872419], [-86.134908082, 34.366880925], [-86.134118561, 34.367665241], [-86.133867577, 34.368276166], [-86.133952917, 34.368881972], [-86.13331222, 34.369491367], [-86.132484892, 34.36986359], [-86.131715009, 34.370594765], [-86.131093355, 34.370872774], [-86.130587516, 34.371639048], [-86.131233577, 34.373434851], [-86.130486281, 34.375384001], [-86.129464876, 34.375859829], [-86.129191054, 34.37642665], [-86.12655397, 34.377723928], [-86.125176004, 34.37981749], [-86.124273201, 34.380273865], [-86.122570805, 34.381874016], [-86.121904908, 34.384133534], [-86.12181219, 34.385828543], [-86.120569866, 34.387303443], [-86.120306605, 34.388029209], [-86.120243828, 34.390439112], [-86.120030812, 34.3913778], [-86.119954139, 34.393997264], [-86.121439974, 34.396073213], [-86.121568222, 34.39745402], [-86.121856112, 34.398374219], [-86.121524078, 34.399193181], [-86.120611076, 34.398575943], [-86.120256392, 34.398157966], [-86.118991783, 34.397563469], [-86.116714686, 34.39555499], [-86.114411981, 34.39491839], [-86.112150182, 34.393478034], [-86.110528509, 34.393232367], [-86.106270243, 34.393183438], [-86.105751135, 34.393263528], [-86.105075448, 34.392993053], [-86.102929607, 34.394641551], [-86.101779419, 34.394425432], [-86.099738285, 34.393482055], [-86.097093053, 34.392556639], [-86.092950048, 34.394569856], [-86.089827996, 34.394884989], [-86.087579217, 34.394292487], [-86.086835529, 34.393807441], [-86.086192611, 34.393583911], [-86.080604876, 34.389624618], [-86.078430545, 34.3885746], [-86.078432137, 34.387154183], [-86.077978501, 34.386965752], [-86.075518016, 34.386394927], [-86.073995229, 34.385763052], [-86.073141174, 34.385776404], [-86.071249764, 34.384636619], [-86.070204087, 34.384292109], [-86.070029928, 34.3839189], [-86.06961867, 34.383702444], [-86.069687259, 34.383168749], [-86.068270072, 34.382117964], [-86.065177922, 34.382243166], [-86.063689741, 34.382006133], [-86.06230764, 34.381386133], [-86.06059056, 34.380880743], [-86.060410356, 34.380755705], [-86.059216107, 34.380482667], [-86.05458912, 34.376058281], [-86.053473689, 34.375574834], [-86.052090044, 34.374988283], [-86.04973728, 34.375068956], [-86.04780104, 34.374662592], [-86.046968893, 34.374747178], [-86.046183304, 34.374289844], [-86.044203223, 34.372560196], [-86.041265934, 34.370623977], [-86.038617502, 34.3700741], [-86.036580435, 34.368427924], [-86.035982949, 34.365651225], [-86.03545651, 34.36404623], [-86.034115015, 34.363756034], [-86.032649461, 34.36372707], [-86.027392725, 34.362881081], [-86.025131584, 34.362834205], [-86.023250278, 34.361945203], [-86.022071177, 34.360197554], [-86.020744906, 34.360410171], [-86.018494966, 34.361236773], [-86.015360186, 34.363555415], [-86.01132694, 34.365191663], [-86.009739618, 34.366823459], [-86.008405731, 34.367273478], [-86.007781496, 34.36718809], [-86.005311355, 34.36711862], [-86.005276846, 34.367385453], [-86.004296122, 34.367300948], [-86.00426161, 34.367567781], [-86.003749421, 34.367654333], [-85.999632006, 34.370136643], [-85.999225131, 34.369429154], [-85.998972926, 34.368863579], [-85.99870943, 34.36830546], [-85.998221963, 34.367203165], [-85.996995383, 34.366264783], [-85.995783289, 34.365454108], [-85.990781466, 34.360606531], [-85.99063813, 34.360457147], [-85.989307926, 34.359383242], [-85.988230529, 34.358630465], [-85.986001724, 34.358254661], [-85.983216629, 34.358505311], [-85.97870086, 34.35742592], [-85.976067459, 34.358119529], [-85.974346903, 34.359539137], [-85.974372099, 34.360698583], [-85.973401237, 34.36157378], [-85.972662742, 34.361434051], [-85.971301924, 34.361453415], [-85.970972123, 34.361726337], [-85.969191558, 34.361378431], [-85.967424625, 34.360666995], [-85.963636872, 34.360086339], [-85.962070791, 34.360294413], [-85.961270033, 34.360077549], [-85.961235376, 34.360344371], [-85.960908513, 34.36031608], [-85.959475557, 34.360592559], [-85.957488155, 34.359889281], [-85.955154996, 34.35860794], [-85.951358206, 34.359130682], [-85.948603846, 34.35965933], [-85.946272027, 34.359718618], [-85.944939026, 34.35988132], [-85.944099967, 34.359939272], [-85.942695524, 34.360154781], [-85.941900019, 34.360433622], [-85.938956465, 34.360490306], [-85.93642344, 34.361162251], [-85.934066599, 34.363613868], [-85.932822948, 34.363942297], [-85.931721696, 34.364327343], [-85.929924202, 34.364565504], [-85.926089475, 34.364483368], [-85.924434617, 34.364023417], [-85.923828193, 34.363306695], [-85.922882991, 34.363861214], [-85.921674234, 34.364753307], [-85.920804473, 34.365263773], [-85.919880158, 34.366212187], [-85.918213245, 34.366992756], [-85.916413429, 34.367900882], [-85.915465117, 34.367864816], [-85.913559238, 34.367606345], [-85.913066366, 34.368434123], [-85.912272648, 34.36994405], [-85.910763161, 34.370704484], [-85.906181385, 34.371612891], [-85.90541982, 34.371293648], [-85.90355939, 34.370113519], [-85.901970809, 34.369897235], [-85.90114019, 34.369968272], [-85.900460848, 34.370640638], [-85.90057559, 34.371462248], [-85.899720285, 34.372275289], [-85.898260116, 34.372795327], [-85.896932618, 34.373466039], [-85.896040593, 34.373571749], [-85.894806591, 34.373586528], [-85.893156504, 34.373978232], [-85.892080006, 34.374388274], [-85.89011107, 34.3744528], [-85.886515679, 34.373188625], [-85.884276245, 34.372715081], [-85.882382519, 34.373665128], [-85.880747082, 34.375324933], [-85.87999144, 34.376873848], [-85.878670347, 34.377454277], [-85.876919934, 34.377447004], [-85.874308161, 34.378355352], [-85.872383942, 34.378649063], [-85.870990715, 34.379286359], [-85.869782279, 34.378415578], [-85.868578651, 34.378966103], [-85.865754691, 34.377827682], [-85.86476558, 34.377589479], [-85.864104835, 34.376462903], [-85.864943712, 34.375049934], [-85.865392331, 34.373992876], [-85.867299409, 34.371741399], [-85.866530727, 34.370866813], [-85.865362745, 34.370456974], [-85.865970427, 34.369742687], [-85.866247197, 34.368813966], [-85.866766387, 34.368734942], [-85.869553412, 34.367414118], [-85.871897648, 34.364110821], [-85.87414946, 34.363896341], [-85.876451567, 34.362134587], [-85.877075019, 34.360647923], [-85.879808195, 34.359202015], [-85.881028675, 34.358085765], [-85.882205384, 34.357619221], [-85.883272808, 34.356803715], [-85.8843719, 34.356633958], [-85.885871448, 34.356640365], [-85.886637121, 34.356374047], [-85.887330471, 34.355397288], [-85.887865473, 34.354781973], [-85.890330555, 34.35338836], [-85.890382733, 34.351765398], [-85.890971962, 34.3507943], [-85.893559578, 34.349765484], [-85.895059403, 34.347655202], [-85.897209683, 34.347323954], [-85.898601852, 34.347537998], [-85.899715438, 34.347987063], [-85.899963707, 34.347331967], [-85.901980566, 34.344503488], [-85.901213431, 34.342885064], [-85.901298935, 34.342072432], [-85.902103275, 34.34107364], [-85.902135105, 34.338299941], [-85.900817876, 34.337019384], [-85.90085273, 34.336752572], [-85.899971384, 34.336443897], [-85.899550559, 34.335416385], [-85.899027097, 34.334384144], [-85.900836826, 34.332684481], [-85.901290156, 34.332059888], [-85.903164738, 34.329843009], [-85.903797083, 34.328361203], [-85.909816634, 34.323893091], [-85.913054288, 34.322165755], [-85.915707774, 34.320107129], [-85.914929443, 34.317960728], [-85.916896427, 34.316434752], [-85.917997316, 34.315434251], [-85.919536713, 34.314197814], [-85.919620107, 34.31274619], [-85.920082728, 34.312107583], [-85.920858582, 34.311382372], [-85.92154863, 34.310067829], [-85.922921781, 34.308778948], [-85.924062696, 34.307073519], [-85.925278166, 34.305132118], [-85.926928935, 34.302661432], [-85.92665016, 34.302424271], [-85.925839729, 34.302227329], [-85.927267447, 34.301052774], [-85.92935783, 34.30075378], [-85.931222305, 34.299216576], [-85.932600947, 34.298497289], [-85.933062646, 34.29748751], [-85.935275669, 34.296225081], [-85.936214034, 34.296112626], [-85.937145625, 34.294743083], [-85.938555763, 34.294296319], [-85.939940417, 34.294144583], [-85.940623708, 34.293929837], [-85.941981381, 34.293529075], [-85.948650085, 34.289366419], [-85.94933559, 34.289153926], [-85.949733759, 34.288650875], [-85.951130285, 34.287949807], [-85.953414219, 34.285997514], [-85.954593643, 34.285716087], [-85.955717479, 34.285286473], [-85.956458008, 34.285186231], [-85.95751775, 34.283540945], [-85.957749362, 34.282869535], [-85.956939056, 34.282672805], [-85.955897977, 34.280676744], [-85.955246237, 34.27971582], [-85.956069114, 34.276953736], [-85.957881744, 34.275409554], [-85.956293202, 34.273975287], [-85.955588774, 34.272586033], [-85.955285944, 34.271322247], [-85.954900524, 34.270356989], [-85.954711814, 34.269505766], [-85.954243156, 34.268029416], [-85.954631842, 34.26734], [-85.955752648, 34.266315614], [-85.955769096, 34.263148356], [-85.956657704, 34.262143883], [-85.956997701, 34.26067651], [-85.957260738, 34.260338807], [-85.95742802, 34.259904255], [-85.957999717, 34.258817479], [-85.958478278, 34.258249688], [-85.95898944, 34.257271504], [-85.960644557, 34.256818353], [-85.962569913, 34.254539668], [-85.963538344, 34.25397215], [-85.966954861, 34.251428378], [-85.967332204, 34.250904492], [-85.96833212, 34.250630603], [-85.968845317, 34.249416435], [-85.969550933, 34.249224565], [-85.970220068, 34.248995799], [-85.971252074, 34.248832188], [-85.972250707, 34.248090127], [-85.973846479, 34.247834059], [-85.9750347, 34.248733843], [-85.97670791, 34.248676289], [-85.977739492, 34.248894174], [-85.978511736, 34.249920248], [-85.978723347, 34.250954723], [-85.979968101, 34.250402557], [-85.980475908, 34.248949657], [-85.98246258, 34.248183372], [-85.9832511, 34.247988053], [-85.984102927, 34.247642197], [-85.984011259, 34.247214733], [-85.983656277, 34.246132027], [-85.984156122, 34.244381164], [-85.983292585, 34.243163809], [-85.984021474, 34.240618976], [-85.982988067, 34.239838079], [-85.9816054, 34.238986895], [-85.981306161, 34.23753372], [-85.981038299, 34.236734706], [-85.981033829, 34.234398373], [-85.980819993, 34.232703801], [-85.980162138, 34.232189376], [-85.980411299, 34.231837777], [-85.980807368, 34.230729373], [-85.981340203, 34.229759298], [-85.981555492, 34.229071658], [-85.982073631, 34.228992107], [-85.984260554, 34.227311293], [-85.98498295, 34.226290139], [-85.985539945, 34.22495319], [-85.986387898, 34.223698329], [-85.987620038, 34.22162495], [-85.989719258, 34.219523239], [-85.993649784, 34.215954337], [-85.994035893, 34.215439563], [-85.995883183, 34.213988514], [-85.996549204, 34.212443787], [-85.99771888, 34.212506923], [-85.999310289, 34.212697141], [-85.999747735, 34.212163595], [-86.000202698, 34.211115034], [-86.00038761, 34.211000297], [-86.000554546, 34.210565657], [-86.001475047, 34.209384432], [-86.001641972, 34.208949789], [-86.001831436, 34.20883966], [-86.002683669, 34.208207005], [-86.004536181, 34.207331844], [-86.006821372, 34.204181243], [-86.006917188, 34.202479705], [-86.007769838, 34.201463346], [-86.009195519, 34.201658114], [-86.010908406, 34.200884658], [-86.01185955, 34.201422138], [-86.012891169, 34.201015726], [-86.013455105, 34.200379203], [-86.015484255, 34.198810752], [-86.015329308, 34.198333564], [-86.015594027, 34.197399249], [-86.015323911, 34.196136279], [-86.013249768, 34.194536316], [-86.014326209, 34.193621451], [-86.016688485, 34.192545551], [-86.01743594, 34.189924082], [-86.018387662, 34.189076431], [-86.020929884, 34.188682196], [-86.020955898, 34.187860101], [-86.023294443, 34.185685729], [-86.02431344, 34.18541518], [-86.024744157, 34.184571052], [-86.025647154, 34.18406069], [-86.027487942, 34.183570014], [-86.028666806, 34.182337076], [-86.029494904, 34.182208155], [-86.029403064, 34.181780693], [-86.028813366, 34.180237209], [-86.029485676, 34.178876273], [-86.03020864, 34.17780221], [-86.03087284, 34.177064621], [-86.030354464, 34.176128145], [-86.031014374, 34.174782997], [-86.030754276, 34.173560963], [-86.030439347, 34.172304685], [-86.030576687, 34.17123707], [-86.031285482, 34.170332549], [-86.032545468, 34.169608341], [-86.034804616, 34.169606905], [-86.035124794, 34.169200177], [-86.03589708, 34.16856253], [-86.036950558, 34.1687629], [-86.038510228, 34.167469905], [-86.038202751, 34.166916352], [-86.038179494, 34.165955073], [-86.040034676, 34.16568895], [-86.041287715, 34.166701292], [-86.042641678, 34.16714885], [-86.043425149, 34.166543746], [-86.046047003, 34.166444712], [-86.047453867, 34.164976124], [-86.050193792, 34.163695985], [-86.050219886, 34.162850701], [-86.051413277, 34.161840178], [-86.051461264, 34.160081782], [-86.051910601, 34.159871652], [-86.052539761, 34.158220161], [-86.053922979, 34.157575917], [-86.054489589, 34.156351236], [-86.056272705, 34.154978153], [-86.056240044, 34.154690727], [-86.056384041, 34.154310966], [-86.057292205, 34.15453873], [-86.05779166, 34.154419328], [-86.058278973, 34.153651637], [-86.057806258, 34.152257481], [-86.058080652, 34.151382937], [-86.057641394, 34.15061149], [-86.057138553, 34.147926562], [-86.056316804, 34.147286665], [-86.055053354, 34.145533539], [-86.055369547, 34.14503576], [-86.057065656, 34.144941258], [-86.058073903, 34.144106612], [-86.058996679, 34.14387813], [-86.059650968, 34.143634994], [-86.060369077, 34.143456374], [-86.06076581, 34.142651368], [-86.062076676, 34.141564405], [-86.062885526, 34.141802581], [-86.063893529, 34.14129044], [-86.065083719, 34.140903576], [-86.065400491, 34.142651163], [-86.066543622, 34.143455643], [-86.069874813, 34.143963113], [-86.070312943, 34.144160964], [-86.070670565, 34.143620327], [-86.070521682, 34.142289866], [-86.072026728, 34.141957376], [-86.07183312, 34.140211959], [-86.072387161, 34.139323447], [-86.072592313, 34.139229321], [-86.07327815, 34.139764672], [-86.073556935, 34.14054337], [-86.074378887, 34.141684932], [-86.074879315, 34.143085613], [-86.075555816, 34.143613819], [-86.076046617, 34.144265228], [-86.077175746, 34.144958759], [-86.077959192, 34.144933217], [-86.078280388, 34.144998724], [-86.078611193, 34.144989156], [-86.079268335, 34.145125646], [-86.080047266, 34.1465038], [-86.081226132, 34.146446797], [-86.081682055, 34.14630459], [-86.082343288, 34.145463185], [-86.08416359, 34.144900368], [-86.085377192, 34.144913767], [-86.086342101, 34.146227701], [-86.089744104, 34.147552316], [-86.09228264, 34.146506998], [-86.092949562, 34.148682893], [-86.09339144, 34.149456512], [-86.094625302, 34.150420238], [-86.095617747, 34.150855196], [-86.09574532, 34.151469067], [-86.095910981, 34.151603421], [-86.096848812, 34.151780705], [-86.09787187, 34.152399567], [-86.098769741, 34.152385783], [-86.099689131, 34.152768067], [-86.100313541, 34.152758269], [-86.100951835, 34.153143887], [-86.101649982, 34.153443972], [-86.101633603, 34.152805898], [-86.103080069, 34.152246631], [-86.104890772, 34.151294765], [-86.104877139, 34.150756012], [-86.105314765, 34.150272732], [-86.107103118, 34.150282363], [-86.107331067, 34.150211209], [-86.107807437, 34.148213345], [-86.106946721, 34.147210009], [-86.106943226, 34.145502076], [-86.106601251, 34.144751819], [-86.106495578, 34.143844687], [-86.106119552, 34.143361362], [-86.105979823, 34.142721163], [-86.105448781, 34.142585074], [-86.105251991, 34.142412229], [-86.104753969, 34.140282489], [-86.103329072, 34.139827452], [-86.100890133, 34.140156288], [-86.101126457, 34.139111866], [-86.101166131, 34.137732267], [-86.101532294, 34.137122711], [-86.102724729, 34.136978119], [-86.103692628, 34.136051121], [-86.104273389, 34.134768426], [-86.104905776, 34.133827462], [-86.105268955, 34.133664584], [-86.105236937, 34.132664652], [-86.103922922, 34.131523378], [-86.104560802, 34.130458498], [-86.104575222, 34.129962188], [-86.104750609, 34.129192934], [-86.104199113, 34.128713543], [-86.103510041, 34.127395941], [-86.103845997, 34.125913083], [-86.103500866, 34.125248956], [-86.103921721, 34.123564645], [-86.103717622, 34.122218971], [-86.10608595, 34.121652166], [-86.106020716, 34.120387953], [-86.107211595, 34.120858812], [-86.108789869, 34.122147072], [-86.11051426, 34.122087986], [-86.11071248, 34.12198688], [-86.111052307, 34.121320228], [-86.111669026, 34.12084381], [-86.112371171, 34.120444268], [-86.11244814, 34.120102991], [-86.11078032, 34.118124045], [-86.110821142, 34.116733979], [-86.111055932, 34.115699934], [-86.109283364, 34.112383772], [-86.109724652, 34.111647794], [-86.110283608, 34.111765191], [-86.111602524, 34.113088172], [-86.112161493, 34.11320556], [-86.112879592, 34.114194619], [-86.113190799, 34.11506454], [-86.115248272, 34.116671995], [-86.116492858, 34.119124884], [-86.117247442, 34.120171832], [-86.118154787, 34.120464434], [-86.118477138, 34.120055583], [-86.119852362, 34.12006982], [-86.120562187, 34.121064427], [-86.120874846, 34.122408784], [-86.122441933, 34.125403529], [-86.124614865, 34.126795044], [-86.125714985, 34.127171503], [-86.126172846, 34.127356071], [-86.126565306, 34.128317191], [-86.126676331, 34.129709645], [-86.126979305, 34.130241481], [-86.127192298, 34.130833095], [-86.129378802, 34.131411894], [-86.13122595, 34.13279652], [-86.132012413, 34.133251545], [-86.132862574, 34.133206039], [-86.133520151, 34.132954359], [-86.13441524, 34.133142465], [-86.136471978, 34.131989791], [-86.138051683, 34.132320595], [-86.139307342, 34.134025661], [-86.139984201, 34.134553497], [-86.140351959, 34.135042322], [-86.139182908, 34.13781814], [-86.140644961, 34.139237199], [-86.140402299, 34.140841878], [-86.138825309, 34.143140193], [-86.138310221, 34.144639416], [-86.140641597, 34.14738269], [-86.142423772, 34.148573901], [-86.142567009, 34.148723137], [-86.143781658, 34.149518113], [-86.146044748, 34.150512025], [-86.147748685, 34.150901724], [-86.148524352, 34.151119578], [-86.149370775, 34.151408802], [-86.151907472, 34.15302669], [-86.151610099, 34.154232481], [-86.150990906, 34.155478327], [-86.151259572, 34.157255111], [-86.150291598, 34.158732652], [-86.148727114, 34.160020255], [-86.148799409, 34.161396648], [-86.148552418, 34.162185107], [-86.148573821, 34.162604324], [-86.147382431, 34.163670717], [-86.146126824, 34.165039405], [-86.144806514, 34.165356975], [-86.142417479, 34.166342368], [-86.141106466, 34.166525775], [-86.140748963, 34.167068699], [-86.140224552, 34.167142056], [-86.138474361, 34.16778129], [-86.139458499, 34.170430682], [-86.138516945, 34.172001033], [-86.1381064, 34.173810581], [-86.13853516, 34.175946739], [-86.137325594, 34.177213864], [-86.134884238, 34.178019698], [-86.135291931, 34.178560389], [-86.136562179, 34.178516903], [-86.13823314, 34.179291748], [-86.139178768, 34.180544406], [-86.139242871, 34.181234978], [-86.139525869, 34.182148681], [-86.139268326, 34.183281929], [-86.138182571, 34.184546963], [-86.136738681, 34.185893186], [-86.136653536, 34.188828719], [-86.136593277, 34.189099732], [-86.136718951, 34.189508858], [-86.137733534, 34.190301512], [-86.138710456, 34.19159265], [-86.138172085, 34.192179172], [-86.137800376, 34.192832595], [-86.139674117, 34.193656278], [-86.140832102, 34.194598131], [-86.142806088, 34.195120422], [-86.144058046, 34.195891062], [-86.144761538, 34.196821564], [-86.145158419, 34.19793464], [-86.146595386, 34.199054056], [-86.148816173, 34.199561405], [-86.149266073, 34.199751471], [-86.149378463, 34.199921241], [-86.15064922, 34.200788251], [-86.150806139, 34.201661647], [-86.151098137, 34.202445355], [-86.150972988, 34.204483624], [-86.150410149, 34.20512081], [-86.148995378, 34.206317873], [-86.14831463, 34.208429003], [-86.147681146, 34.210776021], [-86.146332523, 34.211249341], [-86.144441539, 34.211752357], [-86.144463309, 34.212715429], [-86.144784143, 34.214163488], [-86.144062442, 34.216473463], [-86.144380947, 34.217413309], [-86.146442342, 34.218488863], [-86.147527595, 34.219479198], [-86.149589088, 34.220554694], [-86.150027514, 34.221241229], [-86.150314129, 34.222148822], [-86.149660793, 34.223638324], [-86.149202498, 34.226187821], [-86.150498514, 34.227771489], [-86.150728843, 34.228351778], [-86.150889133, 34.228489778], [-86.15058885, 34.2293917], [-86.150061373, 34.231269211], [-86.149305103, 34.232088073], [-86.149411686, 34.234086969], [-86.150108294, 34.234628928], [-86.150299894, 34.234520862], [-86.153053773, 34.234573802], [-86.154893386, 34.235309882], [-86.157152604, 34.234407967], [-86.160556418, 34.236364546], [-86.161226426, 34.237481715], [-86.162837347, 34.236914557], [-86.163355352, 34.236834199], [-86.164086755, 34.237326322], [-86.164593212, 34.237478945], [-86.165971486, 34.238763729], [-86.167400332, 34.240320478], [-86.170320842, 34.241742453], [-86.170286956, 34.242009375], [-86.170939837, 34.242064789], [-86.170905953, 34.242331711], [-86.173033413, 34.242630291], [-86.174146451, 34.243102025], [-86.174628583, 34.245417227], [-86.175621033, 34.246778731], [-86.176463288, 34.246662582], [-86.179618409, 34.243880213], [-86.180440035, 34.243804444], [-86.18441417, 34.243892619], [-86.186215152, 34.243899809], [-86.186358649, 34.244048972], [-86.186994551, 34.244665625], [-86.18970089, 34.245645259], [-86.190013217, 34.24751388], [-86.192225024, 34.24806373], [-86.193998003, 34.250511273], [-86.198892324, 34.254818464], [-86.199757087, 34.254219276], [-86.200083589, 34.2542469], [-86.201601533, 34.252988451], [-86.203821758, 34.252128722], [-86.204447198, 34.249610226], [-86.206125248, 34.248959636], [-86.206840337, 34.247504666], [-86.207428718, 34.247193998], [-86.207592828, 34.247058227], [-86.209318129, 34.247868008], [-86.210156876, 34.248349906], [-86.211187088, 34.249560377], [-86.211986484, 34.250251808], [-86.212453232, 34.250801309], [-86.213483971, 34.251457475], [-86.214367837, 34.252092792], [-86.216127055, 34.252635537], [-86.217334709, 34.252646908], [-86.217793292, 34.252506486], [-86.217950505, 34.252690484], [-86.221900668, 34.252705757], [-86.223442469, 34.253398643], [-86.224742937, 34.253757101], [-86.227045556, 34.254488845], [-86.228399508, 34.254750605], [-86.228954167, 34.254706766], [-86.229412742, 34.254566298], [-86.229739256, 34.254593839], [-86.230273324, 34.254529288], [-86.231112681, 34.254170122], [-86.23148889, 34.253946826], [-86.232438435, 34.252121604], [-86.2367071, 34.249937584], [-86.237818729, 34.249483298], [-86.237989654, 34.249354385], [-86.240365735, 34.248644128], [-86.241752628, 34.249298423], [-86.243247248, 34.249527606], [-86.243359915, 34.249697275], [-86.243545355, 34.250966922], [-86.244997859, 34.251980775], [-86.246063274, 34.252302332], [-86.246908026, 34.25296359], [-86.248040498, 34.253305526], [-86.24843973, 34.253901862], [-86.249272979, 34.254081601], [-86.24966797, 34.253729161], [-86.252431157, 34.254530764], [-86.254709767, 34.256581362], [-86.25612049, 34.257355486], [-86.257179211, 34.257874476], [-86.25989434, 34.258321983], [-86.26149768, 34.257647482], [-86.262239265, 34.257490638], [-86.262391857, 34.257343291], [-86.262878943, 34.257508579], [-86.263472865, 34.257849341], [-86.264293221, 34.2578656], [-86.26655175, 34.259484299], [-86.269173099, 34.261150279], [-86.269241603, 34.261958999], [-86.269791091, 34.26294089], [-86.270011162, 34.263528402], [-86.2708625, 34.264919202], [-86.272368567, 34.26791187], [-86.272412034, 34.269515109], [-86.2724103, 34.270739417], [-86.272664393, 34.271548951], [-86.273025333, 34.273088213], [-86.27324549, 34.274598791], [-86.269941033, 34.27725497], [-86.269488893, 34.277897719], [-86.269462769, 34.278843891], [-86.26934461, 34.279373483], [-86.269322646, 34.280142974], [-86.270261686, 34.28192466], [-86.270374178, 34.283101641], [-86.269858772, 34.283262791], [-86.269488171, 34.28401565], [-86.269259978, 34.284087111], [-86.269578905, 34.285591221], [-86.2689946, 34.28818702], [-86.266956722, 34.289769295], [-86.267163011, 34.293029987], [-86.267577009, 34.293819217], [-86.267306942, 34.295023071], [-86.267650434, 34.295675717], [-86.2676822, 34.296633054], [-86.266787591, 34.296937271], [-86.265947936, 34.297296676], [-86.266077571, 34.29784496], [-86.26683332, 34.299280365], [-86.266006781, 34.300662977], [-86.265804496, 34.301061153], [-86.265917287, 34.30123079], [-86.266249781, 34.303180684], [-86.265570064, 34.303867526], [-86.265728213, 34.304291754], [-86.265122094, 34.306689676], [-86.263749431, 34.309520565], [-86.261793242, 34.310468972], [-86.258259817, 34.30931438], [-86.257309694, 34.309668663], [-86.256263746, 34.309821002], [-86.253094747, 34.311712615], [-86.250796527, 34.311279119], [-86.250216068, 34.310931046], [-86.249556775, 34.310635348], [-86.249429928, 34.31047505], [-86.248325631, 34.310230427], [-86.24717629, 34.310015722], [-86.247012117, 34.310151539], [-86.245243716, 34.311081765], [-86.244197725, 34.311233995], [-86.243215844, 34.31145062], [-86.242366086, 34.311499225], [-86.241950603, 34.312195541], [-86.241502812, 34.314170468], [-86.241630572, 34.316225449], [-86.24061169, 34.318759241], [-86.239921503, 34.321754824], [-86.238717216, 34.323016955], [-86.237519153, 34.323697946], [-86.236514608, 34.324869396], [-86.235229183, 34.326691563], [-86.231803913, 34.328558971], [-86.230306151, 34.329159855], [-86.229280088, 34.330234602], [-86.229088361, 34.330342786], [-86.228635362, 34.331701847], [-86.229424795, 34.332786257], [-86.228956426, 34.334287326], [-86.227805472, 34.335532777], [-86.225815204, 34.336292316], [-86.225835654, 34.336681807], [-86.225562873, 34.337328979], [-86.223624741, 34.338390027], [-86.222024277, 34.33918869], [-86.221603063, 34.339376564], [-86.220333655, 34.340618284], [-86.219849812, 34.34332136], [-86.217743272, 34.342998288], [-86.215513509, 34.342955608], [-86.214653471, 34.342613295], [-86.214394681, 34.343373321]]]}, "properties": {"arm": "81", "name": "Short Creek", "comid": 19650372, "kind": "aboveHead"}}