{"type": "Feature", "geometry": {"type": "Polygon", "coordinates": [[[-85.732607788, 35.039778551], [-85.733927737, 35.039496084], [-85.735828616, 35.037873934], [-85.738834767, 35.036325463], [-85.738815979, 35.035318791], [-85.739200668, 35.034004047], [-85.73945985, 35.033489486], [-85.741305511, 35.032627252], [-85.743477986, 35.033934302], [-85.744357064, 35.034101916], [-85.745949242, 35.034081259], [-85.746202803, 35.036039759], [-85.747142638, 35.037232433], [-85.748169187, 35.037427678], [-85.752406823, 35.036837919], [-85.753306279, 35.037009351], [-85.753807464, 35.03700265], [-85.755433484, 35.037313501], [-85.756454068, 35.036949815], [-85.75990889, 35.03340692], [-85.762639988, 35.03215619], [-85.764113822, 35.03091557], [-85.764967229, 35.030865879], [-85.766534142, 35.031306261], [-85.769021523, 35.031877635], [-85.769599534, 35.032231543], [-85.771417624, 35.032508397], [-85.771757464, 35.032889941], [-85.773081862, 35.033858938], [-85.776064484, 35.036517086], [-85.776879591, 35.037437336], [-85.777075146, 35.039504399], [-85.77882975, 35.041077618], [-85.780823356, 35.042364062], [-85.782734806, 35.042665717], [-85.783201488, 35.04231246], [-85.783920809, 35.042623834], [-85.785207576, 35.043545129], [-85.786433563, 35.042246817], [-85.786493864, 35.040486542], [-85.786888343, 35.040185965], [-85.789560822, 35.039782792], [-85.793094596, 35.038860523], [-85.794278543, 35.038325363], [-85.795752595, 35.037939781], [-85.796394145, 35.036430321], [-85.79658824, 35.036322934], [-85.79795416, 35.036650545], [-85.798645832, 35.038381526], [-85.800211733, 35.040298214], [-85.80014494, 35.043810768], [-85.800852331, 35.045717947], [-85.801097031, 35.046775806], [-85.802323337, 35.047194418], [-85.802785899, 35.04738007], [-85.80295243, 35.04724499], [-85.804597297, 35.047103804], [-85.80510833, 35.04608437], [-85.806007807, 35.045865625], [-85.807331843, 35.044689427], [-85.80846629, 35.043410337], [-85.810480958, 35.041645331], [-85.809913199, 35.038981393], [-85.810638711, 35.037837344], [-85.810197378, 35.035770088], [-85.811144512, 35.036092694], [-85.812104753, 35.036669247], [-85.814513329, 35.035427235], [-85.815711571, 35.035135399], [-85.816585974, 35.034183348], [-85.817400685, 35.032994352], [-85.818503545, 35.032028451], [-85.818664913, 35.032166785], [-85.820725143, 35.03334666], [-85.822888563, 35.035142212], [-85.825193639, 35.036088358], [-85.827336595, 35.035568811], [-85.828431682, 35.03473909], [-85.830102998, 35.03380773], [-85.830674379, 35.032056087], [-85.831522168, 35.031086881], [-85.832885605, 35.031295889], [-85.833354382, 35.031846434], [-85.833515776, 35.031984748], [-85.8340503, 35.032962348], [-85.836724495, 35.033601129], [-85.840717514, 35.03368646], [-85.841495283, 35.034598746], [-85.842016515, 35.036933979], [-85.840793236, 35.036747785], [-85.838489628, 35.038831567], [-85.837754555, 35.041601313], [-85.839599226, 35.043191859], [-85.841111147, 35.043226136], [-85.842484602, 35.044303841], [-85.843182587, 35.046053961], [-85.84453881, 35.047222832], [-85.843833494, 35.048375115], [-85.843385242, 35.049435931], [-85.84292636, 35.050184032], [-85.842442704, 35.051511429], [-85.842213253, 35.051885477], [-85.842107107, 35.052685238], [-85.841777344, 35.052656634], [-85.841840464, 35.053614332], [-85.841185376, 35.054328554], [-85.840519456, 35.055300956], [-85.840539946, 35.056324475], [-85.840213511, 35.057448512], [-85.839160502, 35.057704761], [-85.838057712, 35.059454533], [-85.838119393, 35.062405024], [-85.840232064, 35.064100895], [-85.83965631, 35.064727192], [-85.839075509, 35.066863528], [-85.838202403, 35.068923942], [-85.839479051, 35.071008628], [-85.839650776, 35.072306476], [-85.840481607, 35.073469782], [-85.841113262, 35.075249905], [-85.841294736, 35.075375188], [-85.841844969, 35.076198147], [-85.843067167, 35.076691744], [-85.84394658, 35.078000368], [-85.843881069, 35.079534634], [-85.844564225, 35.080063634], [-85.845727263, 35.081592737], [-85.847529571, 35.08119279], [-85.849806537, 35.081832476], [-85.852711844, 35.084496208], [-85.8536765, 35.085085336], [-85.854719962, 35.085866658], [-85.855092203, 35.086598278], [-85.855532938, 35.087285267], [-85.855703051, 35.087417965], [-85.856344381, 35.088263458], [-85.858723323, 35.087919575], [-85.859720272, 35.088128042], [-85.860099582, 35.089180449], [-85.860571959, 35.090002865], [-85.861547965, 35.090428585], [-85.861959263, 35.09157433], [-85.864395106, 35.093280712], [-85.865275927, 35.094818842], [-85.866853627, 35.095781051], [-85.867010964, 35.097821145], [-85.868918511, 35.098655955], [-85.869806217, 35.099198239], [-85.870887561, 35.09879036], [-85.873688218, 35.099575888], [-85.873775664, 35.100727281], [-85.873658066, 35.102265405], [-85.874789672, 35.10250221], [-85.875674878, 35.103379159], [-85.875697371, 35.103859279], [-85.874890475, 35.104754347], [-85.874409925, 35.104681231], [-85.872120025, 35.105905253], [-85.871407191, 35.106444004], [-85.871352552, 35.108156083], [-85.870340966, 35.109079778], [-85.869721711, 35.110014205], [-85.871388361, 35.11144953], [-85.870322088, 35.112667622], [-85.869270463, 35.114129219], [-85.867593632, 35.114384508], [-85.865651358, 35.115855448], [-85.864713625, 35.119231132], [-85.862576046, 35.12091475], [-85.861591877, 35.124206348], [-85.861945367, 35.124510763], [-85.861754938, 35.124924018], [-85.861243932, 35.125669758], [-85.861722804, 35.126425273], [-85.861830521, 35.127186605], [-85.861210995, 35.127767079], [-85.85995015, 35.128285761], [-85.859469922, 35.12807149], [-85.858186052, 35.129392843], [-85.857292129, 35.132808066], [-85.857272424, 35.133408816], [-85.857150108, 35.133937495], [-85.8571211, 35.134804963], [-85.858626654, 35.13551027], [-85.858703867, 35.136363752], [-85.858291958, 35.13701062], [-85.860349142, 35.139615197], [-85.860599397, 35.142684888], [-85.861774858, 35.144326344], [-85.860300792, 35.145525953], [-85.860823588, 35.148842472], [-85.860038356, 35.150080572], [-85.85980097, 35.150748853], [-85.859881602, 35.151183433], [-85.860427998, 35.152532457], [-85.860599719, 35.154070258], [-85.861180976, 35.155451776], [-85.862341376, 35.156205082], [-85.864799805, 35.156851488], [-85.866655054, 35.156792735], [-85.868028036, 35.157812901], [-85.868528552, 35.157974098], [-85.870129407, 35.159854373], [-85.870548743, 35.160903768], [-85.871542367, 35.162188116], [-85.871948329, 35.163929347], [-85.872465648, 35.164909252], [-85.872807822, 35.166383774], [-85.874700553, 35.168013212], [-85.875300997, 35.169882838], [-85.874979211, 35.171070437], [-85.873924461, 35.174086281], [-85.875149155, 35.176070861], [-85.878931427, 35.176245579], [-85.881195229, 35.176514587], [-85.882990477, 35.175630998], [-85.884431386, 35.175392964], [-85.88547256, 35.175059365], [-85.886402908, 35.175562948], [-85.887601974, 35.175988582], [-85.890585643, 35.178510027], [-85.892106938, 35.179045521], [-85.893478855, 35.180532812], [-85.893884977, 35.182139097], [-85.894002966, 35.182549457], [-85.894098628, 35.183286476], [-85.893950213, 35.183994045], [-85.894331033, 35.185259028], [-85.894636467, 35.186521728], [-85.894941417, 35.187531628], [-85.894996436, 35.191378224], [-85.892624807, 35.194150134], [-85.891711216, 35.195392075], [-85.891621474, 35.196898757], [-85.892117264, 35.198538017], [-85.891872958, 35.199713335], [-85.892194862, 35.201265999], [-85.892039683, 35.201412709], [-85.89164784, 35.202341521], [-85.89027454, 35.204175733], [-85.889108677, 35.206158391], [-85.887162677, 35.207012264], [-85.886285547, 35.208036152], [-85.883760562, 35.209436154], [-85.880898992, 35.212134041], [-85.881088287, 35.213582623], [-85.882877736, 35.214227638], [-85.883463022, 35.215447058], [-85.88227722, 35.216749724], [-85.88174501, 35.217080868], [-85.881545233, 35.217484899], [-85.880245251, 35.218623948], [-85.879408816, 35.219575476], [-85.874091283, 35.223773842], [-85.871875873, 35.22472432], [-85.870941204, 35.224997529], [-85.870301818, 35.225820672], [-85.869164824, 35.226240699], [-85.868002823, 35.226022464], [-85.867094386, 35.225468036], [-85.865805133, 35.225952822], [-85.86516205, 35.227255854], [-85.863161657, 35.228001479], [-85.861535691, 35.229369168], [-85.859838973, 35.229597546], [-85.85870076, 35.2300258], [-85.857198336, 35.230226694], [-85.856695067, 35.23012213], [-85.856227487, 35.230515626], [-85.856128243, 35.23228476], [-85.856510339, 35.232888577], [-85.856170107, 35.233699589], [-85.854973507, 35.234881031], [-85.855223993, 35.235551411], [-85.854861041, 35.236592147], [-85.853801459, 35.237115621], [-85.851379786, 35.237234904], [-85.850938424, 35.237607479], [-85.850727756, 35.237698796], [-85.850207097, 35.238824885], [-85.848671079, 35.24002327], [-85.846818338, 35.240676102], [-85.846475358, 35.240996088], [-85.845113006, 35.241025711], [-85.842373858, 35.241370119], [-85.840362982, 35.240482103], [-85.833870412, 35.240233973], [-85.828630712, 35.239523207], [-85.827423626, 35.239759858], [-85.825857453, 35.240005403], [-85.824114179, 35.240677912], [-85.824839122, 35.24166753], [-85.825017342, 35.242525512], [-85.825152217, 35.242924766], [-85.823807951, 35.243484407], [-85.82152913, 35.243529117], [-85.820887751, 35.243793682], [-85.820346452, 35.243856285], [-85.819017064, 35.24500905], [-85.818207578, 35.248629184], [-85.816459874, 35.249332809], [-85.815597152, 35.249375944], [-85.814605353, 35.249289921], [-85.814569784, 35.249556449], [-85.813709364, 35.249601877], [-85.80946846, 35.250192315], [-85.808167328, 35.251307405], [-85.806410841, 35.251664685], [-85.80494632, 35.25241801], [-85.80264048, 35.252447395], [-85.801839159, 35.252226149], [-85.801658353, 35.252347361], [-85.79915284, 35.253909634], [-85.798047827, 35.255608279], [-85.792038608, 35.260975552], [-85.790407814, 35.261484669], [-85.789353175, 35.261788984], [-85.788660833, 35.262002621], [-85.787297978, 35.262149524], [-85.786016448, 35.262547827], [-85.783582979, 35.26237619], [-85.78215748, 35.261839323], [-85.781544642, 35.262434777], [-85.781353436, 35.262847848], [-85.781472388, 35.263481694], [-85.782015244, 35.264365165], [-85.782175775, 35.265800951], [-85.782665419, 35.267160045], [-85.78349958, 35.26826895], [-85.783330095, 35.270569129], [-85.780848154, 35.271947759], [-85.78013297, 35.273111454], [-85.779507056, 35.274584127], [-85.778137425, 35.27534542], [-85.777169402, 35.276074246], [-85.775062065, 35.276196259], [-85.772516704, 35.276368567], [-85.772053487, 35.276509386], [-85.771783843, 35.276843996], [-85.769533573, 35.276199373], [-85.767766549, 35.276161318], [-85.765695781, 35.276867721], [-85.76491909, 35.277455145], [-85.763804221, 35.277621303], [-85.762763632, 35.27809093], [-85.761856485, 35.278325727], [-85.760782207, 35.277897171], [-85.758694048, 35.277466578], [-85.757443614, 35.278408665], [-85.756544477, 35.278642015], [-85.755986, 35.278557504], [-85.752491792, 35.280129577], [-85.752146665, 35.28106422], [-85.752271635, 35.282001955], [-85.750971168, 35.281972761], [-85.749749892, 35.2812764], [-85.747584612, 35.281710956], [-85.745412949, 35.281376061], [-85.744578894, 35.281358018], [-85.744169143, 35.281294862], [-85.742014446, 35.281728136], [-85.740595687, 35.281509448], [-85.739021164, 35.281826925], [-85.737308722, 35.281925899], [-85.735738842, 35.281567561], [-85.734672019, 35.28022941], [-85.734636645, 35.278102981], [-85.733842318, 35.277848191], [-85.733096837, 35.277521831], [-85.730559326, 35.27687661], [-85.72957095, 35.276238292], [-85.728069317, 35.275995342], [-85.727868576, 35.276399089], [-85.726329551, 35.277578954], [-85.724785806, 35.279006957], [-85.72228156, 35.280190816], [-85.719432528, 35.279684515], [-85.718158908, 35.27912646], [-85.717639393, 35.278442708], [-85.714787312, 35.277940232], [-85.713107626, 35.276691425], [-85.712275984, 35.276500624], [-85.710745758, 35.27627601], [-85.710327864, 35.276060347], [-85.709325005, 35.275704959], [-85.708392262, 35.274694246], [-85.703971395, 35.27483556], [-85.70363983, 35.274793856], [-85.703004102, 35.274759192], [-85.702598355, 35.272555957], [-85.702528679, 35.271871531], [-85.702787358, 35.271717257], [-85.702928706, 35.270069665], [-85.702262438, 35.267763525], [-85.704862196, 35.267595405], [-85.705195856, 35.266982146], [-85.704321948, 35.266718054], [-85.703457746, 35.26543311], [-85.702179799, 35.264541624], [-85.701803774, 35.262370456], [-85.699974365, 35.261653877], [-85.698173605, 35.26244811], [-85.697972292, 35.262177658], [-85.697608306, 35.26129255], [-85.69648789, 35.2606676], [-85.695848294, 35.26064308], [-85.695027129, 35.260531], [-85.69419528, 35.260498027], [-85.692458239, 35.260259203], [-85.689287822, 35.260454874], [-85.687134682, 35.262018529], [-85.686626, 35.261702101], [-85.685733462, 35.259546566], [-85.682830916, 35.25627276], [-85.682249426, 35.256069989], [-85.68259678, 35.254602675], [-85.684067132, 35.253410984], [-85.683054182, 35.251992684], [-85.683972472, 35.250998967], [-85.683281446, 35.24980908], [-85.682431226, 35.248617837], [-85.682380385, 35.245824132], [-85.68341487, 35.244202307], [-85.682489313, 35.243027606], [-85.682506213, 35.241800895], [-85.681655457, 35.241252121], [-85.678808923, 35.240487872], [-85.67741347, 35.237765512], [-85.676117849, 35.237183891], [-85.675018122, 35.235212198], [-85.674903252, 35.23262347], [-85.674310362, 35.231791831], [-85.674219245, 35.231364578], [-85.674699311, 35.231002315], [-85.676686096, 35.230818916], [-85.67850113, 35.227944848], [-85.680028752, 35.226558114], [-85.681328175, 35.224443444], [-85.681511793, 35.220804417], [-85.681224777, 35.220260927], [-85.681127909, 35.219837385], [-85.680630247, 35.219673545], [-85.67971509, 35.21929392], [-85.677897817, 35.218805456], [-85.677302325, 35.216003777], [-85.675548619, 35.214524363], [-85.672063518, 35.213796357], [-85.670981264, 35.21328186], [-85.670110495, 35.21164831], [-85.669827426, 35.206655603], [-85.669114364, 35.20368335], [-85.667540108, 35.20165283], [-85.666017164, 35.201636692], [-85.663775243, 35.202128146], [-85.662106137, 35.201397513], [-85.661924392, 35.201158177], [-85.662116088, 35.200745277], [-85.662959594, 35.199915769], [-85.663823177, 35.197876605], [-85.663347147, 35.196589536], [-85.663306514, 35.195886492], [-85.663048345, 35.195324399], [-85.662882365, 35.194833632], [-85.66379378, 35.192189804], [-85.663749334, 35.191206212], [-85.663862871, 35.190849627], [-85.663284992, 35.189138525], [-85.66349587, 35.188487132], [-85.663451713, 35.187501454], [-85.664285491, 35.186260249], [-85.665401913, 35.18528412], [-85.666193135, 35.183044726], [-85.666941244, 35.181374589], [-85.667398214, 35.179501828], [-85.668956997, 35.177686082], [-85.668993668, 35.177086754], [-85.669835908, 35.176109617], [-85.670414079, 35.175328331], [-85.67126313, 35.174339144], [-85.670836075, 35.173500933], [-85.670577034, 35.171748394], [-85.669187634, 35.169706672], [-85.668122891, 35.169414835], [-85.666259271, 35.170358859], [-85.664691923, 35.169112536], [-85.662018474, 35.169096026], [-85.659329915, 35.167860341], [-85.658534922, 35.165190335], [-85.656174984, 35.164227937], [-85.654803554, 35.161787256], [-85.654829492, 35.158896749], [-85.655638913, 35.157602871], [-85.655844318, 35.157203821], [-85.656085797, 35.156538267], [-85.656685055, 35.155581914], [-85.656610498, 35.152372812], [-85.655865636, 35.150992378], [-85.657719996, 35.149400887], [-85.657916868, 35.14929605], [-85.660472326, 35.148636521], [-85.663449449, 35.146383359], [-85.664888157, 35.14601085], [-85.666289069, 35.145531754], [-85.667812571, 35.145767156], [-85.669617244, 35.143922508], [-85.671772353, 35.144253543], [-85.672976164, 35.144151001], [-85.673088882, 35.144321054], [-85.674026697, 35.144622773], [-85.676106409, 35.143773543], [-85.677336788, 35.142624063], [-85.67934092, 35.142391768], [-85.679973941, 35.141800676], [-85.680354897, 35.140216115], [-85.682347967, 35.138170874], [-85.682382874, 35.137158422], [-85.682650072, 35.136029466], [-85.682057061, 35.134894327], [-85.682166995, 35.134427843], [-85.681946825, 35.133468785], [-85.681522216, 35.132091418], [-85.682460454, 35.131383912], [-85.683496055, 35.131114778], [-85.684362234, 35.129916329], [-85.685802948, 35.129699682], [-85.687189014, 35.129075792], [-85.687908009, 35.128890433], [-85.689094078, 35.12835638], [-85.691078705, 35.127839878], [-85.692054533, 35.127104008], [-85.69285192, 35.126898125], [-85.694415376, 35.126350856], [-85.694451306, 35.126084333], [-85.694654127, 35.125682894], [-85.695501095, 35.124354168], [-85.695343578, 35.123316371], [-85.69453626, 35.122183515], [-85.695862261, 35.118655164], [-85.694620698, 35.11642856], [-85.694496516, 35.115840347], [-85.693781673, 35.115608933], [-85.693356241, 35.114391648], [-85.693292509, 35.113703402], [-85.69278091, 35.112699759], [-85.69399386, 35.110686872], [-85.692416859, 35.110137323], [-85.689678819, 35.107694708], [-85.68850613, 35.107648411], [-85.686561973, 35.106708283], [-85.686581131, 35.106372857], [-85.687135336, 35.105454544], [-85.686794844, 35.104788277], [-85.686509776, 35.10287957], [-85.684876759, 35.101412652], [-85.683958757, 35.099189046], [-85.682744931, 35.097689459], [-85.681763547, 35.096380989], [-85.682168987, 35.094844886], [-85.685134496, 35.094223182], [-85.685737144, 35.092809782], [-85.686333296, 35.092198565], [-85.685883987, 35.091604875], [-85.684501049, 35.09076042], [-85.682329848, 35.089071153], [-85.681424889, 35.087602937], [-85.681336761, 35.087173774], [-85.680932804, 35.086824249], [-85.679939238, 35.085162791], [-85.678610445, 35.085618829], [-85.676496359, 35.086618793], [-85.673750252, 35.08650529], [-85.67265863, 35.085996084], [-85.672311077, 35.0859823], [-85.67053228, 35.084460109], [-85.668833216, 35.083448498], [-85.667561976, 35.082011044], [-85.665628187, 35.081077702], [-85.664733618, 35.080442514], [-85.663578199, 35.079885437], [-85.661307558, 35.077316701], [-85.661510423, 35.0769153], [-85.662820084, 35.07490275], [-85.66329781, 35.073566886], [-85.663810612, 35.072550177], [-85.663613341, 35.071173703], [-85.66508194, 35.069874707], [-85.665818653, 35.068801893], [-85.666760256, 35.067968397], [-85.667741715, 35.066936131], [-85.669961036, 35.065134402], [-85.670349724, 35.064920051], [-85.671461491, 35.064080461], [-85.672140972, 35.062484226], [-85.672781641, 35.061175342], [-85.67161666, 35.058952875], [-85.671495391, 35.057572574], [-85.671302098, 35.056107955], [-85.67165802, 35.055035234], [-85.672007694, 35.054452912], [-85.671859899, 35.051820757], [-85.669473765, 35.050131071], [-85.666563228, 35.04757748], [-85.664368794, 35.046515648], [-85.663885315, 35.045560579], [-85.663261285, 35.04346578], [-85.663614997, 35.041792336], [-85.663788643, 35.041664381], [-85.66426227, 35.040627342], [-85.666959337, 35.039103859], [-85.669429074, 35.03825983], [-85.673827678, 35.036561847], [-85.677153513, 35.034141198], [-85.679976568, 35.031621357], [-85.68208227, 35.029860005], [-85.683068846, 35.028861798], [-85.683566108, 35.028574807], [-85.683798127, 35.028148547], [-85.689567488, 35.02477769], [-85.690733836, 35.02368148], [-85.692116068, 35.022045888], [-85.696528841, 35.022573502], [-85.699514753, 35.025263682], [-85.702065404, 35.026000136], [-85.703427366, 35.027051278], [-85.705019523, 35.027766552], [-85.705678733, 35.027824529], [-85.707255086, 35.028502559], [-85.708019192, 35.02911758], [-85.708485417, 35.030378556], [-85.709370911, 35.031505715], [-85.709713174, 35.032429191], [-85.712266371, 35.034486725], [-85.713591647, 35.034843385], [-85.714924112, 35.035398721], [-85.715517343, 35.036510673], [-85.716185947, 35.036809608], [-85.717368835, 35.036325653], [-85.719788505, 35.036993273], [-85.721574553, 35.036829831], [-85.722404184, 35.037385172], [-85.724670483, 35.037196419], [-85.725607283, 35.038254179], [-85.726202451, 35.038654064], [-85.727883312, 35.037429905], [-85.728632385, 35.038275214], [-85.730398601, 35.039327735], [-85.730760669, 35.039736644], [-85.732607788, 35.039778551]]]}, "properties": {"arm": "85", "name": "Battle Creek", "comid": 19643332, "kind": "aboveHead"}}