{"type": "Feature", "geometry": {"type": "Polygon", "coordinates": [[[-85.702691077, 34.822863468], [-85.703685994, 34.823311625], [-85.705135749, 34.824185564], [-85.707689265, 34.824153644], [-85.709677464, 34.825625055], [-85.711843323, 34.825596799], [-85.712922629, 34.825803623], [-85.714187873, 34.827415651], [-85.716521316, 34.829298796], [-85.716647907, 34.829459578], [-85.717832454, 34.8294438], [-85.718638687, 34.829148116], [-85.719293974, 34.828194248], [-85.719875191, 34.827560511], [-85.72127691, 34.828406811], [-85.723831118, 34.827729708], [-85.725039803, 34.827960449], [-85.727722611, 34.829079591], [-85.729700896, 34.828355895], [-85.731747348, 34.829589649], [-85.732242599, 34.829753336], [-85.734411013, 34.832232711], [-85.735297549, 34.833823793], [-85.736427301, 34.834567993], [-85.738628811, 34.836101833], [-85.740000359, 34.835659705], [-85.741340525, 34.835821735], [-85.74243822, 34.837020355], [-85.744212557, 34.837901181], [-85.745225336, 34.838607609], [-85.747765386, 34.839340677], [-85.748821527, 34.840111989], [-85.748943636, 34.840521003], [-85.748886642, 34.840792064], [-85.748823781, 34.841846549], [-85.74960993, 34.843005078], [-85.75065583, 34.845001945], [-85.751542582, 34.845037636], [-85.753224083, 34.84556454], [-85.753086049, 34.848039091], [-85.752876331, 34.848130268], [-85.751944391, 34.849717491], [-85.751240488, 34.850414352], [-85.750859794, 34.851240732], [-85.750096136, 34.851995562], [-85.749623924, 34.853020424], [-85.749024643, 34.853614769], [-85.748542752, 34.854653529], [-85.74833301, 34.854744697], [-85.747965165, 34.855338282], [-85.746458613, 34.856788618], [-85.745555458, 34.857088634], [-85.745227003, 34.858029167], [-85.743389713, 34.859444103], [-85.7428256, 34.860085763], [-85.742132157, 34.860294594], [-85.741866131, 34.860631582], [-85.741660687, 34.861332138], [-85.741259479, 34.861532917], [-85.739938229, 34.862645426], [-85.73881553, 34.862700623], [-85.737828797, 34.862613921], [-85.737662551, 34.862748934], [-85.73504455, 34.862826525], [-85.733385307, 34.863432998], [-85.731070834, 34.863554045], [-85.730437947, 34.864242292], [-85.729697654, 34.865713457], [-85.727976978, 34.866603167], [-85.72747865, 34.866441325], [-85.725326983, 34.865442822], [-85.724350061, 34.86567087], [-85.723612481, 34.866771348], [-85.722407391, 34.86734388], [-85.720654682, 34.8676954], [-85.71782305, 34.86845347], [-85.716898843, 34.868481686], [-85.715956507, 34.868082606], [-85.714096015, 34.868966139], [-85.713132423, 34.869191059], [-85.712110787, 34.869674282], [-85.711581192, 34.869745646], [-85.710647974, 34.868464327], [-85.711424401, 34.866048105], [-85.710684789, 34.865068333], [-85.7090951, 34.864553147], [-85.708971316, 34.864390506], [-85.707886624, 34.864084178], [-85.705481597, 34.864200959], [-85.703959757, 34.864536755], [-85.701559203, 34.86351584], [-85.698867326, 34.863735742], [-85.69687393, 34.86448506], [-85.695854735, 34.863691253], [-85.695486321, 34.863201431], [-85.694170734, 34.86308534], [-85.693283915, 34.86550651], [-85.690332164, 34.865608454], [-85.687359772, 34.866328094], [-85.68655555, 34.866604807], [-85.685601675, 34.866853545], [-85.684124969, 34.868902233], [-85.680256692, 34.871660575], [-85.680770233, 34.873332909], [-85.680421434, 34.874804709], [-85.67965032, 34.875684932], [-85.67930004, 34.877148167], [-85.679492759, 34.87805454], [-85.681014289, 34.880797983], [-85.680517025, 34.882503229], [-85.681971262, 34.883679085], [-85.682351089, 34.884161516], [-85.683215473, 34.884328478], [-85.683631164, 34.884544321], [-85.685043865, 34.884869277], [-85.685168541, 34.885489331], [-85.684839553, 34.885460281], [-85.684803702, 34.885726865], [-85.683879357, 34.886005611], [-85.683709173, 34.886439463], [-85.68388818, 34.886984234], [-85.683422328, 34.88857213], [-85.682764327, 34.888514021], [-85.682728468, 34.888780604], [-85.682399466, 34.888751548], [-85.682363606, 34.88901813], [-85.682034604, 34.888989073], [-85.681998742, 34.889255656], [-85.680408724, 34.890074091], [-85.678366755, 34.890133945], [-85.675848744, 34.891430907], [-85.673638586, 34.89219867], [-85.673235357, 34.892527614], [-85.673271195, 34.894328422], [-85.674521538, 34.895338804], [-85.675488833, 34.896655021], [-85.675658213, 34.896788004], [-85.675746092, 34.897217254], [-85.67604897, 34.897749797], [-85.676553713, 34.899410782], [-85.675834459, 34.901507326], [-85.675562641, 34.902444286], [-85.674718786, 34.902915539], [-85.673846831, 34.904155615], [-85.674766975, 34.905880702], [-85.67456692, 34.906284505], [-85.673255855, 34.908292908], [-85.672383012, 34.910137719], [-85.672146285, 34.910504558], [-85.672074473, 34.911037705], [-85.671787541, 34.911197797], [-85.670371581, 34.912651086], [-85.669063505, 34.913380522], [-85.667332638, 34.91612728], [-85.666018625, 34.91643679], [-85.665792626, 34.9170132], [-85.665252601, 34.917178294], [-85.665219714, 34.919101548], [-85.664221164, 34.920583254], [-85.664572503, 34.921798679], [-85.663943185, 34.923127583], [-85.663914856, 34.923472797], [-85.665715291, 34.924902756], [-85.666005991, 34.925583854], [-85.667145463, 34.926647664], [-85.669889594, 34.929726733], [-85.669236897, 34.930707978], [-85.668322696, 34.9311772], [-85.666577682, 34.932597153], [-85.66660806, 34.934321553], [-85.665742867, 34.934639145], [-85.665202654, 34.934534487], [-85.663686091, 34.935108474], [-85.663850939, 34.936086115], [-85.664295077, 34.936884035], [-85.66330611, 34.937926137], [-85.662507771, 34.938635268], [-85.661773567, 34.939409071], [-85.660655848, 34.940401836], [-85.661163972, 34.942809122], [-85.659440329, 34.944627059], [-85.658844416, 34.944934709], [-85.659000818, 34.94535737], [-85.658139793, 34.947205225], [-85.655771353, 34.950057688], [-85.652612186, 34.951940298], [-85.651086048, 34.952254097], [-85.650623585, 34.952999209], [-85.65041346, 34.953090193], [-85.648940685, 34.952584712], [-85.646961298, 34.949258944], [-85.646576913, 34.948289231], [-85.646158815, 34.947588381], [-85.64489896, 34.947858241], [-85.642194452, 34.947338393], [-85.641693841, 34.94734462], [-85.641206742, 34.947250886], [-85.640372393, 34.947261255], [-85.639398201, 34.947073775], [-85.638396983, 34.947086201], [-85.637747526, 34.946961204], [-85.637121766, 34.946968963], [-85.634999421, 34.94559014], [-85.633876925, 34.946114413], [-85.633539625, 34.946048679], [-85.633195602, 34.946051894], [-85.632732332, 34.94585908], [-85.632753854, 34.944872609], [-85.632583402, 34.944497125], [-85.63245109, 34.94433998], [-85.630475316, 34.942725379], [-85.628002733, 34.939724217], [-85.62633212, 34.938933211], [-85.625805188, 34.937961279], [-85.62538937, 34.937745243], [-85.6248537, 34.937607082], [-85.624040166, 34.937695041], [-85.623171673, 34.937727538], [-85.62141597, 34.93739254], [-85.618165167, 34.937373633], [-85.616275869, 34.936257461], [-85.613292612, 34.935436045], [-85.611034903, 34.936232256], [-85.607608735, 34.935683236], [-85.606820998, 34.935465674], [-85.606146454, 34.934202311], [-85.60605036, 34.933778588], [-85.604400733, 34.932662434], [-85.603232506, 34.932448939], [-85.603003792, 34.932158834], [-85.601724157, 34.93138535], [-85.600509057, 34.931517505], [-85.599512051, 34.931730173], [-85.59496087, 34.931782457], [-85.593592936, 34.930931467], [-85.592426992, 34.930068938], [-85.591600139, 34.929795092], [-85.591325598, 34.929382854], [-85.58981666, 34.928765838], [-85.588632612, 34.92797963], [-85.587235729, 34.927591744], [-85.586727296, 34.927637072], [-85.584650811, 34.927022104], [-85.583490472, 34.92749828], [-85.582660203, 34.925852026], [-85.581373634, 34.924997581], [-85.580222197, 34.925274297], [-85.579600194, 34.92494907], [-85.579354841, 34.925203289], [-85.577994251, 34.92544869], [-85.577845894, 34.92560196], [-85.574142595, 34.925143099], [-85.57252238, 34.924197662], [-85.57164753, 34.923550547], [-85.570656508, 34.923221846], [-85.570439892, 34.922633458], [-85.569337389, 34.920676139], [-85.568897027, 34.919475531], [-85.567949507, 34.91890409], [-85.567124946, 34.918710345], [-85.56718274, 34.917214867], [-85.566844768, 34.916619846], [-85.566999057, 34.916136217], [-85.566989054, 34.915865546], [-85.567235867, 34.915103538], [-85.566923588, 34.914224169], [-85.56620505, 34.913232649], [-85.564928096, 34.912998486], [-85.564163446, 34.911848972], [-85.562329633, 34.911385892], [-85.561707885, 34.910563162], [-85.561632044, 34.910126423], [-85.561047871, 34.909161615], [-85.561905102, 34.906763789], [-85.562427159, 34.906197093], [-85.563555125, 34.904428344], [-85.563544951, 34.902323973], [-85.562858681, 34.899510032], [-85.563061299, 34.898824165], [-85.561927573, 34.896813307], [-85.561711098, 34.896224887], [-85.56154477, 34.896089887], [-85.560685867, 34.896131171], [-85.559356532, 34.896627824], [-85.558252059, 34.895797739], [-85.556682591, 34.895115766], [-85.554925615, 34.894817471], [-85.553108222, 34.893683303], [-85.552701018, 34.891745717], [-85.55245199, 34.888494397], [-85.551010966, 34.887863861], [-85.55075465, 34.88730135], [-85.549913284, 34.887042708], [-85.548709395, 34.886199393], [-85.548572645, 34.884855057], [-85.547579719, 34.882883979], [-85.546730704, 34.882624623], [-85.545907932, 34.883394091], [-85.543983929, 34.883788862], [-85.543116325, 34.884600671], [-85.541588634, 34.884702073], [-85.540584004, 34.885202293], [-85.539679716, 34.885500713], [-85.536386651, 34.886415628], [-85.533930929, 34.887751162], [-85.532184786, 34.887927724], [-85.531050237, 34.889054887], [-85.529330505, 34.889533084], [-85.528858719, 34.889863872], [-85.528138871, 34.890811082], [-85.526997279, 34.891779496], [-85.525586696, 34.89330764], [-85.525066476, 34.89498306], [-85.524865503, 34.895083075], [-85.524219018, 34.895625824], [-85.523003008, 34.897614026], [-85.522162134, 34.897808408], [-85.520741225, 34.898477706], [-85.520536104, 34.898893511], [-85.520097021, 34.899136568], [-85.51828979, 34.900652242], [-85.51612124, 34.901498914], [-85.515018277, 34.902715199], [-85.514396731, 34.902389619], [-85.514636349, 34.901721873], [-85.515346283, 34.90031645], [-85.516647861, 34.898198983], [-85.517797775, 34.895515649], [-85.518948266, 34.89364597], [-85.519363652, 34.892852762], [-85.519555485, 34.892743505], [-85.520376131, 34.892144738], [-85.52148929, 34.890071447], [-85.523670064, 34.887094801], [-85.523705757, 34.886547864], [-85.524924162, 34.885131082], [-85.525134088, 34.884736777], [-85.525522268, 34.884522866], [-85.526775131, 34.883577092], [-85.529620908, 34.880432336], [-85.531318625, 34.879770905], [-85.533451067, 34.878591949], [-85.536042957, 34.878505917], [-85.536819505, 34.878952784], [-85.537928937, 34.878980503], [-85.539299408, 34.87636945], [-85.53856182, 34.875293747], [-85.538191832, 34.873658674], [-85.539272211, 34.871896368], [-85.540792455, 34.870169233], [-85.543606966, 34.867837111], [-85.544562102, 34.86678231], [-85.545744704, 34.865012243], [-85.547650072, 34.86475071], [-85.549599182, 34.864587912], [-85.550501039, 34.862796896], [-85.549524507, 34.861031693], [-85.550279464, 34.859058903], [-85.551521567, 34.858052922], [-85.552315791, 34.857643411], [-85.552948007, 34.856724066], [-85.55470928, 34.85581931], [-85.555205346, 34.854314452], [-85.554973569, 34.852731832], [-85.554290037, 34.850838989], [-85.555460976, 34.848998235], [-85.559043264, 34.846000968], [-85.560711866, 34.844055023], [-85.560310736, 34.842703874], [-85.560465978, 34.840416016], [-85.560745832, 34.839486199], [-85.561169941, 34.839005602], [-85.561785156, 34.837330092], [-85.563117056, 34.836730419], [-85.564346911, 34.836250186], [-85.56610932, 34.834299915], [-85.567272296, 34.83324035], [-85.568065642, 34.832337444], [-85.568272918, 34.831940728], [-85.569631458, 34.830283136], [-85.570853523, 34.829093921], [-85.57119982, 34.828534673], [-85.572225929, 34.827677834], [-85.573205434, 34.826015852], [-85.573415304, 34.825924994], [-85.573994287, 34.825297998], [-85.576983999, 34.822822766], [-85.580791589, 34.818685756], [-85.581074643, 34.818515], [-85.581287161, 34.818059713], [-85.582498937, 34.816924279], [-85.583335989, 34.816558465], [-85.583602555, 34.816221822], [-85.584062478, 34.813655498], [-85.58401137, 34.812959569], [-85.583064759, 34.810168613], [-85.582997966, 34.809243633], [-85.583467532, 34.807314724], [-85.584735669, 34.804938569], [-85.586636144, 34.802861242], [-85.587141122, 34.801915625], [-85.587667291, 34.801043564], [-85.589138892, 34.794539382], [-85.589839627, 34.793126415], [-85.591305832, 34.790972329], [-85.592650304, 34.787683876], [-85.593381365, 34.786832179], [-85.592812323, 34.785702184], [-85.593857292, 34.784642409], [-85.594353311, 34.784355724], [-85.594425542, 34.783822554], [-85.594097022, 34.783793247], [-85.59434015, 34.78312988], [-85.594799853, 34.782382546], [-85.59526901, 34.781277717], [-85.596479821, 34.780603701], [-85.59996876, 34.777856332], [-85.600958514, 34.776243535], [-85.600970263, 34.775907323], [-85.601116438, 34.775287996], [-85.600728682, 34.773586096], [-85.599210862, 34.771713854], [-85.599019155, 34.770866251], [-85.598001681, 34.768368293], [-85.597615466, 34.76667493], [-85.59704885, 34.76558519], [-85.596707202, 34.764713659], [-85.596171205, 34.763685664], [-85.596270651, 34.760918418], [-85.596525061, 34.759845001], [-85.596590295, 34.756889196], [-85.596013298, 34.75604935], [-85.59572585, 34.754777915], [-85.595405075, 34.754500555], [-85.595293271, 34.752871687], [-85.596775758, 34.753122017], [-85.598638466, 34.753747732], [-85.599869788, 34.754511026], [-85.600536063, 34.754806541], [-85.601815351, 34.755599384], [-85.602793047, 34.75746986], [-85.603439774, 34.758370687], [-85.604201372, 34.758345842], [-85.607415555, 34.759079232], [-85.607837974, 34.759776649], [-85.608831311, 34.76326097], [-85.609672157, 34.764781896], [-85.610059293, 34.765836598], [-85.611526847, 34.767908683], [-85.612853976, 34.768983863], [-85.614250358, 34.769854405], [-85.614863768, 34.770638346], [-85.615621349, 34.772699823], [-85.617777146, 34.774447332], [-85.619044106, 34.775238828], [-85.621762876, 34.775877052], [-85.622986978, 34.778005253], [-85.624695057, 34.779069885], [-85.628897254, 34.779879916], [-85.629803793, 34.781457047], [-85.631095158, 34.783108421], [-85.633426366, 34.783079553], [-85.634074436, 34.783204595], [-85.63541169, 34.783188527], [-85.636643527, 34.783934519], [-85.637602893, 34.784158861], [-85.637918488, 34.785131172], [-85.63703418, 34.786525938], [-85.637055272, 34.787813542], [-85.635843466, 34.788439384], [-85.635110425, 34.789213142], [-85.63426896, 34.789962508], [-85.634300919, 34.79172743], [-85.631820955, 34.792837043], [-85.631869056, 34.795463362], [-85.630962774, 34.797269253], [-85.630977837, 34.798138983], [-85.631518827, 34.798576994], [-85.631771554, 34.798898753], [-85.631937796, 34.799033668], [-85.632462407, 34.798958037], [-85.635133384, 34.798301671], [-85.637199224, 34.79668096], [-85.63923755, 34.796592202], [-85.64031313, 34.797227291], [-85.642611522, 34.797675849], [-85.644148437, 34.798377145], [-85.646775491, 34.798854787], [-85.648882031, 34.799435836], [-85.650248189, 34.799997539], [-85.651068841, 34.800192578], [-85.652288874, 34.799910864], [-85.65344893, 34.798685898], [-85.654027493, 34.79670539], [-85.655622698, 34.796010084], [-85.655951294, 34.796039218], [-85.656178485, 34.796377622], [-85.657198778, 34.797096166], [-85.65818872, 34.797500071], [-85.658440945, 34.798308592], [-85.658966752, 34.799149791], [-85.660265565, 34.800038414], [-85.662216671, 34.801794158], [-85.663119984, 34.8020702], [-85.663683818, 34.802918952], [-85.665303049, 34.804052977], [-85.665754715, 34.804731597], [-85.666500605, 34.804633259], [-85.667789757, 34.80414674], [-85.669819422, 34.805011429], [-85.670555466, 34.804735152], [-85.672271116, 34.804650961], [-85.674064485, 34.804394475], [-85.676457298, 34.80342804], [-85.677251056, 34.803321225], [-85.678834911, 34.802902816], [-85.681302166, 34.802870225], [-85.68142864, 34.80303105], [-85.683688154, 34.80394532], [-85.68554487, 34.806446786], [-85.686572939, 34.808232158], [-85.687523293, 34.808545874], [-85.688879934, 34.808794319], [-85.6900452, 34.809578025], [-85.690453185, 34.810041908], [-85.693116377, 34.812441628], [-85.69515937, 34.814759108], [-85.696682499, 34.815955793], [-85.697209787, 34.816828501], [-85.699768065, 34.819703485], [-85.699860991, 34.820695902], [-85.700370355, 34.820850444], [-85.701104336, 34.821345148], [-85.701603571, 34.821749586], [-85.702109765, 34.822392785], [-85.702691077, 34.822863468]]]}, "properties": {"arm": "91", "name": "Long Island Creek", "comid": 19644788, "kind": "aboveHead"}}