{"type": "Feature", "geometry": {"type": "Polygon", "coordinates": [[[-86.264369354, 34.309842377], [-86.264335762, 34.310109304], [-86.264002893, 34.310376387], [-86.262883623, 34.310988365], [-86.262529769, 34.312385361], [-86.262525699, 34.314918121], [-86.261725713, 34.316231277], [-86.262826049, 34.318045438], [-86.262440637, 34.318729583], [-86.262246694, 34.318835523], [-86.261394377, 34.318494188], [-86.259912123, 34.319016647], [-86.258369614, 34.318132603], [-86.256608313, 34.317531507], [-86.255290976, 34.317994008], [-86.253594107, 34.320772248], [-86.254127107, 34.321784351], [-86.254246293, 34.323254799], [-86.253059364, 34.323930553], [-86.251884388, 34.323753802], [-86.251464795, 34.323745922], [-86.251421464, 34.325297543], [-86.250588373, 34.326072567], [-86.250318647, 34.327004541], [-86.249793259, 34.327078378], [-86.248782121, 34.327566564], [-86.248058162, 34.32774171], [-86.247700665, 34.328284858], [-86.24726987, 34.328754402], [-86.246833996, 34.329918961], [-86.247776665, 34.33064943], [-86.248431779, 34.331511656], [-86.248914077, 34.334051576], [-86.249252342, 34.334316046], [-86.249602308, 34.335306438], [-86.251108335, 34.33531504], [-86.252249906, 34.334877834], [-86.254629332, 34.335880722], [-86.256160556, 34.336283344], [-86.257312529, 34.33703341], [-86.257780173, 34.337787089], [-86.257503767, 34.338670033], [-86.254994013, 34.340912136], [-86.253927108, 34.341452584], [-86.253209054, 34.342235184], [-86.252417674, 34.342944182], [-86.251827887, 34.343855566], [-86.251392223, 34.343953819], [-86.251794237, 34.344122479], [-86.251053872, 34.349994545], [-86.251380796, 34.350022022], [-86.251860141, 34.350437414], [-86.253115251, 34.351906333], [-86.254902201, 34.352330426], [-86.256388686, 34.354073722], [-86.256207272, 34.354878231], [-86.256198164, 34.355216744], [-86.256626366, 34.355587774], [-86.255319194, 34.35668125], [-86.254620968, 34.357674145], [-86.253876715, 34.357660088], [-86.25259322, 34.356743037], [-86.251101943, 34.358354153], [-86.251071284, 34.359497958], [-86.249045545, 34.360208564], [-86.246523718, 34.360308451], [-86.245784344, 34.361544398], [-86.244699695, 34.363838687], [-86.243644207, 34.365410499], [-86.243239068, 34.366206712], [-86.243047272, 34.366314915], [-86.242914711, 34.366158361], [-86.240716, 34.364862867], [-86.241035512, 34.36345676], [-86.239987362, 34.362966085], [-86.239395293, 34.36262546], [-86.237799668, 34.361972796], [-86.237046898, 34.361494301], [-86.236226613, 34.361305147], [-86.234540262, 34.360063166], [-86.231817745, 34.359585284], [-86.230903564, 34.359036253], [-86.229138464, 34.358704254], [-86.225969102, 34.358759688], [-86.224892322, 34.358312811], [-86.225545611, 34.356821041], [-86.225443957, 34.355501682], [-86.225004105, 34.354815542], [-86.224933131, 34.354213169], [-86.224451484, 34.353959733], [-86.224352731, 34.353536254], [-86.223736459, 34.352367395], [-86.22448895, 34.350784937], [-86.222350486, 34.34826336], [-86.220529202, 34.344581989], [-86.219948528, 34.343744848], [-86.219849812, 34.34332136], [-86.220333655, 34.340618284], [-86.221603063, 34.339376564], [-86.222024277, 34.33918869], [-86.223624741, 34.338390027], [-86.225562873, 34.337328979], [-86.225835654, 34.336681807], [-86.225815204, 34.336292316], [-86.227805472, 34.335532777], [-86.228956426, 34.334287326], [-86.229424795, 34.332786257], [-86.228635362, 34.331701847], [-86.229088361, 34.330342786], [-86.229280088, 34.330234602], [-86.230306151, 34.329159855], [-86.231803913, 34.328558971], [-86.235229183, 34.326691563], [-86.236514608, 34.324869396], [-86.237519153, 34.323697946], [-86.238717216, 34.323016955], [-86.239921503, 34.321754824], [-86.24061169, 34.318759241], [-86.241630572, 34.316225449], [-86.241502812, 34.314170468], [-86.241950603, 34.312195541], [-86.242366086, 34.311499225], [-86.243215844, 34.31145062], [-86.244197725, 34.311233995], [-86.245243716, 34.311081765], [-86.247012117, 34.310151539], [-86.24717629, 34.310015722], [-86.248325631, 34.310230427], [-86.249429928, 34.31047505], [-86.249556775, 34.310635348], [-86.250216068, 34.310931046], [-86.250796527, 34.311279119], [-86.253094747, 34.311712615], [-86.256263746, 34.309821002], [-86.257309694, 34.309668663], [-86.258259817, 34.30931438], [-86.261793242, 34.310468972], [-86.263749431, 34.309520565], [-86.263715837, 34.309787492], [-86.264369354, 34.309842377]]]}, "properties": {"arm": "98", "name": "Polecat Branch", "comid": 19650048, "kind": "aboveHead"}}